"id","diocese_id","code","alias","name","type","responsible","description","email","phone","url","picture","tags","phone_original","phone_international","phone_national","common_name","created_at","updated_at","addresse_messe_info_id","addresse_google_maps_id","address_country","address_locality","address_region","postal_code","street_address","formatted_address","latitude","longitude","zoom"
17092,932,"ve/78/ablis","192001","Ablis","Groupement paroissial","Père Charles-Henry HUGUET"," ","paroisse.ablis@wanadoo.fr","+33130591034","http://paroisse-ablis.fr","http://lh3.googleusercontent.com/jChmtQXTcd2kOoXbI8BDly_z59cv6ezZbxgW9nZ7MIu-XzWc0Hod6hh_tYLKbLs_4q30LbtBJ5slKglAYeDzMiM",,"01 30 59 10 34","+33 1 30 59 10 34","01 30 59 10 34",,"2018-04-07 11:24:57","2018-04-07 11:24:57",,,"fr","ABLIS",,"78660","1 avenue des Platanes",,,,
17093,932,"ve/78/acheres","192002","Achères","Paroisse","Père Jean-Pierre ZIMILLE-TRAN","&nbsp;","paroisse-stmartin-acheres@orange.fr","+33139111024","http://paroisse-acheres-catholique-yvelines.cef.fr/","http://lh3.googleusercontent.com/FL6C3b5dgzPhByA8Q9t3T8FsGY_h00v8R2q07GvBU-v8ienA33Rzxhue_4HWrz7ODQ2TaqsUWz49Nw2XQvG4Gw",,"01 39 11 10 24","+33 1 39 11 10 24","01 39 11 10 24",,"2018-04-07 11:24:57","2018-04-07 11:24:57",,,"fr","ACHERES",,"78260","8 avenue de Stalingrad",,,,
17094,932,"ve/78/notre-dame-de-la-route","192005","Aubergenville -  Notre Dame de la Route","Groupement paroissial","Père Damien WARNAN"," ","route113@neuf.fr","+33130957155","http://paroisse.aubergenville.org",,,"01 30 95 71 55","+33 1 30 95 71 55","01 30 95 71 55",,"2018-04-07 11:24:57","2018-04-07 11:24:57",,,"fr","AUBERGENVILLE",,"78410","4 rue Gaston Jouillerat",,,,
17095,932,"ve/78/aumonerie-de-la-batellerie","192013","Aumonerie de la Batellerie","Paroisse"," Père Pierre Ha NGUYEN VAN, Administrateur"," ","je-sers@wanadoo.fr","+33687294466","http://www.bateaujesers.org/paroisse.html","http://lh6.ggpht.com/OU4UpuLRN0II2zy0cLM7LMPX8J9oge1pJtbfTTq8E00wyFCgBbAU7P18gLFqUdQ2A99uL1LF9-uyY7rxZKlK8pM",,"06 87 29 44 66","+33 6 87 29 44 66","06 87 29 44 66",,"2018-04-07 11:24:57","2018-04-07 11:24:57",,,"fr","CONFLANS SAINTE HONORINE",,"78700","Quai de la République",,,,
17096,932,"ve/78/bailly-noisy-rennemoulin","192006","Bailly - Noisy - Rennemoulin","Groupement paroissial","Père Benoit CHEVALIER","&nbsp;","paroisse.bailly-noisy@wanadoo.fr","+33134629348","http://www.paroisse-bailly-noisy.org","http://lh3.googleusercontent.com/f3lXU9F80KX73yAZwX4uNcEw0YaX-USIIMvDSM3xd5zJQZwjKwom2aOFBHICP5QmbT-_pei9MATeBh5qDrWFWtU",,"01 34 62 93 48","+33 1 34 62 93 48","01 34 62 93 48",,"2018-04-07 11:24:57","2018-04-07 11:24:57",,,"fr","NOISY LE ROI",,"78590","7 rue François Boulin",,,,
17097,932,"ve/78/bois-d-arcy","192008","Bois-D'Arcy","Paroisse","Père François De Foucauld"," ","secretariat@paroisse-boisdarcy.fr","+33134600485","https://paroisse-boisdarcy.fr","http://lh3.googleusercontent.com/euyKOLXXgqBkKXGCUjRsNRW9Pqk8V1rcmDMByzug1osczXM09ISNg4_BJwrescJYQIAChZ1Xsc68X_KHu4697yX2",,"01 34 60 04 85","+33 1 34 60 04 85","01 34 60 04 85",,"2018-04-07 11:24:57","2018-04-07 11:24:57",,,"fr","BOIS D'ARCY",,"78390","3 place de l'Eglise",,,,
17098,932,"ve/78/rosny-bonnieres","192104","Bonnières - Rosny","Groupement paroissial","Père Landry VEDRENNE"," ","paroissedebonniere@gmail.com","+33130420955","http://paroissebonnieres-78.cef.fr/","http://lh3.googleusercontent.com/JDdJagSzJWaACU9ZUViuIZgOQZuDVLC3StcCdywV-VleugKL-hIDmwNN-7OA5s9ecXX4jfnyFgOJRjafUOOTlQ",,"01 30 42 09 55","+33 1 30 42 09 55","01 30 42 09 55",,"2018-04-07 11:24:57","2018-04-07 11:24:57",,,"fr","BONNIERES SUR SEINE",,"78270","43 rue Georges Herrewyn",,,,
17099,932,"ve/78/bougival","192010","Bougival","Paroisse","Père Bruno BONNET"," ","eglisebougival@free.fr","+33139690150","http://www.paroissebougival.fr/","http://lh3.googleusercontent.com/lKRl5GYhbZI-kXoPCcGdCQgNIcvH0iQJNFUj9jI5qmyUEz5-byPy0iiHRdVB07AHSCADp3KNukifZOJKxQNzfA",,"01 39 69 01 50","+33 1 39 69 01 50","01 39 69 01 50",,"2018-04-07 11:24:57","2018-04-07 11:24:57",,,"fr","BOUGIVAL",,"78380","1 rue Croix-aux-Vents",,,,
17100,932,"ve/78/breval","192011","Bréval - Dammartin-en-Serve","Groupement paroissial","Père Simon Keke Adjignon"," ","groupementparoissialbreval@orange.fr","+33134783166","http://www.paroisse-breval-dammartin.fr","http://lh3.googleusercontent.com/5qX_CDLswKU5Q3afR4Jt9uEL3r3-f3r4ZV6YC21V0ofTrvOMkt8NlhLnnqc144aA4Pu7zNmH7gkYRVhmxK-cemq_",,"01 34 78 31 66","+33 1 34 78 31 66","01 34 78 31 66",,"2018-04-07 11:24:57","2018-04-07 11:24:57",,,"fr","BREVAL",,"78980","4 rue de la Sergenterie",,,,
17101,932,"ve/78/chanteloup-carrieres","192103","Carrières - Chanteloup","Groupement paroissial","Père Alain Biniakounou"," ","presbytere.carrieres@free.fr","+33139747965","http://paroisses-carrieres-chanteloup.fr/","http://lh3.googleusercontent.com/oFQbHFpATCoVJNMQwtFMYFJlQvO0mRTuJxez4oPmzDc9doBSjW1SaLhiLgdEKtPtJZov-Kb3iFd9sdBssTEzFFU",,"01 39 74 79 65","+33 1 39 74 79 65","01 39 74 79 65",,"2018-04-07 11:24:57","2018-04-07 11:24:57",,,"fr","CARRIERES SOUS POISSY",,"78955","557 grande Rue",,,,
17102,932,"ve/78/chambourcy","192016","Chambourcy","Groupement paroissial","Père Jean-Louis FEURGARD"," ","paroisse.chambourcy.aigremont@gmail.com","+33139653105","http://www.catholiques-en-laye-78.cef.fr/index.php?option=com_content&task=view&id=13&Itemid=54","http://lh3.googleusercontent.com/jLyuvlTYO6hUjlM2xH7GnZinuzoqde7qmllMabDv1nqP9wEswL5CvPp9HYAEmNt4vo3PZeI2cv3x9OItaflUMw1G",,"01 39 65 31 05","+33 1 39 65 31 05","01 39 65 31 05",,"2018-04-07 11:24:57","2018-04-07 11:24:57",,,"fr","CHAMBOURCY",,"78240","36 Grande Rue",,,,
17103,932,"ve/78/chapellenie-notre-dame-de-france","78no61","Chapellenie Notre-Dame de France ","Chapellenie","Père Gilles GUITARD - Chapelain","Père Robert VIGNAUD, Vice-chapelainA noter que pendant les travaux dans
l’église du Port-Marly, les messes sont célébrées dans l&#39;église des Franciscaines
à St germain en Laye (89 av. du Maréchal Foch)

 ","chn.guitard@icrsp.org","+33139166405","http://www.icrsp-portmarly.fr/Horaires.html","http://lh3.googleusercontent.com/4PwcLvFNwC7A1cDNFnnraaDYeeD3ik_XGUc9-KXToh3vInnuPfAMRkcZH6y2qaVVXAFH9o2VD6-3DIu9BbN-hRY",,"01 39 16 64 05","+33 1 39 16 64 05","01 39 16 64 05",,"2018-04-07 11:24:57","2018-04-07 11:24:57",,,"fr","Marly-le-Roi",,"78160","47 ter, avenue de l'Abreuvoir",,,,
17104,932,"ve/78/chatou","192018","Chatou","Paroisse","Père Olivier PLAINECASSAGNE"," ","secretariat.paroisse.chatou@wanadoo.fr","+33139521786","http://www.paroisse-chatou.com","http://lh5.ggpht.com/ySBuIdwmU4qgJtTsYIi1bH44p6jTVq5tbI_O3P3CSLAfr9jtS-Xg9UmznsJRCr9qrV1uJvGb5svtcgMkp3opguo",,"01 39 52 17 86","+33 1 39 52 17 86","01 39 52 17 86",,"2018-04-07 11:24:57","2018-04-07 11:24:57",,,"fr","CHATOU",,"78400","4 place Sainte Marie",,,,
17105,932,"ve/78/conflans-andrezy-maurecourt","192003","Conflans Andrésy Maurecourt","Groupement paroissial","Père Yves LALOUX"," ","paroisseconflans@paroisse-catholique-du-confluent.fr","+33139726260","http://paroisse-catholique-du-confluent.fr/","http://lh3.googleusercontent.com/TC_xqUzrQMfJJ-mJEeQEMC_UsHgUg_ZCr5HzWnlcgWGyGoeoWn3JOIXRrTIFhktwBjKtcxFiWMzqGXs55pA6FLA",,"01 39 72 62 60","+33 1 39 72 62 60","01 39 72 62 60",,"2018-04-07 11:24:57","2018-04-07 11:24:57",,,"fr","CONFLANS STE HONORINE",,"78700","8 place de l'Eglise",,,,
17106,932,"ve/78/croissy-sur-seine","192024","Croissy sur Seine","Paroisse","Père Guillaume BOIDOT"," ","eglisecroissy@online.fr","+33139762171","http://www.eglisecroissy.fr","http://lh3.googleusercontent.com/PQyxny6gl-gVhvtpQH4TdkYexyXTaGgt4lP5CkEOvHUg1-tAJD5cyPomZLI6GSOLaN7wrFtSvouxpqljrkzTFMw",,"01 39 76 21 71","+33 1 39 76 21 71","01 39 76 21 71",,"2018-04-07 11:24:57","2018-04-07 11:24:57",,,"fr","CROISSY SUR SEINE",,"78290","15 rue MAréchal Foch",,,,
17107,932,"ve/78/elancours-maurepas","192026","Elancourt - Maurepas - Coignières - Saint Remy","Paroisse","Père Corentin Castex, Vicaire"," ","pem78.secretariat@gmail.com","+33139382240","http://www.paroisse-elancourt-maurepas.org","http://lh3.googleusercontent.com/aTr3bf4TFhlCmjHZXyuQvgGLvlaroPY8NDywuWr9SrhoZh1XSoQNV0R4gWK3-MZU_SA3WitAsNLsC5PRwvaRRw",,"01 39 38 22 40","+33 1 39 38 22 40","01 39 38 22 40",,"2018-04-07 11:24:57","2018-04-07 11:24:57",,,"fr","MAUREPAS",,"78310","4 place du Livradois",,,,
17108,932,"ve/fssp-versailles","wzxgv8","FSSP Versailles","Chapellenie","Père Marc BOULE - Chapelain","Père Vianney LE ROUX - Vice-chapelainPère Alexis GARNIER - Vice-Chapelain","abbe.vianney.le.roux@gmail.com","+33139532070","http://fsspversailles.org/","http://lh3.googleusercontent.com/PvY26vyew0793_zlcuLllFmIdEDANki2p8PiPWNdoegU1btnP2jJet-9z3LiDAtYq3XnK4bQVImD_DiZUpG83So",,"01 39 53 20 70","+33 1 39 53 20 70","01 39 53 20 70",,"2018-04-07 11:24:57","2018-04-07 11:24:57",,,"fr","VERSAILLES",,"78000","14 rue des Moines",,,,
17109,932,"ve/78/fontenay-le-fleury","192027","Fontenay le Fleury","Paroisse","Père Marc FRASEZ"," ","accueil@paroisse-fontenay.com","+33134600605","http://www.paroisse-fontenay.com","http://lh5.ggpht.com/fr1RqeCU2mHEv6ErOs3LSZwBXJZoBbRbiw9pIZ7mCSzf6qWgDnkqlge9n9ZPtqEWnrEF5vb3r_6Y4tfpc0Rpca4K",,"01 34 60 06 05","+33 1 34 60 06 05","01 34 60 06 05",,"2018-04-07 11:24:57","2018-04-07 11:24:57",,,"fr","FONTENAY LE FLEURY",,"78330","5 rue Pierre-Curie",,,,
17110,932,"ve/78/gazeran-saint-hilarion","192034","Gazeran","Groupement paroissial","Père Jacques-Bertrand ROBERT"," ","paroissedegazeran10@orange.fr","+33134831923","http://www.paroisse-gazeran.fr/","http://lh3.googleusercontent.com/FYI5oX98Bb0MzW5-7UKzKv7MUIx3iuLdaLmudHOa_ptevLbl_zRl_a7s76ul4K0Vt4Rs5hMjoccvdlmSgfSJjuE",,"01 34 83 19 23","+33 1 34 83 19 23","01 34 83 19 23",,"2018-04-07 11:24:57","2018-04-07 11:24:57",,,"fr","GAZERAN",,"78125","4 rue de l'Eglise",,,,
17111,932,"ve/78/houdan","192037","Houdan","Groupement paroissial","Père Pierre BOTHUAN","&nbsp;Accueil&nbsp;au Presbytère de Houdan du mardi au samedi de 10h30 à 12h&nbsp;","secretariat@gphoudan.fr","+33130596139","http://www.gphoudan.fr/","http://lh5.ggpht.com/Toxfc2NpzGDcW05hEqEZQsIAarggr5GZjqs1MtKWtcGVyCUTvcLUEv77pzewEcbXm6fDKXVCnCLT9DZzAAEwxw",,"01 30 59 61 39","+33 1 30 59 61 39","01 30 59 61 39",,"2018-04-07 11:24:57","2018-04-07 11:24:57",,,"fr","HOUDAN",,"78550","75 Grande Rue",,,,
17112,932,"ve/78/houilles-carrieres","192014","Houilles Carrières","Groupement paroissial","Père Etienne MAROTEAUX","ETE 2017 :Fermeture du secrétariat du 14/07 au 27/08 inclusPour obtenir un renseignement ou contacter un prêtre : 01 39 68 48 80&nbsp;Pas de confession le samedi matin mais le vendredi avant la messe de 19h à St Nicolas","paroisse.houilles@wanadoo.fr","+33139684880","http://carrieres-houilles-78.cef.fr",,,"01 39 68 48 80","+33 1 39 68 48 80","01 39 68 48 80",,"2018-04-07 11:24:57","2018-04-07 11:24:57",,,"fr","HOUILLES",,"78800","26 rue Blaise Pascal",,,,
17113,932,"ve/78/la-celle-saint-cloud","192043","La Celle Saint Cloud","Groupement paroissial","Père Bruno L'Hirondel"," ","secretariatspsp@paroisse-lacellesaintcloud.com","+33952593595","http://www.paroisse-lacellesaintcloud.fr","http://lh6.ggpht.com/atyDA_e-KDk_X1pukcQkohoj0x0uboyXAFUNa6iHLn0lVEkfc5aujSAPTcwdIjhJZSh_-aLCHGwR3CLfKLFULw",,"09 52 59 35 95","+33 9 52 59 35 95","09 52 59 35 95",,"2018-04-07 11:24:57","2018-04-07 11:24:57",,,"fr","LA CELLE SAINT CLOUD",,"78170","2 place de l'Eglise",,,,
17114,932,"ve/78/le-chesnay-rocquencourt","192045","Le Chesnay Rocquencourt","Groupement paroissial","Père Mathieu De Raimond"," ","secretariat@paroisselechesnay.com","+33139668270","http://paroisselechesnay.com/","http://lh3.googleusercontent.com/-p0Cd3BNOf6yJLvPm685Pikuz8kKxzZfks_UPOcdY3W9FusH3Xjs1Kn0OdUQKgIIsZbT3EnrqrHSePRnKTC-iUYe",,"01 39 66 82 70","+33 1 39 66 82 70","01 39 66 82 70",,"2018-04-07 11:24:57","2018-04-07 11:24:57",,,"fr","LE CHESNAY",,"78150","2 avenue du docteur Schweitzer",,,,
17115,932,"ve/78/le-mesnil-saint-denis","192047","Le Mesnil Saint Denis","Groupement paroissial"," Père Benoit TRANBALOC"," ","paroissemesnilsaintdenis@orange.fr","+33130512368","http://www.mesnil3c-paroisses.org","http://lh3.googleusercontent.com/IeMsJHf5SkPjQTjOfZTZtleVaziscGrr2QwH8ruHfi_w8A5xiuTfQFDp_cx9s3baRlgXa0XOKLkjOz64_4Q7SGo",,"01 30 51 23 68","+33 1 30 51 23 68","01 30 51 23 68",,"2018-04-07 11:24:57","2018-04-07 11:24:57",,,"fr","LE MESNIL SAINT DENIS",,"78320","14 rue Raymond Berrurier",,,,
17116,932,"ve/78/le-pecq","192048","Le Pecq","Paroisse","Père Henri MERVEILLEUX DU VIGNAUX"," ","paroisse.saintwandrille@gmail.com","+33134511080","http://www.pswlepecq.fr","http://lh3.googleusercontent.com/bpm0bCHxRVzJlDaqKUB3A4A1RBGMlWFUON8tc1hQiuc8aGkjx9NMt3WaeKPEBfJU1g3f8wEkRu_OK2vqd5w39w8r",,"01 34 51 10 80","+33 1 34 51 10 80","01 34 51 10 80",,"2018-04-07 11:24:57","2018-04-07 11:24:57",,,"fr","LE PECQ",,"78230","1 avenue du Pavillon Sully",,,,
17117,932,"ve/78/le-vesinet-sainte-marguerite","782sea","Le Vésinet Sainte Marguerite","Paroisse","Père Nicolas LELEGARD"," ","pstemarguerite@wanadoo.fr","+33139765203","http://www.saintemarguerite.org/","http://lh3.googleusercontent.com/gWssxRdIoyxKs6gU6Zqjmqk4sBU9GAoBw3esim_152nmmEb9xwb7R9FK4OrPqcAzkOdixU3HuW1RP6h3584vQ9V4",,"01 39 76 52 03","+33 1 39 76 52 03","01 39 76 52 03",,"2018-04-07 11:24:57","2018-04-07 11:24:57",,,"fr","LE VESINET",,"78110","2 rue Albert Joly",,,,
17118,932,"ve/78/le-vesinet-sainte-pauline","78tt78","Le Vésinet Sainte Pauline","Paroisse","Père Emmanuel GOUGAUD"," ","saintepauline11@wanadoo.fr","+33139766968","http://www.saintepauline.fr","http://lh3.googleusercontent.com/8GwXDZbOzJLkZAs-xvlU0MAa8iOgsAjuXEi3wpouXP7Pi9yYXCI3yZC8wGwjJvet_uUc134mTahX66x6edFNDok",,"01 39 76 69 68","+33 1 39 76 69 68","01 39 76 69 68",,"2018-04-07 11:24:57","2018-04-07 11:24:57",,,"fr","LE VESINET",,"78110","55 boulevard d'Angleterre",,,,
17119,932,"ve/78/les-essarts-le-perray","192049","Les Essarts Le Perray","Groupement paroissial","Père Sylvain APENOUVOR"," ","paroisse.essartsperray@orange.fr","+33130416010","http://echoclochers.free.fr/","http://lh3.googleusercontent.com/EVUts5JwEuYLBdFBNU6glfnZB2UrpEVtgIykCYVYs7Zu1uF59-zrKrX1bo6sRlCVBPTtBglmY0UlicMasfAtb0ll",,"01 30 41 60 10","+33 1 30 41 60 10","01 30 41 60 10",,"2018-04-07 11:24:57","2018-04-07 11:24:57",,,"fr","LE PERRAY EN YVELINES",,"78610","1 rue de l'Eglise",,,,
17120,932,"ve/78/les-mureaux","192054","Les Mureaux","Paroisse","Père Xavier CHAVANE"," ","paroissedesmureaux@orange.fr","+33134740534","http://paroissedesmureaux.fr","http://lh3.googleusercontent.com/eiA_hIh8N7luGs7jnawhZzepqAffeDniWxCwvschshUazJQ-c7vzVCKDcF1oYaGlAN3RqM-VCcNBRubbGEtuBXE",,"01 34 74 05 34","+33 1 34 74 05 34","01 34 74 05 34",,"2018-04-07 11:24:57","2018-04-07 11:24:57",,,"fr","LES MUREAUX",,"78130","2 rue de l'Abbé Duval",,,,
17121,932,"ve/78/fontenay-saint-pere-vexin","192028","Limay - Vexin","Groupement paroissial","Père Pierre AMAR"," ","paroisselimayvexin@free.fr","+33134771076","http://www.catholiquesmantois.com/limay-vexin/","http://lh3.googleusercontent.com/UBtG8k7cBr8FgipcusDYS6eYT1xEcFAbCqU1aqC-vhmunq032h0EqUhuZI-hYgse4-wnmAQeqbuhCImIwWhZntc",,"01 34 77 10 76","+33 1 34 77 10 76","01 34 77 10 76",,"2018-04-07 11:24:57","2018-04-07 11:24:57",,,"fr","LIMAY",,"78520","32 rue de l'église ",,,,
17122,932,"ve/78/louveciennes","192056","Louveciennes","Paroisse","Père Thierry SAUZAY"," ","paroisselouveciennes@gmail.com","+33950148801","http://paroisselouveciennes.over-blog.com","http://lh3.googleusercontent.com/gsHDchG9DLhEadR3aRRNCbAXvdk41UISbErrvkJlCEC1Nn6E99NiLwAEEevWk937Niu3qLGFA6BTOmqgm9y4xMM",,"09 50 14 88 01","+33 9 50 14 88 01","09 50 14 88 01",,"2018-04-07 11:24:57","2018-04-07 11:24:57",,,"fr","LOUVECIENNES",,"78430","10 place de l'Eglise",,,,
17123,932,"ve/78/magny-les-hameaux-chateaufort-toussus","192017","Magny-les-Hameaux Châteaufort Toussus Saint-Lambert","Groupement paroissial","Père Gica PAULET"," ","secretariat@aumilieudenous.fr","+33130523282","http://www.aumilieudenous.fr/","http://lh3.ggpht.com/_551cqgmVLrKjSqjOYaSMmjplXnvfpS2Aj-vT_sjPmu1966QN0q-SSI63TX9HpCsLIW89NtmhjUgMjTOlUlLWjbv",,"01 30 52 32 82","+33 1 30 52 32 82","01 30 52 32 82",,"2018-04-07 11:24:57","2018-04-07 11:24:57",,,"fr","MAGNY LES HAMEAUX",,"78114","21 bis rue des Ecoles Jean Baudin",,,,
17124,932,"ve/78/maisons-laffitte","192059","Maisons Laffitte","Groupement paroissial","Père Laurent De La Taille"," ","paroisse.ml@wanadoo.fr","+33139620112","http://www.paroisse-maisons-laffitte.com/","http://lh3.googleusercontent.com/zBmB7zXIz4TdCBwXxUA3lqkVmsfEYzR2I71qLrZw7JaorpLS4tr0hWxDmKqh1wZyIZatqyRwyOM569FVPUIU2g",,"01 39 62 01 12","+33 1 39 62 01 12","01 39 62 01 12",,"2018-04-07 11:24:57","2018-04-07 11:24:57",,,"fr","MAISONS-LAFFITTE",,"78600","43 rue du Fossé",,,,
17125,932,"ve/78/mantes-la-jolie","192019","Mantes la Jolie","Groupement paroissial","Père Matthieu WILLIAMSON","Presbytère Saint Jean-Baptiste2 rue la Fontaine78200 Mantes-la-JolieTel : 01 30 94 23 58Mail : paroisses.gassicourt.valfourre@orange.fr​ ","paroisse.manteslajolie@catholique78.fr","+33134770464","http://www.catholiquesmantois.com/","http://lh3.googleusercontent.com/CSPksoi7NsrZbCglLZ3Tc-ozv8YaBllGB1P1bWWolIcHXEpnoZK_XwBzYxTXHgnrNrym-GxRDPiFYTK5G3gjUZg",,"01 34 77 04 64","+33 1 34 77 04 64","01 34 77 04 64",,"2018-04-07 11:24:57","2018-04-07 11:24:57",,,"fr","MANTES LA JOLIE",,"78200","13 rue du Dr Stéphane Bonneau",,,,
17126,932,"ve/78/marly-le-roi","192063","Marly le Roi","Groupement paroissial","Père Olivier De RUBERCY"," ","secretariat@marly-catholique78.fr","+33139584900","http://marly-catholique78.fr/","http://lh3.googleusercontent.com/sBi-IiFYRHZ_7Q3qZdI98sUQqgvANCXV4Gc7AH_FbjVUiCPE7oHlT2zLzJOzMumBB7NThdUkXqFHd7nO11zq2948",,"01 39 58 49 00","+33 1 39 58 49 00","01 39 58 49 00",,"2018-04-07 11:24:57","2018-04-07 11:24:57",,,"fr","MARLY LE ROI",,"78160","17 bis route de Saint Cyr",,,,
17127,932,"ve/78/maule-beynes-crespieres-","192007","Maule - Beynes","Groupement paroissial","Père Dominique LAMARRE"," ","secteur.val.mauldre@wanadoo.fr","+33130908126","http://valdemauldre-catholique-yvelines.cef.fr/Site/","http://lh3.googleusercontent.com/M6ZwE4CZg8kcs6vmaEShXoIoieZJK68MniyQWPBgZgUAg-4Vpy0tDpl64kH86-mLxq4Z7xXPwGX_ZLuQcLjqFA",,"01 30 90 81 26","+33 1 30 90 81 26","01 30 90 81 26",,"2018-04-07 11:24:57","2018-04-07 11:24:57",,,"fr","MAULE",,"78580","19 rue Saint Vincent",,,,
17128,932,"ve/78/rive-droite-de-la-seine-meulan","192105","Meulan - Triel-sur-Seine","Groupement paroissial","Père Matthieu Berger"," Accueil à Meulan (23 côte Saint Nicolas) :
- du mardi au vendredi de 09h30 à 11h30,
- le samedi de 09h à 12h
- Permanences vacances scolaires : les mercredi et les samedi de 10h à 12h.

Accueil à Triel (1 place de l&#39;Eglise) : 
- du mardi au samedi entre 9h et 12h, hors période de vacances scolaires ","presbytere@paroisse-triel.fr","+33139706119"," https://paroisse-triel.fr/","http://lh3.googleusercontent.com/d496snOgiHNGLarY7TV0mckcaY-rXeh3pURcPyw6N6ZjdY3LO2WXL7CTi5VInDnUtwdUKxJVJYX-aeZyEDQKmw",,"01 39 70 61 19","+33 1 39 70 61 19","01 39 70 61 19",,"2018-04-07 11:24:57","2018-04-07 11:24:57",,,"fr","Triel-sur-Seine",,"78510","1 place de l'Eglise",,,,
17129,932,"ve/78/montesson","192067","Montesson","Paroisse","Père Marc De RAIMOND (FILIOL)"," ","paroissenotredame-montesson@wanadoo.fr","+33139520380","https://paroissemontesson.wordpress.com","http://lh3.googleusercontent.com/r8xHA57NRYoucQGpsS0NoHWYTFSS0OVLvJA0IfNS-CtyZG6rU9Lrm-CErX4zaHFdv1O2wZ9mvOJp5tk50rWy6zM",,"01 39 52 03 80","+33 1 39 52 03 80","01 39 52 03 80",,"2018-04-07 11:24:57","2018-04-07 11:24:57",,,"fr","MONTESSON",,"78360","2 rue Général Leclerc",,,,
17130,932,"ve/78/montigny-voisins","192070","Montigny Voisins","Groupement paroissial","Père Bruno VALENTIN"," ",,"+33130434154","http://www.paroisse.montigny-voisins.fr/","http://lh3.googleusercontent.com/yTExmqEv5cEIry_u9-Qhc6O8QLL6xM1AgUimHMXdc9CEJe3nInLfDVprHL4pGWG3Gem7fw49DM2j4mr3HlVQtwg",,"01 30 43 41 54","+33 1 30 43 41 54","01 30 43 41 54",,"2018-04-07 11:24:57","2018-04-07 11:24:57",,,"fr","MONTIGNY LE BRETONNEUX",,"78180","5 rue Saint Martin",,,,
17131,932,"ve/78/neauphle-pontchartrain-","192039","Neauphle - Pontchartrain","Groupement paroissial","Père Dominique BUI CHI CUONG"," ","paroissenp@gmail.com","+33134980280","http://www.paroissenp.fr/",,,"01 34 98 02 80","+33 1 34 98 02 80","01 34 98 02 80",,"2018-04-07 11:24:57","2018-04-07 11:24:57",,,"fr","JOUARS PONTCHARTRAIN",,"78760","12 rue de Neauphle",,,,
17132,932,"ve/78/association-saint-jean-bosco","192004","Notre Dame des Armées","Paroisse","Abbé Renaud De La Motte, Curé"," ","secretariat@notredamedesarmees.com","+33130839540","http://notredamedesarmees.com","http://lh3.googleusercontent.com/y6vOv0Msv9kT2rwDkDysVhCuPqD-cB9_o8dip6ruleT77SdEownrLD_BWseo2lYPv4mQR9heAUMIxSTwxfpCwg",,"01 30 83 95 40","+33 1 30 83 95 40","01 30 83 95 40",,"2018-04-07 11:24:57","2018-04-07 11:24:57",,,"fr","VERSAILLES",,"78000","4 impasse des Gendarmes",,,,
17133,932,"ve/78/orgeval-morainvilliers","192074","Orgeval-Morainvilliers","Groupement paroissial","Père Louis MÉNARD"," Messes en semaine (hors vacances scolaires):&nbsp;Du mardi au samedi : 9h OrgevalPendant les vacances scolaires voir le bulletin paroissial","secretariat@paroisse-orgeval-morainvilliers.fr","+33130650210","http://paroisse-orgeval-morainvilliers.fr/","http://lh3.googleusercontent.com/7lPIdMgg-JsHdhliv2FZT91GPSt2m85SWi2mu5Ggq2oYYNUy52vm4erIdEVPTcQI3836koogOaLRb4T07u_yng",,"01 30 65 02 10","+33 1 30 65 02 10","01 30 65 02 10",,"2018-04-07 11:24:57","2018-04-07 11:24:57",,,"fr","ORGEVAL",,"78630","34 rue du Dessous des Prés",,,,
17134,932,"ve/78/plaisir","192076","Plaisir","Paroisse","Père Alain ESCHERMANN"," ","secretariat@paroissedeplaisir.fr","+33130553508","http://plaisir.paroisse.net","http://lh3.googleusercontent.com/i4LzEuXLhIgMa04patUbfRRS3BKz_rIJjYSOkRYS9fzyczSpvHUgXmlpv1evrQDXFZmPx0csvrLMo8UZUO9ng4E",,"01 30 55 35 08","+33 1 30 55 35 08","01 30 55 35 08",,"2018-04-07 11:24:57","2018-04-07 11:24:57",,,"fr","PLAISIR",,"78370","4 rue Calmette",,,,
17135,932,"ve/78/poissy-villennes-medan","192077","Poissy Villennes Medan","Groupement paroissial","Père Eric COURTOIS"," ","secretariat@paroisse-poissy.com","+33139650182","http://paroisse-poissy-78.catholique.fr/","http://lh3.googleusercontent.com/hOOKC7lnDJVl5kQzWVVWitzVBcySg0GM635KhWCB6gkjcOz_ZEEsM3D0v6NGLlCytNrSlb5RvoeDOFNSK6xfJ9E",,"01 39 65 01 82","+33 1 39 65 01 82","01 39 65 01 82",,"2018-04-07 11:24:57","2018-04-07 11:24:57",,,"fr","POISSY",,"78300","14 avenue du Cep",,,,
17136,932,"ve/78/rambouillet","192078","Rambouillet","Paroisse","Père Amaury SARTORIUS"," ","secretariat@paroisserambouillet.fr","+33134573630","http://www.paroisserambouillet.fr","http://lh3.googleusercontent.com/MAyy3Z2AtNvbpdQQVWX0pbXKttslhHQeEvLWVORz3YyrmSrx-leSr6tXfjv9Dw-N3zZTtXQkgS6TwheUMn4mvg",,"01 34 57 36 30","+33 1 34 57 36 30","01 34 57 36 30",,"2018-04-07 11:24:57","2018-04-07 11:24:57",,,"fr","RAMBOUILLET",,"78120","46 rue Gambetta",,,,
17137,932,"ve/78/saint-arnoult-en-yvelines","192081","Saint Arnoult en Yvelines","Groupement paroissial","Père Jacques Noah Bikoe"," ","secretariat@paroissesaintarnoult.fr","+33130413335",,,,"01 30 41 33 35","+33 1 30 41 33 35","01 30 41 33 35",,"2018-04-07 11:24:57","2018-04-07 11:24:57",,,"fr","SAINT ARNOULT EN YVELINES",,"78730","81 rue Charles de Gaulle",,,,
17138,932,"ve/78/saint-cyr","192082","Saint Cyr","Paroisse","Père Pierre-Hervé GROSJEAN"," ","secretariat@paroissesaintcyrlecole.fr","+33130450025","http://www.paroissesaintcyrlecole.fr/","http://lh3.googleusercontent.com/ejDe8zbx4htbiMb0z12Xm4uFTkOTsQcQGLr-pLg0udPUxqBgkdl3EbrxnpSdQAomZ4PYcMf7e1QpFWP06AAQwA8",,"01 30 45 00 25","+33 1 30 45 00 25","01 30 45 00 25",,"2018-04-07 11:24:57","2018-04-07 11:24:57",,,"fr","SAINT CYR L'ECOLE",,"78210","2 rue de la République",,,,
17139,932,"ve/78/saint-germain-en-laye-saint-germain","192083","Saint Germain en Laye Saint Germain","Paroisse","Père Thierry FAURE"," ","secretaire@paroisses-stgermainenlaye.net","+33134519911","http://www.paroisses-stgermainenlaye.net","http://lh3.googleusercontent.com/4hNqTJfl1KwFAyWcjk1fdAudGLdsW1Y8wnp9cSPJOX8kdBuOMs4rXMf_w683MwxTzcHFNa0yuV9SN6MkU-FVdw",,"01 34 51 99 11","+33 1 34 51 99 11","01 34 51 99 11",,"2018-04-07 11:24:57","2018-04-07 11:24:57",,,"fr","SAINT GERMAIN EN LAYE",,"78100","4 place Charles de Gaulle",,,,
17140,932,"ve/78/saint-germain-en-laye-saint-leger","192107","Saint Germain en Laye Saint Léger","Paroisse","Père Hervé DUROSELLE"," ","paroissesaintleger@wanadoo.fr","+33134510709","http://www.saint-leger.paroisses-stgermainenlaye.net","http://lh3.googleusercontent.com/aK-GSlZD29xOdDeJ9IfTojuBJPkbW_XRIiQ_tW1urJHyvaG0ljjq5UNv_0GtwNCOevIavLX7bZuAadEQkFj5tba-",,"01 34 51 07 09","+33 1 34 51 07 09","01 34 51 07 09",,"2018-04-07 11:24:57","2018-04-07 11:24:57",,,"fr","SAINT GERMAIN EN LAYE",,"78100","20 rue de la Maison Verte",,,,
17158,905,"pa/75/bon-pasteur","169002","Bon Pasteur","Paroisse",," ","paroisse-bonpasteur-paris11@wanadoo.fr","+33143710524","http://www.paris.catholique.fr/-bon-pasteur-337-.html",,,"01 43 71 05 24","+33 1 43 71 05 24","01 43 71 05 24",,"2018-04-07 11:31:53","2018-04-07 11:31:53",,,"fr","Paris",,"75011","179 rue de Charonne - Boîte A 15 bis",,,,
17141,932,"ve/78/groupement-paroissial-saint-quentin---saint-victor","78hty5","Saint Quentin - Saint Victor","Groupement paroissial","Père Didier GRAIN"," ","secretariat@gpsqsv.fr","+33973661154","https://gp.stquentin-stvictor.fr/","http://lh3.googleusercontent.com/TBhQ0u2j4NnkxSfynLDOhz5zLr8XD-kQj0V3DWNIZ-askEr4sE0is42WsTjG8asmtKGCT4IIbw-qlbiSOx3fFnKY",,"09 73 66 11 54","+33 9 73 66 11 54","09 73 66 11 54",,"2018-04-07 11:24:57","2018-04-07 11:24:57",,,"fr","MONTIGNY LE BRETONNEUX",,"78180","4 Parvis des Sources",,,,
17142,932,"ve/78/saint-nom-chavenay","192087","Saint-Nom Feucherolles","Groupement paroissial","Père Jean-Michel PROUTEAU"," ","paroissestnom@gmail.com","+33134628162","http://paroissestnomchavenay.com","http://lh3.googleusercontent.com/HIYdXViY6I85nJWrrFl1Ybjb0rBAPmhmE2jQIdm_v3QafkFfnlC_QTdRCPD340kMq4ZeuZHxABc5qP_MDtaU-g",,"01 34 62 81 62","+33 1 34 62 81 62","01 34 62 81 62",,"2018-04-07 11:24:57","2018-04-07 11:24:57",,,"fr","SAINT NOM LA BRETECHE",,"78860","2 bis rue du Général de Gaulle",,,,
17143,932,"ve/78/sartrouville-saint-joseph","192093","Sartrouville Saint Joseph","Paroisse","Père Gaël BENEAT"," ","saintjoseph78500@orange.fr","+33139130785","http://catholique-sartrouville-78.cef.fr/","http://lh3.googleusercontent.com/O_BZplfuifbvOytLHjLgTiZmKyNJsi7PyVdwISSTU1UYQSkIhqTBEvSRBOpUdK-TqKI9dtYtPvo4gOOpLvTnBg",,"01 39 13 07 85","+33 1 39 13 07 85","01 39 13 07 85",,"2018-04-07 11:24:57","2018-04-07 11:24:57",,,"fr","SARTROUVILLE",,"78500","52 rue Jules Ferry",,,,
17144,932,"ve/78/sartrouville-saint-vincent-de-paul","192022","Sartrouville Saint Vincent de Paul","Groupement paroissial","Père Dominique BARNERIAS"," ","svdp.sartrouville@orange.fr","+33139140305","http://catholique-sartrouville-78.cef.fr/","http://lh3.googleusercontent.com/HskM0WY_rQ2JwNeIfaPP66wxKQUnPHRb_MYFigOxxUVnut7xK0Po1p__ZpM3N3fmIEWU0WP8NUYLNFESCXC1hjk",,"01 39 14 03 05","+33 1 39 14 03 05","01 39 14 03 05",,"2018-04-07 11:24:57","2018-04-07 11:24:57",,,"fr","SARTROUVILLE",,"78500","1 place du Champ de Mars",,,,
17145,932,"ve/78/septeuil","192094","Septeuil","Groupement paroissial","Père Joseph VU THE KY"," ","paroisse.septeuil@free.fr","+33130934046","http://www.paroisse-septeuil.com","http://lh3.googleusercontent.com/oVEuN-sdlNqsjir9Gdu5Z4prHBWwd3OuhdzXWse8X4erU1ipcJPKE9rxBa9U8FH-DAl_1Sy_hrYQb-KY9zYTAxc",,"01 30 93 40 46","+33 1 30 93 40 46","01 30 93 40 46",,"2018-04-07 11:24:57","2018-04-07 11:24:57",,,"fr","SEPTEUIL",,"78790","14 place de l'Eglise",,,,
17146,932,"ve/78/trappes","192095","Trappes","Paroisse","Père Etienne GUILLET"," ","paroisse.stgeorges@wanadoo.fr","+33130629720","http://www.paroissedetrappes.com","http://lh3.googleusercontent.com/sd8lDsVglmQyh1n18-pdj2WyiJmSYBZ2XQEzpoluVHLy_2fZltKDmsyXJ4AbpMeT-lu4bi1f5i0DHsaphUrHhw",,"01 30 62 97 20","+33 1 30 62 97 20","01 30 62 97 20",,"2018-04-07 11:24:57","2018-04-07 11:24:57",,,"fr","TRAPPES",,"78190","23 rue de Montfort",,,,
17147,932,"ve/78/vallee-de-chevreuse","192015","Vallée de Chevreuse","Groupement paroissial","Père Jean-Brice CALLERY"," ","cathos.valchevreuse@free.fr","+33130523127","http://www.epvc.fr","http://lh3.googleusercontent.com/bqSEHfwa4Hrn0x4uGMgODr1CYH0dymbK7tlSAEiIYSAoarOm3aRhLfyF8RM1iGww5C6HJHJtJGLMb9vvLwUY_KxT",,"01 30 52 31 27","+33 1 30 52 31 27","01 30 52 31 27",,"2018-04-07 11:24:57","2018-04-07 11:24:57",,,"fr","CHEVREUSE",,"78460","3 passage du Prieuré",,,,
17148,932,"ve/78/verneuil-vernouillet","192098","Verneuil Vernouillet","Groupement paroissial","Père Pierre-Marie HASCAL","","martin-etienne@club-internet.fr","+33139656313","http://www.paroisse-verneuil-vernouillet-78.catholique.fr","http://lh3.googleusercontent.com/RinU21ex5rvQS1Ypc8_D50G6GhwWEpTH_mqjCeA-gt-3uzGMhgt4avhBXSvXYxX_b_Et4Nb2LFEnHRqjvLpxEw",,"01 39 65 63 13","+33 1 39 65 63 13","01 39 65 63 13",,"2018-04-07 11:24:57","2018-04-07 11:24:57",,,"fr","VERNEUIL SUR SEINE",,"78480","1 rue Delapierre",,,,
17149,932,"ve/78/versailles-saint-louis","192085","Versailles - Cathédrale Saint Louis","Paroisse","Père Marc BOULLE"," ","secretariat@cathedrale-versailles.org","+33139504065","http://www.cathedrale-versailles.org","http://lh3.googleusercontent.com/fQZVmqbpUfJaYnqNRVGET0WWbtrtBqUHp-vanOSVnm_NJjv5A-2iy5gJPbyf0yguR9_-gWn8dB1AGWBhbvd6-yDi",,"01 39 50 40 65","+33 1 39 50 40 65","01 39 50 40 65",,"2018-04-07 11:24:57","2018-04-07 11:24:57",,,"fr","VERSAILLES",,"78000","4 place Saint Louis",,,,
17150,932,"ve/78/versailles-notre-dame","192073","Versailles - Notre Dame","Paroisse","Père Pierre DELORT-LAVAL "," ","notredame.versailles@wanadoo.fr","+33130976974","http://notredameversailles.org/","http://lh3.googleusercontent.com/ODBeIjMHp-WERo2zmMhigkESbP2n95NCyLk-XHnrApIEoHYzZwuh_BaUS--H_Z7raUF6NUzEr95vtTMWT2phUSw",,"01 30 97 69 74","+33 1 30 97 69 74","01 30 97 69 74",,"2018-04-07 11:24:57","2018-04-07 11:24:57",,,"fr","VERSAILLES",,"78000","2 rue Baillet Reviron",,,,
17151,932,"ve/78/saint-michel-de-porchefontaine","192086","Versailles - Saint Michel de Porchefontaine","Paroisse","Père Raphäel PROUTEAU"," ","saint.michel.versailles@gmail.com","+33139512165","http://saint-michel-78.cef.fr/","http://lh3.googleusercontent.com/xCjh6Jk_cQggREufxKMtn0ulLnadup7pz-4Y-smuaFLXsd2lC6hViTvY50_r8JGYunFmGHgJO4f0mk8fHuKzMQ",,"01 39 51 21 65","+33 1 39 51 21 65","01 39 51 21 65",,"2018-04-07 11:24:57","2018-04-07 11:24:57",,,"fr","VERSAILLES",,"78000","18 rue des Célestins",,,,
17152,932,"ve/78/saint-symphorien","192089","Versailles - Saint Symphorien","Paroisse","Père Yves GENOUVILLE"," ","saint.symphorien@free.fr","+33139202132","https://paroisse-saint-symphorien.fr/","http://lh3.googleusercontent.com/aVjknDFhnZzNcbs4kPlgwzxpxS2ZqSgfEFab7movZMzTvlsWx9XN7JP0D9SZhZTf-SxnIFAppQAfRa352DIPUQ",,"01 39 20 21 32","+33 1 39 20 21 32","01 39 20 21 32",,"2018-04-07 11:24:57","2018-04-07 11:24:57",,,"fr","VERSAILLES",,"78000","2 place Saint Symphorien",,,,
17153,932,"ve/78/sainte-bernadette","192090","Versailles - Sainte Bernadette","Paroisse","Père Louis-Pasteur FAYE"," ","stebernadette78@gmail.com","+33139515690","http://www.paroisse-sainte-bernadette.fr/","http://lh3.googleusercontent.com/Rtnu8UlE7aQcbuZXr_DzKh5YaqXeBEPGpaN7_H-hNd3uawxZI1Smd5OhIrWlO1uzS7TC72AqvyrImhXOYBWi9Bg1",,"01 39 51 56 90","+33 1 39 51 56 90","01 39 51 56 90",,"2018-04-07 11:24:57","2018-04-07 11:24:57",,,"fr","VERSAILLES",,"78000","7 rue Saint Nicolas",,,,
17154,932,"ve/78/sainte-elisabeth","192091","Versailles - Sainte Elisabeth","Paroisse","Père Yann LE LAY"," ","secretariat@sainteelisabeth-versailles.com","+33139504077","http://www.sainteelisabeth-versailles.com","http://lh3.googleusercontent.com/GiAVnhRl_M3enHAI0ln4yRAJY8WcmE7RgLr0BHjHYcQZ1WWh8t8zL420Ps3y_XckRAeDAprqeGXYogldcIrffZ4",,"01 39 50 40 77","+33 1 39 50 40 77","01 39 50 40 77",,"2018-04-07 11:24:57","2018-04-07 11:24:57",,,"fr","VERSAILLES",,"78000","26/28 rue Jean Mermoz",,,,
17155,932,"ve/78/sainte-jeanne-d-arc","192092","Versailles - Sainte Jeanne d'Arc","Paroisse","Père Emmanuel PETEUL","Secrétariat :&nbsp;Horaires d&#39;ouverture :&nbsp;du lundi au samedi de 10h à 12h sauf le mardidu mardi au vendredi de 16h à 18h&nbsp;Permanence du Curé, &nbsp;(hors vacances scolaires) : le jeudi de 17h à 19hVicaires :&nbsp;Père Jean-François LecontePère Eric Duverdier","secretariat@jeannedarc-versailles.com","+33139021487","http://www.jeannedarc-versailles.com","http://lh3.googleusercontent.com/hD7L59lr4-G_XbPWpOH_ako84LlkAYKo66zK7u6fNz5QueSv6-zvmgZNyyMNWRKJGG8kC320tDNZfpSxW1e2OFZX",,"01 39 02 14 87","+33 1 39 02 14 87","01 39 02 14 87",,"2018-04-07 11:24:57","2018-04-07 11:24:57",,,"fr","VERSAILLES",,"78000","17 rue Albert Joly",,,,
17156,932,"ve/78/villepreux-les-clayes","192100","Villepreux les Clayes","Groupement paroissial","Père Sébastien CHAUCHAT"," ","secretariat@villepreuxlesclayescatholique78.fr","+33130552820","http://villepreuxlesclayes.catho78.fr/wp1/","http://lh3.googleusercontent.com/8KBAsku-RnMjrCSAaMN8pD-1vA4wYbfQs0J25_SWf6wYpIMZGDfF4LlxJbcSlBirWxtAyffL9y08fZo7xiZK-tDD",,"01.30.55.28.20","+33 1 30 55 28 20","01 30 55 28 20",,"2018-04-07 11:24:57","2018-04-07 11:24:57",,,"fr","LES- CLAYES SOUS BOIS",,"78340","25 rue Henri Prou",,,,
17157,932,"ve/78/viroflay","192101","Viroflay","Paroisse","Père Bruno Bettoli, Curé"," ","ndcviroflay@wanadoo.fr","+33130241340","http://viroflay-catholique-yvelines.cef.fr","http://lh3.googleusercontent.com/B0PJP_NwuYXsrn7xqFogjhkGH2q_j6cySsg-VLD0pQLILRzpNfAzuMcoybTekvQlz-k0X3233nVfhSrrhgVqkQk",,"01 30 24 13 40","+33 1 30 24 13 40","01 30 24 13 40",,"2018-04-07 11:24:57","2018-04-07 11:24:57",,,"fr","VIROFLAY",,"78220","28 rue Rieussec",,,,
17159,905,"pa/75/coeur-eucharistique-de-jesus","169003","Cœur Eucharistique de Jésus","Paroisse",," ","contact@coeur-eucharistique.net","+33140317455","http://www.coeur-eucharistique.net","http://lh3.googleusercontent.com/mKBZlHsnEdIiVlkLVEMQASmS9suZv03QgQNxDc1qI4q-6MguJdAEVNLGvYSNDtrvbmkKU8Ap9q7pA1f_8QTT4Q",,"01 40 31 74 55","+33 1 40 31 74 55","01 40 31 74 55",,"2018-04-07 11:31:53","2018-04-07 11:31:53",,,"fr","Paris",,"75020","22 rue du Lieutenant-Chauré",,,,
17160,905,"pa/75/immaculee-conception","169004","Immaculée Conception","Paroisse",," ","p.immaculee.c@gmail.com","+33951505483","http://www.immaculee-conception.net",,,"09 51 50 54 83","+33 9 51 50 54 83","09 51 50 54 83",,"2018-04-07 11:31:53","2018-04-07 11:31:53",,,"fr","Paris",,"75012","34 rue du Rendez-vous",,,,
17161,905,"pa/75/notre-dame-d-auteuil","169007","Notre-Dame d'Auteuil","Paroisse",," ","paroisse@notredamedauteuil.fr","+33153922626","http://www.notredamedauteuil.fr",,,"01 53 92 26 26","+33 1 53 92 26 26","01 53 92 26 26",,"2018-04-07 11:31:53","2018-04-07 11:31:53",,,"fr","Paris",,"75016","4 rue Corot",,,,
17162,905,"pa/75/notre-dame-d-esperance","169029","Notre-Dame d'Espérance","Paroisse",," ","notredameesperance@neuf.fr","+33140214939","http://www.notredameesperance.com",,,"01 40 21 49 39","+33 1 40 21 49 39","01 40 21 49 39",,"2018-04-07 11:31:53","2018-04-07 11:31:53",,,"fr","Paris",,"75011","47 rue de la Roquette - Boîte 1",,,,
17163,905,"pa/75/notre-dame-de-bonne-nouvelle","169009","Notre-Dame de Bonne Nouvelle","Paroisse",," ","eglisebonnenouvelle2@gmail.com","+33142336574","https://www.ndbn.fr",,,"01 42 33 65 74","+33 1 42 33 65 74","01 42 33 65 74",,"2018-04-07 11:31:53","2018-04-07 11:31:53",,,"fr","Paris",,"75002","19 bis rue Beauregard",,,,
17164,905,"pa/75/notre-dame-de-clignancourt","169010","Notre-Dame de Clignancourt","Paroisse",," ","ndclignancourt@hotmail.fr","+33144927021","http://www.ndclignancourt.org",,,"01 44 92 70 21","+33 1 44 92 70 21","01 44 92 70 21",,"2018-04-07 11:31:53","2018-04-07 11:31:53",,,"fr","Paris",,"75018","97 rue du Mont-Cenis",,,,
17165,905,"pa/75/notre-dame-de-compassion","169012","Notre-Dame de Compassion","Paroisse",,"



 ","paroisse.n.d.compassion@wanadoo.fr","+33145748331","http://www.paroissecompassion.fr",,,"01 45 74 83 31","+33 1 45 74 83 31","01 45 74 83 31",,"2018-04-07 11:31:53","2018-04-07 11:31:53",,,"fr","Paris",,"75017","2 boulevard d'Aurelle-de-Paladines",,,,
17166,905,"pa/75/notre-dame-de-grace-de-passy","169011","Notre-Dame de Grâce de Passy","Paroisse",," ","secretariat.ndgp@wanadoo.fr","+33144301050","http://www.ndgrace-passy.com",,,"01 44 30 10 50","+33 1 44 30 10 50","01 44 30 10 50",,"2018-04-07 11:31:53","2018-04-07 11:31:53",,,"fr","Paris",,"75016","4 rue de l'Annonciation",,,,
17167,905,"pa/75/notre-dame-de-la-salette","169015","Notre-Dame de La Salette","Paroisse",," ","paroisse@nd-la-salette.org","+33145311216","http://www.nd-la-salette.org",,,"01 45 31 12 16","+33 1 45 31 12 16","01 45 31 12 16",,"2018-04-07 11:31:53","2018-04-07 11:31:53",,,"fr","Paris",,"75015","27 rue de Dantzig",,,,
17168,905,"pa/75/notre-dame-de-lorette","169020","Notre-Dame de Lorette","Paroisse",," ","nd.lorette@wanadoo.fr","+33148789272","http://www.notredamedelorette.org",,,"01 48 78 92 72","+33 1 48 78 92 72","01 48 78 92 72",,"2018-04-07 11:31:53","2018-04-07 11:31:53",,,"fr","Paris",,"75009","8 - 8 bis rue Choron",,,,
17169,905,"pa/75/notre-dame-de-lourdes","169021","Notre-Dame de Lourdes","Paroisse",," ","ndlourdes@9online.fr","+33140316160","http://www.paris.catholique.fr/-notre-dame-de-lourdes-.html",,,"01 40 31 61 60","+33 1 40 31 61 60","01 40 31 61 60",,"2018-04-07 11:31:53","2018-04-07 11:31:53",,,"fr","Paris",,"75020","130 rue Pelleport",,,,
17170,905,"pa/75/notre-dame-de-nazareth","169022","Notre-Dame de Nazareth","Paroisse",," ","nd.nazareth@online.fr","+33145585026","http://nd-nazareth-paris.cef.fr",,,"01 45 58 50 26","+33 1 45 58 50 26","01 45 58 50 26",,"2018-04-07 11:31:53","2018-04-07 11:31:53",,,"fr","Paris",,"75015","349 rue Lecourbe",,,,
17171,905,"pa/75/notre-dame-de-l-arche-d-alliance","169016","Notre-Dame de l'Arche d'Alliance","Paroisse",," ","secretariat.ndaa@gmail.com","+33156566256","http://www.ndarche.org",,,"01 56 56 62 56","+33 1 56 56 62 56","01 56 56 62 56",,"2018-04-07 11:31:53","2018-04-07 11:31:53",,,"fr","Paris",,"75015","81 rue d'Alleray",,,,
17172,905,"pa/75/notre-dame-de-l-assomption-de-passy","169018","Notre-Dame de l'Assomption de Passy","Paroisse",," ","paroissendassomption@wanadoo.fr","+33142244150","http://www.ndassomptiondepassy.com",,,"01 42 24 41 50","+33 1 42 24 41 50","01 42 24 41 50",,"2018-04-07 11:31:53","2018-04-07 11:31:53",,,"fr","Paris",,"75016","90 rue de l'Assomption",,,,
17173,905,"pa/75/nd-de-l-assomption-des-buttes-chaumont","pa/75/notre-dame-de-l-assomption-des-buttes-chaumont","Notre-Dame de l'Assomption des Buttes-Chaumont","Paroisse",," ","notredamedesbutteschaumont@wanadoo.fr","+33961477837","http://nddbc.free.fr",,,"09 61 47 78 37","+33 9 61 47 78 37","09 61 47 78 37",,"2018-04-07 11:31:53","2018-04-07 11:31:53",,,"fr","Paris",,"75019","80 bis rue de Meaux",,,,
17174,905,"pa/75/notre-dame-de-la-croix","169013","Notre-Dame de la Croix","Paroisse",," ","secretariat@notredamedelacroix.com","+33158700710","http://www.notredamedelacroix.com",,,"01 58 70 07 10","+33 1 58 70 07 10","01 58 70 07 10",,"2018-04-07 11:31:53","2018-04-07 11:31:53",,,"fr","Paris",,"75020","3 place de Ménilmontant",,,,
17175,905,"pa/75/notre-dame-de-la-gare","169014","Notre-Dame de la Gare","Paroisse",,"","paroisse@notredamedelagare.fr","+33145834734","http://notredamedelagare.fr",,,"01 45 83 47 34","+33 1 45 83 47 34","01 45 83 47 34",,"2018-04-07 11:31:53","2018-04-07 11:31:53",,,"fr","Paris",,"75013","8 rue Dunois",,,,
17176,905,"pa/75/notre-dame-de-bercy","169008","Notre-Dame de la Nativité de Bercy","Paroisse",," ","secretariat@notredamedebercy.com","+33143078651","http://notredamedebercy.com",,,"01 43 07 86 51","+33 1 43 07 86 51","01 43 07 86 51",,"2018-04-07 11:31:53","2018-04-07 11:31:53",,,"fr","Paris",,"75012","11 rue de la Nativité",,,,
17177,905,"pa/75/notre-dame-des-blancs-manteaux","169024","Notre-Dame des Blancs-Manteaux","Paroisse",," ","nd.blancs.manteaux@free.fr","+33142720937","http://www.ndbm.fr",,,"01 42 72 09 37","+33 1 42 72 09 37","01 42 72 09 37",,"2018-04-07 11:31:53","2018-04-07 11:31:53",,,"fr","Paris",,"75004","1 rue de l'Abbé-Migne",,,,
17178,905,"pa/75/notre-dame-des-champs","169025","Notre-Dame des Champs","Paroisse",," ","accueil@notredamedeschamps.fr","+33140641964","http://www.notredamedeschamps.fr",,,"01 40 64 19 64","+33 1 40 64 19 64","01 40 64 19 64",,"2018-04-07 11:31:53","2018-04-07 11:31:53",,,"fr","Paris",,"75014","92 bis boulevard du Montparnasse",,,,
17179,905,"pa/75/notre-dame-des-foyers","169026","Notre-Dame des Foyers","Paroisse",," ","secretariat-ndf@orange.fr","+33140344644","http://notredamedesfoyers75.catholique.fr",,,"01 40 34 46 44","+33 1 40 34 46 44","01 40 34 46 44",,"2018-04-07 11:31:53","2018-04-07 11:31:53",,,"fr","Paris",,"75019","20 rue de Tanger",,,,
17180,905,"pa/75/notre-dame-des-otages","169027","Notre-Dame des Otages","Paroisse",," ","notredame.desotages@orange.fr","+33143646070",,,,"01 43 64 60 70","+33 1 43 64 60 70","01 43 64 60 70",,"2018-04-07 11:31:53","2018-04-07 11:31:53",,,"fr","Paris",,"75020","51 rue du Borrégo",,,,
17181,905,"pa/75/notre-dame-des-victoires","169028","Notre-Dame des Victoires","Paroisse",," ","basilique@notredamedesvictoires.com","+33142609047","http://www.notredamedesvictoires.com",,,"01 42 60 90 47","+33 1 42 60 90 47","01 42 60 90 47",,"2018-04-07 11:31:53","2018-04-07 11:31:53",,,"fr","Paris",,"75002","6 rue Notre-Dame des Victoires",,,,
17182,905,"pa/75/notre-dame-du-bon-conseil","169030","Notre-Dame du Bon Conseil","Paroisse",," ","contact@notredamedubonconseil.fr","+33146063980","http://notredamedubonconseil.fr",,,"01 46 06 39 80","+33 1 46 06 39 80","01 46 06 39 80",,"2018-04-07 11:31:53","2018-04-07 11:31:53",,,"fr","Paris",,"75018","140 rue de Clignancourt",,,,
17183,905,"pa/75/notre-dame-du-perpetuel-secours","169032","Notre-Dame du Perpétuel-Secours","Paroisse",," ","basiliquendps@wanadoo.fr","+33148059493","http://basilique-ndps.fr",,,"01 48 05 94 93","+33 1 48 05 94 93","01 48 05 94 93",,"2018-04-07 11:31:53","2018-04-07 11:31:53",,,"fr","Paris",,"75011","55 boulevard de Ménilmontant",,,,
17184,905,"pa/75/notre-dame-du-rosaire","169033","Notre-Dame du Rosaire","Paroisse",," ","paroisse@ndrosaire.org","+33145431316","http://www.ndrosaire.org/",,,"01 45 43 13 16","+33 1 45 43 13 16","01 45 43 13 16",,"2018-04-07 11:31:53","2018-04-07 11:31:53",,,"fr","Paris",,"75014","174 rue Raymond-Losserand",,,,
17185,905,"pa/75/notre-dame-du-travail","169034","Notre-Dame du Travail","Paroisse",," ","contact@notredamedutravail.net","+33144107292","http://www.notredamedutravail.net",,,"01 44 10 72 92","+33 1 44 10 72 92","01 44 10 72 92",,"2018-04-07 11:31:53","2018-04-07 11:31:53",,,"fr","Paris",,"75014","34-36 rue Guilleminot",,,,
17186,905,"pa/75/saint-albert-le-grand","169036","Saint-Albert le Grand","Paroisse",," ","stalbert2@wanadoo.fr","+33145891976","http://www.saintalbertlegrand.org",,,"01 45 89 19 76","+33 1 45 89 19 76","01 45 89 19 76",,"2018-04-07 11:31:53","2018-04-07 11:31:53",,,"fr","Paris",,"75013","123 rue de la Santé",,,,
17187,905,"pa/75/saint-ambroise","169037","Saint-Ambroise","Paroisse",," ","paroisse@saint-ambroise.com","+33143555618","http://www.saint-ambroise.com",,,"01 43 55 56 18","+33 1 43 55 56 18","01 43 55 56 18",,"2018-04-07 11:31:53","2018-04-07 11:31:53",,,"fr","Paris",,"75011","2 rue Saint-Ambroise",,,,
17188,905,"pa/75/saint-andre-de-l-europe","169038","Saint-André de l'Europe","Paroisse",," ","contact@saint-andre-europe.org","+33144707900","http://www.saint-andre-europe.org",,,"01 44 70 79 00","+33 1 44 70 79 00","01 44 70 79 00",,"2018-04-07 11:31:53","2018-04-07 11:31:53",,,"fr","Paris",,"75008","24 bis rue de Saint-Pétersbourg",,,,
17189,905,"pa/75/saint-antoine-de-padoue","169039","Saint-Antoine de Padoue","Paroisse",," ","saintantoinedepadoue75015@gmail.com","+33153680620","http://saintantoinedepadoue-paris.cef.fr",,,"01 53 68 06 20","+33 1 53 68 06 20","01 53 68 06 20",,"2018-04-07 11:31:53","2018-04-07 11:31:53",,,"fr","Paris",,"75015","52 boulevard Lefebvre",,,,
17190,905,"pa/75/saint-antoine-des-quinze-vingts","169040","Saint-Antoine des Quinze-Vingts","Paroisse",," ","secretariat@saqv.fr","+33153171900","http://www.saqv.fr",,,"01 53 17 19 00","+33 1 53 17 19 00","01 53 17 19 00",,"2018-04-07 11:31:53","2018-04-07 11:31:53",,,"fr","Paris",,"75012","57 rue Traversière",,,,
17191,905,"pa/75/saint-augustin","169041","Saint-Augustin","Paroisse",," ","secretariat@saintaugustin.net","+33145220135","http://www.saintaugustin.net/",,,"01 45 22 01 35","+33 1 45 22 01 35","01 45 22 01 35",,"2018-04-07 11:31:53","2018-04-07 11:31:53",,,"fr","Paris",,"75008","8 avenue César-Caire",,,,
17192,905,"pa/75/saint-bernard-de-la-chapelle","169042","Saint-Bernard de la Chapelle","Paroisse",," ","paroisse@saint-bernard-de-la-chapelle.fr","+33142645212","http://www.saint-bernard-de-la-chapelle.fr",,,"01 42 64 52 12","+33 1 42 64 52 12","01 42 64 52 12",,"2018-04-07 11:31:53","2018-04-07 11:31:53",,,"fr","Paris",,"75018","6 rue Saint-Luc",,,,
17193,905,"pa/75/saint-charles-de-monceau","169044","Saint-Charles de Monceau","Paroisse",," ","paroisse.st.charles.sec@orange.fr","+33147630584","http://www.saintcharlesdemonceau.laparoisse.net",,,"01 47 63 05 84","+33 1 47 63 05 84","01 47 63 05 84",,"2018-04-07 11:31:53","2018-04-07 11:31:53",,,"fr","Paris",,"75017","17 rue de Tocqueville",,,,
17194,905,"pa/75/saint-christophe-de-javel","169045","Saint-Christophe de Javel","Paroisse",," ","secretariat@scjavel.net","+33145783370","http://www.scjavel.net",,,"01 45 78 33 70","+33 1 45 78 33 70","01 45 78 33 70",,"2018-04-07 11:31:53","2018-04-07 11:31:53",,,"fr","Paris",,"75015","28 rue de la Convention",,,,
17195,905,"pa/75/saint-denys-de-la-chapelle","169046","Saint-Denys de la Chapelle","Paroisse",," ","paroisse.stdenyslachapelle@gmail.com","+33146073552","http://saintdenyslachapelle.fr",,,"01 46 07 35 52","+33 1 46 07 35 52","01 46 07 35 52",,"2018-04-07 11:31:53","2018-04-07 11:31:53",,,"fr","Paris",,"75018","52 rue de Torcy",,,,
17196,905,"pa/75/saint-denys-du-saint-sacrement","169047","Saint-Denys du Saint-Sacrement","Paroisse",," ","stdenys-marais@wanadoo.fr","+33144543588","http://www.saintdenys.net",,,"01 44 54 35 88","+33 1 44 54 35 88","01 44 54 35 88",,"2018-04-07 11:31:53","2018-04-07 11:31:53",,,"fr","Paris",,"75003","15 rue Saint-Claude",,,,
17197,905,"pa/75/saint-dominique","169048","Saint-Dominique","Paroisse",," ","st.dominique.paroisse@orange.fr","+33145652025","http://saintdominique-paris.com",,,"01 45 65 20 25","+33 1 45 65 20 25","01 45 65 20 25",,"2018-04-07 11:31:53","2018-04-07 11:31:53",,,"fr","Paris",,"75014","11 villa Saint-Jacques",,,,
17198,905,"pa/75/saint-esprit","169050","Saint-Esprit","Paroisse",," ","secretariat@st-esprit.org","+33144757750","http://www.st-esprit.org",,,"01 44 75 77 50","+33 1 44 75 77 50","01 44 75 77 50",,"2018-04-07 11:31:53","2018-04-07 11:31:53",,,"fr","Paris",,"75012","1 rue Cannebière",,,,
17199,905,"pa/75/saint-eugene-sainte-cecile","169052","Saint-Eugène - Sainte-Cécile","Paroisse",," ","secretariat@saint-eugene.net","+33148247025","http://www.saint-eugene.net",,,"01 48 24 70 25","+33 1 48 24 70 25","01 48 24 70 25",,"2018-04-07 11:31:53","2018-04-07 11:31:53",,,"fr","Paris",,"75009","4 rue du Conservatoire",,,,
17200,905,"pa/75/saint-eustache","169053","Saint-Eustache","Paroisse",," ","paroisse@saint-eustache.org","+33142363105","http://www.saint-eustache.org",,,"01 42 36 31 05","+33 1 42 36 31 05","01 42 36 31 05",,"2018-04-07 11:31:53","2018-04-07 11:31:53",,,"fr","Paris",,"75001","2 impasse Saint-Eustache",,,,
17201,905,"pa/75/saint-ferdinand-des-ternes","169054","Saint-Ferdinand - Sainte-Thérèse de l'Enfant-Jésus","Paroisse",," ","paroisse@saintferdinanddesternes.fr","+33145740032","http://saintferdinanddesternes.fr",,,"01 45 74 00 32","+33 1 45 74 00 32","01 45 74 00 32",,"2018-04-07 11:31:53","2018-04-07 11:31:53",,,"fr","Paris",,"75017","27 rue d'Armaillé",,,,
17202,905,"pa/75/saint-francois-d-assise","169055","Saint-François d'Assise","Paroisse",," ","stfrancoisassise@wanadoo.fr","+33142396458",,,,"01 42 39 64 58","+33 1 42 39 64 58","01 42 39 64 58",,"2018-04-07 11:31:53","2018-04-07 11:31:53",,,"fr","Paris",,"75019","9 rue de Mouzaïa",,,,
17203,905,"pa/75/saint-francois-de-molitor","169056","Saint-François de Molitor","Paroisse",," ","sfrancoismolitor@free.fr","+33146513754","http://saintfrancois-molitor.cef.fr",,,"01 46 51 37 54","+33 1 46 51 37 54","01 46 51 37 54",,"2018-04-07 11:31:53","2018-04-07 11:31:53",,,"fr","Paris",,"75016","44 rue Molitor",,,,
17204,905,"pa/75/saint-francois-de-sales","169057","Saint-François de Sales","Paroisse",," ","contact@parsfs.fr","+33143181515","http://saintfrancoisdesales.net",,,"01 43 18 15 15","+33 1 43 18 15 15","01 43 18 15 15",,"2018-04-07 11:31:53","2018-04-07 11:31:53",,,"fr","Paris",,"75017","70 rue Jouffroy d'Abbans",,,,
17205,905,"pa/75/saint-francois-xavier","169058","Saint-François-Xavier","Paroisse",," ","courrier@sfx-paris.fr","+33144496262","http://www.sfx-paris.fr",,,"01 44 49 62 62","+33 1 44 49 62 62","01 44 49 62 62",,"2018-04-07 11:31:53","2018-04-07 11:31:53",,,"fr","Paris",,"75007","39 boulevard des Invalides",,,,
17206,905,"pa/75/saint-gabriel","169059","Saint-Gabriel","Paroisse",," ","paroisse-stgab@9online.fr","+33143730319","http://www.saintgab.com",,,"01 43 73 03 19","+33 1 43 73 03 19","01 43 73 03 19",,"2018-04-07 11:31:53","2018-04-07 11:31:53",,,"fr","Paris",,"75020","81 rue de la Plaine",,,,
17207,905,"pa/75/saint-georges","169060","Saint-Georges","Paroisse",," ","paroissesaintgeorges@orange.fr","+33142396180","http://saintgeorgesdelavillette.cef.fr",,,"01 42 39 61 80","+33 1 42 39 61 80","01 42 39 61 80",,"2018-04-07 11:31:53","2018-04-07 11:31:53",,,"fr","Paris",,"75019","4 rue Édouard-Pailleron",,,,
17208,905,"pa/75/saint-germain-de-charonne","169061","Saint-Germain de Charonne","Paroisse",," ","par.st.g.ch@wanadoo.fr","+33143714204","http://www.saintgermaindecharonne.fr",,,"01 43 71 42 04","+33 1 43 71 42 04","01 43 71 42 04",,"2018-04-07 11:31:53","2018-04-07 11:31:53",,,"fr","Paris",,"75020","4 place Saint-Blaise",,,,
17209,905,"pa/75/saint-germain-des-pres","169062","Saint-Germain des Prés","Paroisse",," ","secretariat@eglise-sgp.org","+33155428133","http://www.eglise-sgp.org",,,"01 55 42 81 33","+33 1 55 42 81 33","01 55 42 81 33",,"2018-04-07 11:31:53","2018-04-07 11:31:53",,,"fr","Paris",,"75006","3 place Saint-Germain-des-Prés",,,,
17210,905,"pa/75/saint-germain-l-auxerrois","169063","Saint-Germain l'Auxerrois","Paroisse",," ","eglise@saintgermainlauxerrois.fr","+33142601396","https://www.saintgermainlauxerrois.fr",,,"01 42 60 13 96","+33 1 42 60 13 96","01 42 60 13 96",,"2018-04-07 11:31:53","2018-04-07 11:31:53",,,"fr","Paris",,"75001","2 place du Louvre",,,,
17211,905,"pa/75/saint-hippolyte","169065","Saint-Hippolyte","Paroisse",," ","secretariat@saint-hippolyte.net","+33145851205","http://www.saint-hippolyte.net",,,"01 45 85 12 05","+33 1 45 85 12 05","01 45 85 12 05",,"2018-04-07 11:31:53","2018-04-07 11:31:53",,,"fr","Paris",,"75013","27 avenue de Choisy",,,,
17212,905,"pa/75/saint-honore-d-eylau","169066","Saint-Honoré d'Eylau","Paroisse",," ","paroisse.saint.honore@wanadoo.fr","+33145019600","http://www.paroisse-saint-honore.com",,,"0145019600","+33 1 45 01 96 00","01 45 01 96 00",,"2018-04-07 11:31:53","2018-04-07 11:31:53",,,"fr","Paris",,"75016","64 bis avenue Raymond-Poincaré",,,,
17213,905,"pa/75/saint-jacques-saint-christophe-de-la-villette","169068","Saint-Jacques - Saint-Christophe","Paroisse",," ","stjacques.stchristophe@wanadoo.fr","+33140365789","http://www.sjsc.fr",,,"01 40 36 57 89","+33 1 40 36 57 89","01 40 36 57 89",,"2018-04-07 11:31:53","2018-04-07 11:31:53",,,"fr","Paris",,"75019","3 place de Joinville",,,,
17214,905,"pa/75/saint-jacques-du-haut-pas","169067","Saint-Jacques du Haut-Pas","Paroisse",," ","sjhp@wanadoo.fr","+33143259170","http://www.saintjacquesduhautpas.com",,,"0143259170","+33 1 43 25 91 70","01 43 25 91 70",,"2018-04-07 11:31:53","2018-04-07 11:31:53",,,"fr","Paris",,"75005","252 rue Saint-Jacques",,,,
17215,905,"pa/75/saint-jean-de-montmartre","169073","Saint-Jean de Montmartre","Paroisse",," ","paroisse-saint-jean@wanadoo.fr","+33146064396","http://saintjeandemontmartre.com",,,"01 46 06 43 96","+33 1 46 06 43 96","01 46 06 43 96",,"2018-04-07 11:31:53","2018-04-07 11:31:53",,,"fr","Paris",,"75018","21 rue des Abbesses",,,,
17216,905,"pa/75/saint-jean-des-deux-moulins","169074","Saint-Jean des Deux-Moulins","Paroisse",," ","paroissesj2m@gmail.com","+33145709475","http://sj2m.fr",,,"01 45 70 94 75","+33 1 45 70 94 75","01 45 70 94 75",,"2018-04-07 11:31:53","2018-04-07 11:31:53",,,"fr","Paris",,"75013","185 rue du Château-des-Rentiers",,,,
17217,905,"pa/75/saint-jean-baptiste-de-belleville","169069","Saint-Jean-Baptiste de Belleville","Paroisse",," ","st.jean-baptiste.belleville@wanadoo.fr","+33142085454","http://sjbb.fr",,,"01 42 08 54 54","+33 1 42 08 54 54","01 42 08 54 54",,"2018-04-07 11:31:53","2018-04-07 11:31:53",,,"fr","Paris",,"75019","15 rue Lassus",,,,
17218,905,"pa/75/saint-jean-baptiste-de-grenelle","169070","Saint-Jean-Baptiste de Grenelle","Paroisse",," ","accueil@sjbg.org","+33156568310","http://sjbg.org",,,"01 56 56 83 10","+33 1 56 56 83 10","01 56 56 83 10",,"2018-04-07 11:31:53","2018-04-07 11:31:53",,,"fr","Paris",,"75015","14 place Étienne-Pernet",,,,
17219,905,"pa/75/saint-jean-baptiste-de-la-salle","169071","Saint-Jean-Baptiste de La Salle","Paroisse",," ","sjbs75015@gmail.com","+33147341995","http://paroisse-sjbs.fr",,,"01 47 34 19 95","+33 1 47 34 19 95","01 47 34 19 95",,"2018-04-07 11:31:53","2018-04-07 11:31:53",,,"fr","Paris",,"75015","70 rue Falguière",,,,
17220,905,"pa/75/saint-jean-bosco","169072","Saint-Jean-Bosco","Paroisse",," ","paroissestjeanbosco@orange.fr","+33143702927","http://saintjeanboscoparis.catholique.fr",,,"01 43 70 29 27","+33 1 43 70 29 27","01 43 70 29 27",,"2018-04-07 11:31:53","2018-04-07 11:31:53",,,"fr","Paris",,"75020","79 rue Alexandre-Dumas",,,,
17221,905,"pa/75/saint-joseph-des-nations","169077","Saint-Joseph des Nations","Paroisse",," ","paroisse@saintjosephdesnations.fr","+33143575850","http://saintjosephdesnations.fr",,,"01 43 57 58 50","+33 1 43 57 58 50","01 43 57 58 50",,"2018-04-07 11:31:53","2018-04-07 11:31:53",,,"fr","Paris",,"75011","4 rue Darboy",,,,
17222,905,"pa/75/saint-joseph-des-epinettes","169076","Saint-Joseph des Épinettes","Paroisse",," ","paroisse@stjosephdesepinettes.org","+33153069111","http://www.stjosephdesepinettes.org",,,"01 53 06 91 11","+33 1 53 06 91 11","01 53 06 91 11",,"2018-04-07 11:31:53","2018-04-07 11:31:53",,,"fr","Paris",,"75017","48 cité des Fleurs",,,,
17223,905,"pa/75/saint-joseph-artisan","169075","Saint-Joseph-Artisan","Paroisse",," ","sjoart@orange.fr","+33146079287","http://saintjosephartisan.fr",,,"01 46 07 92 87","+33 1 46 07 92 87","01 46 07 92 87",,"2018-04-07 11:31:53","2018-04-07 11:31:53",,,"fr","Paris",,"75010","214 rue Lafayette",,,,
17224,905,"pa/75/saint-lambert-de-vaugirard","169079","Saint-Lambert de Vaugirard","Paroisse",," ","secretariat@st-lambert.fr","+33144194525","http://www.st-lambert.fr",,,"01 44 19 45 25","+33 1 44 19 45 25","01 44 19 45 25",,"2018-04-07 11:31:53","2018-04-07 11:31:53",,,"fr","Paris",,"75015","2 rue Gerbert",,,,
17225,905,"pa/75/saint-laurent","169080","Saint-Laurent","Paroisse",," ","contact@asaintlaurent.com","+33146072465","http://www.asaintlaurent.com",,,"01 46 07 24 65","+33 1 46 07 24 65","01 46 07 24 65",,"2018-04-07 11:31:53","2018-04-07 11:31:53",,,"fr","Paris",,"75010","119 rue du Faubourg-Saint-Martin",,,,
17226,905,"pa/75/saint-leu-saint-gilles","169082","Saint-Leu - Saint-Gilles","Paroisse",," ","saintleu.eglise@neuf.fr","+33142335022","http://saintleuparis.catholique.fr",,,"01 42 33 50 22","+33 1 42 33 50 22","01 42 33 50 22",,"2018-04-07 11:31:53","2018-04-07 11:31:53",,,"fr","Paris",,"75001","92 rue Saint-Denis",,,,
17227,905,"pa/75/saint-louis-d-antin","169083","Saint-Louis d'Antin","Paroisse",," ","saintlouisantin@free.fr","+33145266534","http://www.saintlouisantin.fr",,,"01 45 26 65 34","+33 1 45 26 65 34","01 45 26 65 34",,"2018-04-07 11:31:53","2018-04-07 11:31:53",,,"fr","Paris",,"75008","4 rue de Castellane",,,,
17228,905,"pa/75/saint-louis-en-l-ile","169085","Saint-Louis en l'Île","Paroisse",," ","saintlouis.enlile@free.fr","+33146341160","http://www.saintlouisenlile.catholique.fr",,,"01 46 34 11 60","+33 1 46 34 11 60","01 46 34 11 60",,"2018-04-07 11:31:53","2018-04-07 11:31:53",,,"fr","Paris",,"75004","3 rue Poulletier",,,,
17229,905,"pa/75/saint-luc","169086","Saint-Luc","Paroisse",," ","paroisse@saintlucparis.com","+33153350120","http://www.saintlucparis.com",,,"01 53 35 01 20","+33 1 53 35 01 20","01 53 35 01 20",,"2018-04-07 11:31:53","2018-04-07 11:31:53",,,"fr","Paris",,"75019","80 rue de l'Ourcq",,,,
17230,905,"pa/75/saint-leon","169081","Saint-Léon","Paroisse",," ","secretariat@saintleon.com","+33153696010","http://www.saintleon.com",,,"01 53 69 60 10","+33 1 53 69 60 10","01 53 69 60 10",,"2018-04-07 11:31:53","2018-04-07 11:31:53",,,"fr","Paris",,"75015","1 place du Cardinal-Amette",,,,
17231,905,"pa/75/saint-marcel","169087","Saint-Marcel","Paroisse",," ","secretariat@paroissesaintmarcel.fr","+33147072743",,,,"01 47 07 27 43","+33 1 47 07 27 43","01 47 07 27 43",,"2018-04-07 11:31:53","2018-04-07 11:31:53",,,"fr","Paris",,"75013","82 boulevard de l'Hôpital",,,,
17232,905,"pa/75/saint-martin-des-champs","169088","Saint-Martin des Champs","Paroisse",," ","paroisse@saintmartindeschamps.org","+33142083660","http://www.saintmartindeschamps.org",,,"01 42 08 36 60","+33 1 42 08 36 60","01 42 08 36 60",,"2018-04-07 11:31:53","2018-04-07 11:31:53",,,"fr","Paris",,"75010","38 rue Albert-Thomas",,,,
17233,905,"pa/75/saint-merry","169090","Saint-Merry","Paroisse",," ","saint-merry@orange.fr","+33142719393","http://www.saintmerry.org","http://lh3.googleusercontent.com/iGLHvY_HRVL0sOlO9oDQKOxsSPbqFv5OLJ5pDOUUoT4XpZ-1NC8xSe0dixlitz6zGXMse-31_T2jCSZauljruShS",,"01 42 71 93 93","+33 1 42 71 93 93","01 42 71 93 93",,"2018-04-07 11:31:53","2018-04-07 11:31:53",,,"fr","Paris",,"75004","76 rue de la Verrerie",,,,
17234,905,"pa/75/saint-michel","169119","Saint-Michel","Paroisse",," ","secretariat@saintmichel-paris.fr","+33143873394","http://www.saintmichel-paris.fr",,,"01 43 87 33 94","+33 1 43 87 33 94","01 43 87 33 94",,"2018-04-07 11:31:53","2018-04-07 11:31:53",,,"fr","Paris",,"75017","3 place Saint-Jean",,,,
17235,905,"pa/75/saint-medard","169089","Saint-Médard","Paroisse",," ","saintmedard.paris@free.fr","+33144088700","http://saintmedard.org",,,"01 44 08 87 00","+33 1 44 08 87 00","01 44 08 87 00",,"2018-04-07 11:31:53","2018-04-07 11:31:53",,,"fr","Paris",,"75005","39-41 rue Daubenton",,,,
17236,905,"pa/75/saint-nicolas-des-champs","169092","Saint-Nicolas des Champs","Paroisse",," ","secretariat@asaintnicolas.com","+33142729254","http://www.asaintnicolas.com",,,"01 42 72 92 54","+33 1 42 72 92 54","01 42 72 92 54",,"2018-04-07 11:31:53","2018-04-07 11:31:53",,,"fr","Paris",,"75003","49 rue Turbigo",,,,
17237,905,"pa/75/saint-paul-saint-louis","169093","Saint-Paul - Saint-Louis","Paroisse",," ","contact@spsl.fr","+33142723032","http://spsl.fr",,,"01 42 72 30 32","+33 1 42 72 30 32","01 42 72 30 32",,"2018-04-07 11:31:53","2018-04-07 11:31:53",,,"fr","Paris",,"75004","7 passage Saint-Paul",,,,
17238,905,"pa/75/saint-philippe-du-roule","169094","Saint-Philippe du Roule","Paroisse",," ","contact@stphilippeduroule.org","+33153530040","http://www.stphilippeduroule.org",,,"01 53 53 00 40","+33 1 53 53 00 40","01 53 53 00 40",,"2018-04-07 11:31:53","2018-04-07 11:31:53",,,"fr","Paris",,"75008","9 rue de Courcelles",,,,
17239,905,"pa/75/saint-pierre-de-chaillot","169095","Saint-Pierre de Chaillot","Paroisse",," ","info@eglise-chaillot.com","+33147201233","http://www.eglise-chaillot.com",,,"01 47 20 12 33","+33 1 47 20 12 33","01 47 20 12 33",,"2018-04-07 11:31:53","2018-04-07 11:31:53",,,"fr","Paris",,"75016","28 rue de Chaillot",,,,
17240,905,"pa/75/saint-pierre-de-montmartre","169096","Saint-Pierre de Montmartre","Paroisse",,"https://twitter.com/SPMontmartre ","contact@spmontmartre.com","+33146065763","http://www.saintpierredemontmartre.net",,,"01 46 06 57 63","+33 1 46 06 57 63","01 46 06 57 63",,"2018-04-07 11:31:53","2018-04-07 11:31:53",,,"fr","Paris",,"75018","2 rue du Mont-Cenis",,,,
17241,905,"pa/75/saint-pierre-de-montrouge","169097","Saint-Pierre de Montrouge","Paroisse",," ","st.pierre.montrouge@free.fr","+33143954100","http://www.saintpierredemontrouge.com",,,"01 43 95 41 00","+33 1 43 95 41 00","01 43 95 41 00",,"2018-04-07 11:31:53","2018-04-07 11:31:53",,,"fr","Paris",,"75014","9 passage Rimbaut",,,,
17242,905,"pa/75/saint-pierre-du-gros-caillou","169098","Saint-Pierre du Gros-Caillou","Paroisse",," ","paroisse.spgc@free.fr","+33144420404","http://www.stpierredugroscaillou.com",,,"01 44 42 04 04","+33 1 44 42 04 04","01 44 42 04 04",,"2018-04-07 11:31:53","2018-04-07 11:31:53",,,"fr","Paris",,"75007","92 rue Saint-Dominique",,,,
17243,905,"pa/75/saint-roch","169099","Saint-Roch","Paroisse",," ","secretariat@paroissesaintroch.fr","+33142441320","http://www.paroissesaintroch.fr",,,"01 42 44 13 20","+33 1 42 44 13 20","01 42 44 13 20",,"2018-04-07 11:31:53","2018-04-07 11:31:53",,,"fr","Paris",,"75001","24 rue Saint-Roch",,,,
17244,905,"pa/75/saint-sulpice","169101","Saint-Sulpice","Paroisse",," ","cr@pssparis.net","+33142345994","http://pss75.fr/saint-sulpice-paris/",,,"01 42 34 59 94","+33 1 42 34 59 94","01 42 34 59 94",,"2018-04-07 11:31:53","2018-04-07 11:31:53",,,"fr","Paris",,"75006","50 rue de Vaugirard",,,,
17245,905,"pa/75/saint-severin","169100","Saint-Séverin - Saint-Nicolas","Paroisse",," ","paroisse@saint-severin.com","+33142349350","http://www.saint-severin.com",,,"01 42 34 93 50","+33 1 42 34 93 50","01 42 34 93 50",,"2018-04-07 11:31:53","2018-04-07 11:31:53",,,"fr","Paris",,"75005","3 rue des Prêtres-Saint-Séverin",,,,
17246,905,"pa/75/saint-thomas-d-aquin","169102","Saint-Thomas d'Aquin","Paroisse",," ","question@eglisesaintthomasdaquin.fr","+33142225974","http://www.eglisesaintthomasdaquin.fr",,,"01 42 22 59 74","+33 1 42 22 59 74","01 42 22 59 74",,"2018-04-07 11:31:53","2018-04-07 11:31:53",,,"fr","Paris",,"75007","1 rue Montalembert",,,,
17247,905,"pa/75/saint-vincent-de-paul","169103","Saint-Vincent de Paul","Paroisse",," ","secretariat.svp@orange.fr","+33148784747","http://www.paroissesvp.fr",,,"01 48 78 47 47","+33 1 48 78 47 47","01 48 78 47 47",,"2018-04-07 11:31:53","2018-04-07 11:31:53",,,"fr","Paris",,"75010","5 rue de Belzunce",,,,
17248,905,"pa/75/saint-eloi","169049","Saint-Éloi","Paroisse",,"","steloi@steloi.com","+33143075565","http://www.steloi.com",,,"01 43 07 55 65","+33 1 43 07 55 65","01 43 07 55 65",,"2018-04-07 11:31:53","2018-04-07 11:31:53",,,"fr","Paris",,"75012","1 place Maurice-de-Fontenay",,,,
17249,905,"pa/75/saint-etienne-du-mont","169051","Saint-Étienne du Mont","Paroisse",," ","paroisse@saintetiennedumont.fr","+33143541179","http://www.saintetiennedumont.fr",,,"01 43 54 11 79","+33 1 43 54 11 79","01 43 54 11 79",,"2018-04-07 11:31:53","2018-04-07 11:31:53",,,"fr","Paris",,"75005","30 rue Descartes",,,,
17250,905,"pa/75/sainte-anne-de-la-butte-aux-cailles","169104","Sainte-Anne de la Butte-aux-Cailles","Paroisse",,"","secretariat@paroissesainteanne-paris.fr","+33145893473","http://www.paroissesainteanne-paris.fr",,,"01 45 89 34 73","+33 1 45 89 34 73","01 45 89 34 73",,"2018-04-07 11:31:53","2018-04-07 11:31:53",,,"fr","Paris",,"75013","188 rue de Tolbiac",,,,
17251,905,"pa/75/sainte-claire","169105","Sainte-Claire","Paroisse",," ","sainteclaireparis@gmail.com","+33142021136","http://www.paris.catholique.fr/-sainte-claire-d-assise-.html",,,"01 42 02 11 36","+33 1 42 02 11 36","01 42 02 11 36",,"2018-04-07 11:31:53","2018-04-07 11:31:53",,,"fr","Paris",,"75019","179 boulevard Sérurier",,,,
17252,905,"pa/75/sainte-clotilde","169107","Sainte-Clotilde","Paroisse",," ","secretariat@sainte-clotilde.com","+33144186260","http://www.sainte-clotilde.com",,,"01 44 18 62 60","+33 1 44 18 62 60","01 44 18 62 60",,"2018-04-07 11:31:53","2018-04-07 11:31:53",,,"fr","Paris",,"75007","12 rue de Martignac",,,,
17253,905,"pa/75/sainte-colette-des-buttes-chaumont","169108","Sainte-Colette des Buttes-Chaumont","Paroisse",," ","sainte.colette@wanadoo.fr","+33142082418","http://www.paris.catholique.fr/-sainte-colette-des-buttes-chaumont-.html",,,"01 42 08 24 18","+33 1 42 08 24 18","01 42 08 24 18",,"2018-04-07 11:31:53","2018-04-07 11:31:53",,,"fr","Paris",,"75019","14 allée Darius-Mihaud",,,,
17254,905,"pa/75/sainte-genevieve-des-grandes-carrieres","169110","Sainte-Geneviève des Grandes-Carrières","Paroisse",," ","stegenevieve@sfr.fr","+33153066539","http://www.paris.catholique.fr/-Sainte-Genevieve-des-Grandes,1201-.html",,,"01 53 06 65 39","+33 1 53 06 65 39","01 53 06 65 39",,"2018-04-07 11:31:53","2018-04-07 11:31:53",,,"fr","Paris",,"75018","174 rue Championnet",,,,
17255,905,"pa/75/sainte-helene","169111","Sainte-Hélène","Paroisse",," ","paroissesaintehelene@wanadoo.fr","+33146061699","http://www.sainteheleneparis.catholique.fr",,,"01 46 06 16 99","+33 1 46 06 16 99","01 46 06 16 99",,"2018-04-07 11:31:53","2018-04-07 11:31:53",,,"fr","Paris",,"75018","4 rue Esclangon",,,,
17256,905,"pa/75/sainte-jeanne-de-chantal","169112","Sainte-Jeanne de Chantal","Paroisse",," ","paroisse.chantal@wanadoo.fr","+33140711040","http://www.saintejeannedechantal.com",,,"01 40 71 10 40","+33 1 40 71 10 40","01 40 71 10 40",,"2018-04-07 11:31:53","2018-04-07 11:31:53",,,"fr","Paris",,"75016","96 boulevard Murat",,,,
17257,905,"pa/75/sainte-marguerite","169113","Sainte-Marguerite","Paroisse",," ","secretariat@saintemargueriteparis.fr","+33143713424","http://www.saintemargueriteparis.fr",,,"01 43 71 34 24","+33 1 43 71 34 24","01 43 71 34 24",,"2018-04-07 11:31:53","2018-04-07 11:31:53",,,"fr","Paris",,"75011","36 rue Saint-Bernard",,,,
17258,905,"pa/75/sainte-marie-des-batignolles","169114","Sainte-Marie des Batignolles","Paroisse",," ","paroisse@smb.paris","+33146275767","https://saintemariedesbatignolles.fr",,,"01 46 27 57 67","+33 1 46 27 57 67","01 46 27 57 67",,"2018-04-07 11:31:53","2018-04-07 11:31:53",,,"fr","Paris",,"75017","77 place du Docteur-Félix-Lobligeois",,,,
17259,905,"pa/75/la-madeleine","169005","Sainte-Marie-Madeleine","Paroisse",," ","madln@orange.fr","+33144516900","http://www.eglise-lamadeleine.com",,,"01 44 51 69 00","+33 1 44 51 69 00","01 44 51 69 00",,"2018-04-07 11:31:53","2018-04-07 11:31:53",,,"fr","Paris",,"75008","14 rue de Surène",,,,
17260,905,"pa/75/sainte-odile","169115","Sainte-Odile","Paroisse",," ","sainteodile75017@gmail.com","+33142271837","http://www.sainteodile.fr",,,"01 42 27 18 37","+33 1 42 27 18 37","01 42 27 18 37",,"2018-04-07 11:31:53","2018-04-07 11:31:53",,,"fr","Paris",,"75017","2 avenue Stéphane-Mallarmé",,,,
17261,905,"pa/75/sainte-rosalie","169116","Sainte-Rosalie","Paroisse",," ","paroisse@sainte-rosalie.org","+33143313683","http://www.sainte-rosalie.org",,,"01 43 31 36 83","+33 1 43 31 36 83","01 43 31 36 83",,"2018-04-07 11:31:53","2018-04-07 11:31:53",,,"fr","Paris",,"75013","50 boulevard Auguste-Blanqui",,,,
17262,905,"pa/75/la-trinite","169006","Sainte-Trinité","Paroisse",," ","contact@latriniteparis.com","+33148741277","http://latriniteparis.com",,,"01 48 74 12 77","+33 1 48 74 12 77","01 48 74 12 77",,"2018-04-07 11:31:53","2018-04-07 11:31:53",,,"fr","Paris",,"75009","3 rue de la Trinité",,,,
17263,905,"pa/75/sainte-elisabeth","169109","Sainte-Élisabeth","Paroisse",," ","parste@aliceadsl.fr","+33149964910","http://www.sainteelisabethdehongrie.com",,,"01 49 96 49 10","+33 1 49 96 49 10","01 49 96 49 10",,"2018-04-07 11:31:53","2018-04-07 11:31:53",,,"fr","Paris",,"75003","195 rue du Temple",,,,
17091,932,"ve/78/fourqueux-mareil","192029","Mareil Fourqueux","Groupement paroissial","Père Rémy HOUETTE"," ",,"+33134512965","http://www.paroissemareilfourqueux.fr/","http://lh3.googleusercontent.com/NtkExuXMabBekX17nK9Dvwi7HkZFYS9qjlSliyNM6-s0rcgg9V3VBXJzfZu_Ed2lvB9BELNG8Nn9v6WgXwreFvE",,"01 34 51 29 65","+33 1 34 51 29 65","01 34 51 29 65",,"2018-04-07 11:24:57","2018-04-07 11:24:57",,,"fr","FOURQUEUX",,"78112","4 bis rue de Saint Nom",,,,
