"id","name","address_country","address_locality","address_region","postal_code","street_address","created_at","updated_at","picture","formatted_address","latitude","longitude","zoom","type","slug","parish_id","messe_info_id"
14938,"Exaltation de la Sainte Croix","FR","FOURQUEUX",,"78112","4 bis rue de Saint-Nom","2018-04-07 11:25:04","2018-04-07 11:25:04","https://lh3.googleusercontent.com/AHOoud8Fm1x9fBLua5n_DLSuX5UQXwq3HRI4RLrM8PCEtvPbQfkrlsyg8T0x8N2zBKt7Dxn8JY23aey2hyBksVU=s85",,48.8847373,2.0611995,,"eglise","",17091,"78/fourqueux/exaltation-de-la-sainte-croix"
14939,"Saint Etienne","FR","MAREIL MARLY",,"78750","4 bis rue Tellier Frères","2018-04-07 11:25:04","2018-04-07 11:25:04","https://lh3.googleusercontent.com/SQlxdadG3jcyCEB4VXiuF_GUhhJlKJErk8u2W4EX4a6HPN5cI-fCVHeu1VAvg_33J-Jp-At_AJgJ1J3EALPu-A=s85",,48.8812744,2.078857,,"eglise","",17091,"78/mareil-marly/saint-etienne"
14940,"Ablis (Saint Pierre Saint Paul)","FR","ABLIS",,"78660","1, avenue des Platanes. B.P. 18","2018-04-07 11:25:05","2018-04-07 11:25:05","https://lh3.googleusercontent.com/oh-VJ7MQIXfP9k5C_gTBtU2CXsFTPinBdosvzIycgQTc9qYUzip2rfqgSu8skjA8na2mdUX5eIBWIRXzMLWPUwA=s85",,48.5149215,1.8346536,,"eglise","",17092,"78/ablis/saint-pierre-saint-paul"
14941,"Allainville-aux-Bois (Saint Pierre)","FR","ALLAINVILLE AUX BOIS",,"78660","","2018-04-07 11:25:05","2018-04-07 11:25:05","https://lh3.googleusercontent.com/I-rgzqnVXqRxvsVyt9cWmIYBcGsHK_-PiMSndt73KdP3HTbJl7OvlqEj1B9tw6oyn_8YvWFnG6QzVstplyQ2HNk=s85",,48.4565996,1.8967762,,"eglise","",17092,"78/allainville-aux-bois/saint-pierre"
14942,"Boinville-le-Gaillard (Assomption de la Très-Sainte Vierge)","FR","BOINVILLE LE GAILLARD",,"78660","","2018-04-07 11:25:05","2018-04-07 11:25:05","https://lh3.googleusercontent.com/SRHEiTOSSMVU1ridEie8Kw0RmBFC0V9nLcMIHD2FbxmoJPtbSdsp6Y1FcAqYDjxDvFoWqBrOh1Yo6p3Oy48I2Yzx=s85",,48.4933997,1.8714652,,"eglise","",17092,"78/boinville-le-gaillard/assomption-de-la-tres-sainte-vierge"
14943,"Orsonville (Saint André)","FR","ORSONVILLE",,"78660","","2018-04-07 11:25:05","2018-04-07 11:25:05","https://lh3.googleusercontent.com/nbjP1gBy_Al2sU7RTMUstrp27Rwod8kTvr-9sahoZrtrX_9R0ezEBviNm93DZnEqqFkE4nWY7vLjFYVF0DiJj8qk=s85",,48.4780544,1.8342921,,"eglise","",17092,"78/orsonville/saint-andre"
14944,"Paray-Douaville (Saint Pierre)","FR","PARAY DOUAVILLE",,"78660","","2018-04-07 11:25:05","2018-04-07 11:25:05","https://lh3.googleusercontent.com/4KQwAvCbK_zOW8Wa74ooxa5sQ7wVHBesChHFIhvUcUUe-8jZwfiJazqR2kCNigJjtOY-2ExEOnGJHx0hD1waTg=s85",,48.4623627,1.8765236,,"eglise","",17092,"78/paray-douaville/saint-pierre"
14945,"Prunay-en-Yvelines (Saint Pierre et Saint Paul)","FR","PRUNAY EN YVELINES",,"78660","","2018-04-07 11:25:05","2018-04-07 11:25:05","https://lh3.googleusercontent.com/TGU6WX-x7g-seft-CpLhkxLDUUPhUZ-qQsYralXZd9B-lE_lDCegvWsG51yLjSwblSXwgcrbqDF2TzVkde_MLmA=s85",,48.5269651,1.7960195,,"eglise","",17092,"78/prunay-en-yvelines/saint-pierre-et-saint-paul"
14946,"Prunay-en-Yvelines-Craches (Notre Dame de la Crèche)","FR","CRACHES",,"78660","","2018-04-07 11:25:05","2018-04-07 11:25:05","https://lh3.googleusercontent.com/3Y1KLdyXpFHAT3_83MiXdnlgsUi6sre2zjgZN9RHBgYH9ZQjNVInrIM0PsMS9-QBt1ulZaxQMzowQLGzQJZbaQA=s85",,48.5570852,1.8118037,,"eglise","",17092,"78/craches/notre-dame-de-la-creche"
14947,"Saint-Martin-de-Bréthencourt (Saint Martin)","FR","SAINT MARTIN DE BRETHENCOURT",,"78660","","2018-04-07 11:25:05","2018-04-07 11:25:05","https://lh3.googleusercontent.com/55-MyHas-oqIslBnFvlcRp3PAHUQWBNnw7iudhDAdFq3R9rJpkbnctV7tugHLyPvkhuKN0KxoyiYQM9xTA_oTvA=s85",,48.5097252,1.9270288,,"eglise","",17092,"78/saint-martin-de-brethencourt/saint-pierre-saint-paul"
14948,"Sonchamp (Saint Georges)","FR","SONCHAMP",,"78120","","2018-04-07 11:25:05","2018-04-07 11:25:05","https://lh3.googleusercontent.com/a68NraRRWhsVQLuBnY89GIBi429v86TpjOxop6z5o3BcIzr7d4OckdT2qEGn4IN_KVF0A1j3elR9q0TFE9H9jh8=s85",,48.575034,1.8793874,,"eglise","",17092,"78/sonchamp/saint-georges"
14949,"Centre Jean XXIII","FR","ACHERES",,"78260","24 bis, rue Deschamps-Guérin","2018-04-07 11:25:05","2018-04-07 11:25:05","https://lh4.ggpht.com/-dR-hXHoiIs-KP2nvLfhllCR_f2fM4ixY2ndn_-CMlxeIXpqUmDEsvjnh2KITJ5vYovqHCViq8JPBjoy-QF2TTvnoPXoTTocuKGoLfumOQ=s85",,48.9591741,2.0713713,,"chapelle","",17093,"78/acheres/chapelle-jean-xxiii"
14950,"église Saint-Martin","FR","ACHERES",,"78260","8, avenue de Stalingrad","2018-04-07 11:25:05","2018-04-07 11:25:05","https://lh3.googleusercontent.com/V99dtuTrjwBFquPJy6cdtIJD7--3XlTWnqwhzb9MHwgY2SqeXcPuARr8cGZMidPOIHKbtWMYzYgaVQj6o-K9cA=s85",,48.9604725,2.0685921,,"eglise","",17093,"78/acheres/saint-martin"
14951,"Eglise St Ouen ","FR","AUBERGENVILLE",,"78410","4 rue Gaston-Jouillerat","2018-04-07 11:25:05","2018-04-07 11:25:05","https://lh3.googleusercontent.com/LVe7SjRca36Bs261QB-2wa_khc2sV7yvRgym7Tm2f3qnP1MFrKutLE4QRzaSLlVN4QSm2pt6dNivW13oLYaa_Q=s85",,48.9593291,1.8552572,,"eglise","",17094,"78/aubergenville/saint-ouen"
14952,"Nativité de la Très Sainte Vierge","FR","La Falaise",,"78410","","2018-04-07 11:25:05","2018-04-07 11:25:05","https://lh3.googleusercontent.com/MNowwxq6zLSUTw8ag7yk-6OL6kojBZ3mK7C6swF5qUGsNGJPmmYnbovU2ra3XE-UaC0M66erEYwJpMjaTjVYdg=s85",,48.944315,1.831813,,"eglise","",17094,"78/la-falaise/nativite"
14953,"Saint Béat","FR","EPONE",,"78680","1 rue des Sous-Boutillettes","2018-04-07 11:25:05","2018-04-07 11:25:05","https://lh3.googleusercontent.com/LplUBjhXYQDpOyNDaiJdI5PM-FSd3K40e8xWoEMPH8l7Wyw4yrZH8Jl0klrjeol-wqZJ9fzrICA42--wi4_qBenT=s85",,48.9560527,1.812496,,"eglise","",17094,"78/epone/saint-beat"
14954,"Saint Blaise","FR","NEZEL",,"78410","","2018-04-07 11:25:05","2018-04-07 11:25:05","https://lh3.googleusercontent.com/whdEKb4JdUbMrp2q9Zhdv7k-YbJi2Mf5GTAs5D8mKW9Yz1JLa_WVd5EtwVQs9f_2CUW45Eu5m17wLaFxwRbaWmM=s85",,48.942757,1.839768,,"eglise","",17094,"78/nezel/saint-blaise"
14955,"Saint Cloud","FR","FLINS SUR SEINE",,"78410","15 rue de l'église","2018-04-07 11:25:05","2018-04-07 11:25:05","https://lh3.googleusercontent.com/SbZ5SpYbL5LJgvcQn4lpbhkJQ5zPivAigwG67-OEbhEk4NYx038mMEufDXw4tqxiG7j2L71NAU4kk-y7X0ueKB8=s85",,48.9659036,1.8956743,,"eglise","",17094,"78/flins-sur-seine/saint-cloud"
14956,"Saint Denis","FR","CHAPET",,"78130","","2018-04-07 11:25:05","2018-04-07 11:25:05","https://lh3.googleusercontent.com/y92Z3xR7w2Gj15nwT2BkcIb2KlSg9KOJmaYGh6IAIXPBpOVLLChrTCVZYWfl7B3RseqDO4nZonl3ZrptPJVYDQ=s85",,48.967085,1.933828,,"eglise","",17094,"78/chapet/saint-denis"
14957,"Saint Martin","FR","BOUAFLE",,"78410","","2018-04-07 11:25:05","2018-04-07 11:25:05","https://lh3.googleusercontent.com/Q6ZF6FbzD_GlljoQ8A1o28TJaQuw4IjWrdXdY_8HHF6qAUzrOmZOdeoZ0YIOL7SpYcBW1F9mQGA3I9urwiM2ktQ=s85",,48.968665,1.901421,,"eglise","",17094,"78/bouafle/saint-martin"
14958,"Saint Martin","FR","ECQUEVILLY",,"78920","Rue de l'église","2018-04-07 11:25:05","2018-04-07 11:25:05","https://lh3.googleusercontent.com/OaF7NlY0Nqfgef6CKrfKakfeUmIBCv6Q2kAmyWTQCJ0g_FQ0GsTqFzlUjR1b6z42s6Q98Z4VxaFKMoylMwodSGI=s85",,48.965979,1.895924,,"eglise","",17094,"78/ecquevilly/saint-martin"
14959,"Saint Nicolas","FR","MEZIERES SUR SEINE",,"78970","","2018-04-07 11:25:05","2018-04-07 11:25:05","https://lh3.googleusercontent.com/uIQzVoun4SkOgotCpuK8TukmOzJZAwB04dXxWQANZK4Bta8BInPy59zHvG8vHUAUjMg1TJ9oc_Iw-OP2-F3stZQ=s85",,48.954992,1.803215,,"eglise","",17094,"78/mezieres-sur-seine/saint-nicolas"
14960,"Sainte Thérèse d'Elisabethville","FR","AUBERGENVILLE",,"78410","Place Louvain","2018-04-07 11:25:05","2018-04-07 11:25:05","https://lh3.googleusercontent.com/god4X6B4u11FUuOcEs-s2AsoXB-99TKjH3TQzHDN9gLZKFn586_TnfZAiaYViSDHsjLFeBf72bD3g7ZUHBvTU9M=s85",,48.9764719,1.8439433,,"eglise","",17094,"78/aubergenville/sainte-therese-d-elisabethville"
14961,"Chapelle Fluviale","FR","CONFLANS SAINTE HONORINE",,"78700","Quai de la République. B.P.28","2018-04-07 11:25:05","2018-04-07 11:25:05","https://lh3.googleusercontent.com/Ysu7fQQZcF0KiAbIIOrmPmES4VZ6yaCW3CtbxGHCKA3aIJsT-FwL1L3UOxcUTLbrwXe7V2sb2CZlwaT9ZRTS5g=s85",,48.9905675,2.086715,,"chapelle","",17095,"78/conflans-sainte-honorine/chapelle-fluviale"
14962,"Saint Lubin","FR","NOISY LE ROI",,"78590","4 rue du Chanoine-Zeller","2018-04-07 11:25:05","2018-04-07 11:25:05","https://lh3.googleusercontent.com/gnJo4c-XqHLOh7Pvf2nTfgUc_4wCFnaSIEgjjEdBRoeUCj_ioDbt8lty0hjODBrUHc2c0GoyHE37R81uB2oIG_w=s85",,48.8449111,2.0651605,,"eglise","",17096,"78/noisy-le-roi/saint-lubin"
14963,"Saint Sulpice","FR","BAILLY",,"78870","6 Grande-Rue","2018-04-07 11:25:05","2018-04-07 11:25:05","https://lh3.googleusercontent.com/afoYWjRkDdS2W-S9W_Xk3iPSOv4BJ7txQay2TqPblpgJI17xFffx7aeAGPqBwiw0BNlwdmhEW4-4D1Fgqfkw_ww=s85",,48.8426403,2.0796274,,"eglise","",17096,"78/bailly/saint-sulpice"
14965,"Crypte de l'église Saint-Gilles","FR","BOIS D'ARCY",,"78390","3 place de l'Eglise","2018-04-07 11:25:05","2018-04-07 11:25:05","https://lh3.googleusercontent.com/rrTUsboYZ1VvPoSce9CdREEl5qBk6FEd88nZIOEWUZlPS9qBpDz0_M29JIclIpjUvCWqdoDiSefL_jSwizXSBg=s85",,48.802251,2.018614,,"église","",17097,"78/bois-d-arcy/chapelle-sainte-genevieve"
14966,"Assomption de la Très Sainte Vierge (Jeufosse)","FR","JEUFOSSE",,"78270","Notre Dame de la Mer, Le Belvédère","2018-04-07 11:25:06","2018-04-07 11:25:06","https://lh3.googleusercontent.com/fyCgnVK8xvGlteA-3hYcIIz9fSFDogs6-hu4jZE-VMzfyU9dJ4tUHvYi_RgjdYGQUiRUYrVs-KPbbvyGX6YItR8-=s85",,49.043931,1.528174,,"eglise","",17098,"78/jeufosse/assomption-de-la-tres-sainte-vierge"
14967,"Le Prieuré de Béthanie (Blaru)","FR","BLARU",,"78270","","2018-04-07 11:25:06","2018-04-07 11:25:06","https://lh3.googleusercontent.com/CLr_fajAJjql0NZ7coMr0eV_sv5d1KdrnixASfwCemfG4dmgLL1qLoQSEfYfwcpQ75TB3SpNugPzbPQJnvP_GtE=s85",,49.0483644,1.4783578,,"eglise","",17098,"78/blaru/le-prieure-de-bethanie"
14968,"Nativité (Cravent)","FR","CRAVENT",,"78270","","2018-04-07 11:25:06","2018-04-07 11:25:06","https://lh3.googleusercontent.com/aTtkVCOuGoEKgqpgIWlf0KJ4MaIvdYGnMVdaTdfJc-THkxk1Nw4BWkmMv8jwIFtKKaJkdsmR4QMmzGNbrVqbrqQ3=s85",,48.9907889,1.4904782,,"eglise","",17098,"78/cravent/nativite"
14969,"Nativité (Méricourt)","FR","MERICOURT",,"78270","","2018-04-07 11:25:06","2018-04-07 11:25:06","https://lh3.googleusercontent.com/j7O4ej8vE9aTmJqtDtw5Y6uYIA3gstrb6Al7g3x4N5EvPrnfMl63BqwsC7Av4Hb1-Uyl6KcbU6V2wtC46zKw2B0=s85",,49.0365682,1.6289688,,"eglise","",17098,"78/mericourt/nativite"
14970,"Nativité de la Très Sainte Vierge (Bonnières sur Seine)","FR","BONNIERES SUR SEINE",,"78270","43 rue Georges Herrewyn","2018-04-07 11:25:06","2018-04-07 11:25:06","https://lh3.googleusercontent.com/LTP2YGeNVQcu_rVf7_Vj2ZUNq-_aoSz7arwqs7jIqELHtfdx9XPgBpkMSKEkCpB57WJVRhsdSIKGGX-UIVVthLRX=s85",,49.037687,1.5810774,,"eglise","",17098,"78/bonnieres-sur-seine/nativite-de-la-tres-sainte-vierge"
14971,"Saint Crépin et Saint Crépinien (Gommecourt)","FR","GOMMECOURT",,"78270","","2018-04-07 11:25:06","2018-04-07 11:25:06","https://lh3.googleusercontent.com/f25za5ZCsJWMy1EbMmXlKuNSltsa4SsLI-ryJJr6cbixcBw2igeDgBv68UfnAhSoLVwCWTAguTivVjopBBApWVb4=s85",,49.0772169,1.5926034,,"eglise","",17098,"78/gommecourt/saint-crepin-et-saint-crepinien"
14972,"Saint Hilaire (Blaru)","FR","BLARU",,"78270","","2018-04-07 11:25:06","2018-04-07 11:25:06","https://lh3.googleusercontent.com/cxyrSsknpfa3JZSh_YGlQH4SgzByzpnME8h6mx0Wx7OlMXaCtXTi6vsLvOTUY6P3SNsXLW2OqaQylZP04MciMPc=s85",,49.0483644,1.4783578,,"eglise","",17098,"78/blaru/saint-hilaire"
14973,"Saint Jean Baptiste (Rosny sur Seine)","FR","ROSNY SUR SEINE",,"78710","2 rue Jean Lhomer","2018-04-07 11:25:06","2018-04-07 11:25:06","https://lh3.googleusercontent.com/vqR15mjOEFZFRdW7maA6qyzak3w6QXp4n2Z-2FORUpCbq_vIhfqTCnWbVvvaswM5DiLNnoNe-PHGahWFdifTS82s=s85",,48.9981227,1.6303114,,"eglise","",17098,"78/rosny-sur-seine/saint-jean-baptiste"
14974,"Saint Léger (Lommoye)","FR","LOMMOYE",,"78270","","2018-04-07 11:25:06","2018-04-07 11:25:06","https://lh3.googleusercontent.com/6_N8y0LHvlzlrG4JDWp-2IhxcaWQEkr4WyargvEY9lDSPw7pPA_q7Ab9my7uw_-Ip6L8aLIbeiSSwiNhgyfhyfM=s85",,48.9935868,1.5142988,,"eglise","",17098,"78/lommoye/saint-leger"
14975,"Saint Léger (Moisson)","FR","MOISSON",,"78840","","2018-04-07 11:25:06","2018-04-07 11:25:06","https://lh3.googleusercontent.com/uRTaya5U58POmfddhMZGKRKVnnLfRNzZh1SQ8C-MZu-VrifhFExsGvevmJxMSH_LN3wpJHktfY0NsdJk2_rGOg=s85",,49.0731969,1.6698257,,"eglise","",17098,"78/moisson/saint-leger"
14976,"Saint Léger (Mousseaux)","FR","MOUSSEAUX SUR SEINE",,"78270","","2018-04-07 11:25:06","2018-04-07 11:25:06","https://lh3.googleusercontent.com/EK3NqVBVdPj_Ksla1H1XfhRhdg4uB-Si9SGY0N-4sx_JkZBLxg6rP5-WWTeSM5Z_Q3_xzflf1FZ9JsQhDmdiFIY=s85",,49.0441484,1.6505627,,"eglise","",17098,"78/mousseaux-sur-seine/saint-leger"
14977,"Saint Martin (Freneuse)","FR","FRENEUSE",,"78840","","2018-04-07 11:25:06","2018-04-07 11:25:06","https://lh3.googleusercontent.com/rvlh63VGQxYNzX5Uq2EKXrfJagMG29uYKnOECh-oro8t7yDnIvzpo275Af0xLBEdq-i_sxScrhybuOMxv9kQ-w=s85",,49.046596,1.6034619,,"eglise","",17098,"78/freneuse/saint-martin"
14978,"Saint Martin (Perdreauville)","FR","PERDREAUVILLE",,"78200","","2018-04-07 11:25:06","2018-04-07 11:25:06","https://lh3.googleusercontent.com/yG305bvur8xITNJXcYM0q9SZgjUWjyJatKLkpQgYqhChg4rsUdLzXWoY9nSZN4nCM19lu6M_pYW6D1vSlQOpB2OH=s85",,48.9647251,1.6299277,,"eglise","",17098,"78/perdreauville/saint-martin"
14979,"Saint Michel (Rolleboise )","FR","ROLLEBOISE",,"78270","Rue Maximilien Luce","2018-04-07 11:25:06","2018-04-07 11:25:06","https://lh3.googleusercontent.com/l4JDn8JWBp1sHa8MG3cVFomyEbD5_mjwYhbLQ7J2K4Fxd3nRpyaYJcHcpbViv4AcUU085dKYdVecXXSlzU4yFg=s85",,49.0184625,1.6098663,,"eglise","",17098,"78/rolleboise/saint-michel"
14980,"Saint Nicolas (Fontenay Mauvoisin)","FR","FONTENAY MAUVOISIN",,"78200","","2018-04-07 11:25:06","2018-04-07 11:25:06","https://lh3.googleusercontent.com/3qvrJAyjXjLvc7OGVRIXWRv0Ah1EoUjSWWcGO1_210HdCmYmd2srdNgdfJP5ePgyzxDiLXnYrEdfpaiaWe1mzhw=s85",,48.9653847,1.6526821,,"eglise","",17098,"78/fontenay-mauvoisin/saint-nicolas"
14981,"Saint Nicolas (La Villeneuve en Chevrie)","FR","LA VILLENEUVE EN CHEVRIE",,"78270","","2018-04-07 11:25:06","2018-04-07 11:25:06","https://lh3.googleusercontent.com/0IlOtSIDVo0qlLrxA3CzjSTgFUiR8guwUfJ_IhlwCfyGejXuOTsB86ESrpW6kzQfOx17739TGnCAIcRI6O-S76k=s85",,49.0147827,1.5281236,,"eglise","",17098,"78/la-villeneuve-en-chevrie/saint-nicolas"
14982,"Saint Ouen (Bennecourt)","FR","BENNECOURT",,"78270","","2018-04-07 11:25:06","2018-04-07 11:25:06","https://lh3.googleusercontent.com/_9WZkHtGZ0DYLf9nN0s6YtFWUkO0xh9Elp6_voBVKDPcCmmnTtlVGIOfDW5EX9fVoOlQhehLpAyXIQIATeabCF8=s85",,49.0399417,1.5633376,,"eglise","",17098,"78/bennecourt/saint-ouen"
14983,"Saint Pierre (Port Villez)","FR","PORT VILLEZ",,"78270","","2018-04-07 11:25:06","2018-04-07 11:25:06","https://lh3.googleusercontent.com/VFNwBocek2AhpW_B5j7hNA4xBRHm3NVdGWOxlpCDTDms_Jzr1e0g_P4yKpu-Xk49fOOiPsRPdw1aj7_9q3SIDBo=s85",,49.0614773,1.5237425,,"eglise","",17098,"78/port-villez/saint-pierre"
14984,"Saint Sulpice (Limetz Villez)","FR","LIMETZ VILLEZ",,"78270","","2018-04-07 11:25:06","2018-04-07 11:25:06","https://lh3.googleusercontent.com/bYL1PzgQo4o3GUA4VzOHw8Utg4rXcEMSHkWvCACz5E_XOR7iQUPSl6aalvvotc01W7uleKa_XEo4NjKzvWW9WSU=s85",,49.0613467,1.5495017,,"eglise","",17098,"78/limetz-villez/saint-sulpice"
14985,"Sainte Foi (Jouy Mauvoisin)","FR","JOUY MAUVOISIN",,"78200","","2018-04-07 11:25:06","2018-04-07 11:25:06","https://lh3.googleusercontent.com/ekyEZg2BG6_bOfpfARL-NkrpIcUSbm-JOckmXd2Q4Cx1UzzmqNHu7vXTnWPI6OCQMvbUwdlOXrIJBErqecoq5Ktu=s85",,48.9748832,1.6491115,,"eglise","",17098,"78/jouy-mauvoisin/sainte-foi"
14986,"Transfiguration de Notre Seigneur (Chaufour les Bonnières)","FR","CHAUFOUR LES BONNIERES",,"78270","","2018-04-07 11:25:06","2018-04-07 11:25:06","https://lh3.googleusercontent.com/kxRXUdcq1lOwb6KF7bDvYObS5GO0hNUHKbOLr7FBEirNu3egf3hctQbgW1t6KgtuXcg00SZoXejAPL1dThb9Ug=s85",,49.0160463,1.4834369,,"eglise","",17098,"78/chaufour-les-bonnieres/transfiguration-de-notre-seigneur"
14987,"Assomption de la Très Sainte Vierge","FR","BOUGIVAL",,"78380","1 rue Croix aux Vents","2018-04-07 11:25:06","2018-04-07 11:25:06","https://lh3.googleusercontent.com/6eVZRF4sPPGkhDPeAUytVMw8h9ZRzNPqW1UIVTAL-xWlKSjX9aOJj3zKR6W-cvvcVKY4dnNCOi8W7Rp9LX9PI4k-=s85",,48.8635675,2.1392359,,"eglise","",17099,"78/bougival/assomption-de-la-tres-sainte-vierge"
14988,"Assomption de la Très Sainte Vierge","FR","BREVAL",,"78980","Presbytère : 4 rue de la Sergenterie","2018-04-07 11:25:06","2018-04-07 11:25:06","https://lh3.googleusercontent.com/ImU312I_2YCjdPF1RLy9wHLEWk-0mtI7mZiTRF3ogR3DS33GaBtEEv9H_WRiM6l_QSIv8jEHGtd24jgaCgezj_k=s85",,48.9470484,1.5326141,,"eglise","",17100,"78/breval/assomption-de-la-tres-sainte-vierge"
14989,"Nativité","FR","TILLY",,"78790","Presbytère à BREVAL, 4 rue de la Sergenterie","2018-04-07 11:25:06","2018-04-07 11:25:06","https://lh3.googleusercontent.com/hIbncQRyif2GkT44TjWUB03Ap4wgF8wDdnpWoNM7oFOCCqbrTdxp36HD8FlamVBCG-Hva2Tg3qJaklfCAXX34OsS=s85",,48.882063,1.5760086,,"eglise","",17100,"78/tilly/nativite"
14990,"Nativité","FR","FAVRIEUX",,"78200","Presbytère à BREVAL, 4 rue de la Sergenterie","2018-04-07 11:25:06","2018-04-07 11:25:06","https://lh3.googleusercontent.com/ZM7fPJ05I5bmITgnRwWh0nsSTF8Mh7i1QvNX5uO5kn38AxjLx0QAggU5DUmhHAgNcFp0Se95RLlWrnX9JGKW1Q=s85",,48.9430606,1.6416785,,"eglise","",17100,"78/favrieux/nativite"
14991,"Saint Christophe","FR","MONDREVILLE",,"78980","Presbytère à BREVAL, 4 rue de la Sergenterie","2018-04-07 11:25:06","2018-04-07 11:25:06","https://lh3.googleusercontent.com/PqQy-dDhtuuQefwEQfFYL49b0bKmio55IPdTy_d29es_f1w0foDYw_coHrch_r_spJudWRk5dGipwvC_mdH3Z7A=s85",,48.9029015,1.5523908,,"eglise","",17100,"78/mondreville/saint-christophe"
14992,"Saint Clair","FR","FLACOURT",,"78200","Presbytère à BREVAL, 4 rue de la Sergenterie","2018-04-07 11:25:06","2018-04-07 11:25:06","https://lh3.googleusercontent.com/F6L-dME1rofaVSClLxIOMnz-4_LdwWh5QNEtFOVpvY1RS0kPY-0OZhWh3eOhtFT9DunuVHhgUDpPqQJrhol_LWj9=s85",,48.9278966,1.6466654,,"eglise","",17100,"78/flacourt/saint-clair"
14993,"Saint Clément Saint Jean Baptiste","FR","BOINVILLIERS",,"78200","Presbytère à BREVAL, 4 rue de la Sergenterie","2018-04-07 11:25:06","2018-04-07 11:25:06","https://lh3.googleusercontent.com/2e0VIw1kzFgmTT2pC43JZWou1sEGo37epX76K43Mw9Tyckv2ZZfG3QFcPhD0FJCt07ycFxJahM2UHybe04dqnA=s85",,48.9178676,1.6611499,,"eglise","",17100,"78/boinvilliers/saint-clement-saint-jean-baptiste"
14994,"Saint Denis","FR","FLINS NEUVE EGLISE",,"78790","Presbytère à BREVAL, 4 rue de la Sergenterie","2018-04-07 11:25:06","2018-04-07 11:25:06","https://lh3.googleusercontent.com/uRM104XS9eA5H8ET4nkNweyjxUDZEcAEu7rdhdZtbV1myyp3x21EJFce9ov_MkgIUYe2bVRMO7ti3W5lRIj3sQo=s85",,48.8908353,1.5783367,,"eglise","",17100,"78/flins-neuve-eglise/saint-denis"
14995,"Saint Hilaire","FR","BOISSETS",,"78910","Presbytère à BREVAL, 4 rue de la Sergenterie","2018-04-07 11:25:06","2018-04-07 11:25:06","https://lh3.googleusercontent.com/vvaERoQ5hdxaCWMpXF2rf94yhbHwWU-fx2xcO72p7ZdgrtfOr76o6tsAqTQqEtCp7-SqBnCUOPglFoSqcLo7T3A=s85",,48.8623058,1.5795651,,"eglise","",17100,"78/boissets/saint-hilaire"
14996,"Saint Illiers","FR","SAINT ILLIERS LA VILLE",,"78980","Presbytère à BREVAL, 4 rue de la Sergenterie","2018-04-07 11:25:06","2018-04-07 11:25:06","https://lh3.googleusercontent.com/O6__LxHtBDeGPWxZQ-NDuRRbYnRNbiulk-5xIzecLaTNoki4QrwYCXBcuHhKzKORNZ8MIXk_r3YKr4vz0Jl8OtM=s85",,48.9766585,1.5400764,,"eglise","",17100,"78/saint-illiers-la-ville/saint-illiers"
14997,"Saint Laurent","FR","LE TERTRE SAINT DENIS",,"78980","Presbytère à BREVAL, 4 rue de la Sergenterie","2018-04-07 11:25:06","2018-04-07 11:25:06","https://lh3.googleusercontent.com/rpl1vcYibCzeq8BckA716oXoKtbTNThdrPpmK5Txu3g4OBT0PQLyNpMgGef_TnnNCzjv21j_1E873PSi2qo-SA=s85",,48.9380984,1.6062429,,"eglise","",17100,"78/le-tertre-saint-denis/saint-laurent"
14998,"Saint Martin","FR","DAMMARTIN EN SERVE",,"78111","","2018-04-07 11:25:06","2018-04-07 11:25:06","https://lh3.googleusercontent.com/YxuIDF5KiI3bct7DNJBZ5wXqw13MY6RSmNwl1V0fOLHvxLEKx_Qp8BU9NfTLEa9epfPkk9R6TGkhonuP2ZH6usUD=s85",,48.9140134,1.6172552,,"eglise","",17100,"78/dammartin-en-serve/saint-martin"
14999,"Saint Pierre","FR","LONGNES",,"78980","isis","2018-04-07 11:25:06","2018-04-07 11:25:06","https://lh3.googleusercontent.com/0UzKC32iJhTrfeqm_F6r2ET1G6KAiG7NBcx7gLAYItzV1ZY5X8FWiTgSwFuR8uM5slVLfRlkmMCKdyfceRe2JUD7=s85",,48.9218119,1.5871339,,"eglise","",17100,"78/longnes/saint-pierre"
15000,"Saint Pierre","FR","BOISSY MAUVOISIN",,"78200","Presbytère à BREVAL, 4 rue de la Sergenterie","2018-04-07 11:25:06","2018-04-07 11:25:06","https://lh3.googleusercontent.com/LlSjF-hCkcuYmu07HSBod79wSSRuGMpkbulgSRXA71k25hfUOE8Xwz8QuSWldUpPIST843CPKJAaxHjemt5TGR8=s85",,48.9640854,1.5796152,,"eglise","",17100,"78/boissy-mauvoisin/saint-pierre"
15001,"Sainte Marie Madeleine","FR","MONTCHAUVET",,"78790","Presbytère à BREVAL, 4 rue de la Sergenterie","2018-04-07 11:25:06","2018-04-07 11:25:06","https://lh3.googleusercontent.com/7BlruFXTS_s3VX1DppZguBIMLXcMB_sWcu4205d2IolLy2V8FDEUSZdlGMgyU-xJxQ0yBRp1gIG-DHnHuLc5ArM=s85",,48.8921698,1.63104,,"eglise","",17100,"78/montchauvet/sainte-marie-madeleine"
15002,"Sainte Trinite","FR","SAINT ILLIERS LE BOIS",,"78980","Presbytère à BREVAL, 4 rue de la Sergenterie","2018-04-07 11:25:06","2018-04-07 11:25:06","https://lh3.googleusercontent.com/t5y6XgmMpl-ywiWw-gycHWRg3-j87s3i2yqR3bUArOzQ0tu5yUxF6YmPUBpsB3kze8hynqY1VjRlDmDSfgmV2g=s85",,48.9616914,1.5036495,,"eglise","",17100,"78/saint-illiers-le-bois/sainte-trinite"
15003,"Relais paroissial","FR","CHANTELOUP LES VIGNES",,"78570","20 avenue de Poissy","2018-04-07 11:25:06","2018-04-07 11:25:06","https://lh3.googleusercontent.com/i6XZm7p730Co9yyRCpEeCvNoE9Ti0vPGyVotpe0b9qipfaB0fxyrywh_r9CkruJ4PKEGtolrRZOgLcSYGwri7g=s85",,48.97285803,2.03202009,,"eglise","",17101,"78/chanteloup-les-vignes/relais-paroissial"
15004,"Saint Joseph","FR","CARRIERES SOUS POISSY",,"78955","557,Grande-Rue","2018-04-07 11:25:06","2018-04-07 11:25:06","https://lh3.googleusercontent.com/1FUVO1_RQxW7fGurP5VBgBwbAFW_9areWsAPmw_eO51HPyuB6quTPRlaJ9z5YUMwgNJ7lttK5-1-_F-Siu36WqW4=s85",,48.94826278,2.0405817,,"eglise","",17101,"78/carrieres-sous-poissy/saint-joseph"
15005,"Saint Louis","FR","CARRIERES SOUS POISSY",,"78955","rue des Ecoles","2018-04-07 11:25:06","2018-04-07 11:25:06","https://lh3.googleusercontent.com/vYQMGMeijK40eHAPm_KU2rI77607qVWSP7ci6a-DEJ6auT64YOtdjpBmtufSN_ojLqzpLlkn5PQ231jJjo2TkMg=s85",,48.93923596,2.01746643,,"eglise","",17101,"78/carrieres-sous-poissy/saint-louis"
15006,"Saint Roch","FR","CHANTELOUP LES VIGNES",,"78570","5, rue de Triel","2018-04-07 11:25:06","2018-04-07 11:25:06","https://lh3.googleusercontent.com/mw8HjdcUqXstHJsPyRP1lqVAn1JPbFbD13KOYF3slDT_tDrNKRWF2LpT9MzusFtviDBg1bSuH20gE26iaSU5y04=s85",,48.97875936,2.03055024,,"eglise","",17101,"78/chanteloup-les-vignes/saint-roch"
15007,"Sainte Clotilde (Chambourcy - Aigremont)","FR","CHAMBOURCY",,"78240","36 Grande Rue","2018-04-07 11:25:06","2018-04-07 11:25:06","https://lh3.googleusercontent.com/yBj5HxzMbNrdH_W2jrRinIwfiMSxBEqPUSCXL43_vEjTPojhltBIxfwyvBB-9J1FCUt_A77E41S4qvofOURO6ro=s85",,48.9055617,2.0395872,,"eglise","",17102,"78/chambourcy/sainte-clotilde"
15008,"Chapelle des Franciscaines","FR","Saint-Germain-en-Laye ",,"78100","89 av. du Maréchal Foch","2018-04-07 11:25:06","2018-04-07 11:25:06","https://lh3.googleusercontent.com/FSLl3npNM34zdJ36_Cxju3Aq5AqS05eWzY1rQxcNJ6odCOLe_kacups_4eezg4SzNqr6H4o5qHKuIgrQOtNU9w=s85",,48.901889,2.085333,,"chapelle","",17103,"78/saint-germain-en-laye/chapelle-des-franciscaines"
15009,"Église Saint-Louis","FR","LE PORT MARLY",,"78560","42 Route de Versailles","2018-04-07 11:25:06","2018-04-07 11:25:06","https://lh3.googleusercontent.com/mBd3TvIrsh01FfZ6LIvdaaXuB-2XMJyVqBZaWK7P7x1AIkjtmhOVa0WU6OZt3MYi_q5J2VuxHH9suGH1dWlnqQ=s85",,48.8777268,2.1066266,,"église","",17103,"78/le-port-marly/eglise-saint-louis"
15010,"Maison Saint François de Sales","FR","Marly-le-Roi ",,"78160","47 ter avenue de l’abreuvoir","2018-04-07 11:25:06","2018-04-07 11:25:06","",,48.8720816,2.101576,,"chapelle","",17103,"78/marly-le-roi/maison-saint-francois-de-sales"
15011,"Chapelle Saint Jean","FR","CHATOU",,"78400","208 rue des Landes","2018-04-07 11:25:07","2018-04-07 11:25:07","https://lh3.googleusercontent.com/IHRnmTnf8nPzqrzRZjS1phtCIVPVjDXJLmWtxrV3EUbS8qAIHeEwiy6UHxr1De_MWlYV3VHLT7d23mCSOnU5jMc=s85",,48.902032,2.1410619,,"chapelle","",17104,"78/chatou/chapelle-saint-jean"
15012,"Notre Dame de l'Assomption","FR","CHATOU",,"78400","4 Place Sainte-Marie","2018-04-07 11:25:07","2018-04-07 11:25:07","https://lh3.googleusercontent.com/MwPXrgHaRQsM0AdOmTO-ovE5PRRYbec3hf8cKKPvAewLZn8DwfkqIcP5ua-ntiMRLTHRur6P8PsKjSYI4vdHe0w=s85",,48.8894673,2.1595286,,"eglise","",17104,"78/chatou/notre-dame"
15013,"Sainte Thérèse de l'Enfant Jésus","FR","CHATOU",,"78400","38 Route de Maisons","2018-04-07 11:25:07","2018-04-07 11:25:07","https://lh3.googleusercontent.com/VMAM9o1jbvcPZKNaLxJj25WQ2BcY80ytlnGkXj7H50hHV0fNqB8oIEBP-iDGLT0cToe5XFplHhAgubbYZSAJ4_GJ=s85",,48.8983663,2.15452,,"eglise","",17104,"78/chatou/sainte-therese"
15014,"Nativité de la Très Sainte Vierge","FR","MAURECOURT",,"78780","10 rue Charles Lehmann","2018-04-07 11:25:07","2018-04-07 11:25:07","https://lh3.googleusercontent.com/1gzXDOUvysrfsLGlWh3qUxvEkWZPDefpUTF1ggruJ7ZI7DXEy1V6qHtxSoYcW-qgISeBLG1o6kN7WDUS98iiPO0=s85",,48.9957676,2.0614168,,"eglise","",17105,"78/maurecourt/nativite"
15015,"Notre Dame de Lourdes","FR","CONFLANS SAINTE HONORINE",,"78700","17, rue de Pierrefitte","2018-04-07 11:25:07","2018-04-07 11:25:07","https://lh3.googleusercontent.com/FQXuV14sd2R7o_7je8Zex_Wp3jUMQGCZhgC9MXQjhh2Fzq7ULe96RDesESndqRN0ZsiaOaVLRuPpnHi33ti6-Q=s85",,48.9950592,2.0881129,,"eglise","",17105,"78/conflans-sainte-honorine/notre-dame-de-lourdes"
15016,"Saint Germain de Paris","FR","ANDRESY",,"78570","14 boulevard Noël Marc","2018-04-07 11:25:07","2018-04-07 11:25:07","https://lh3.googleusercontent.com/N-TdITe1hzqQLhyA6jaosxG3VDp6CBeuQFAqxDBz-Be1A7QCCQIWlI0F4YImJhErIMSMHiIJTAosU0MS079TvQ=s85",,48.9802746,2.059848,,"eglise","",17105,"78/andresy/saint-germain-de-paris"
15017,"Saint Jean Marie Vianney","FR","CONFLANS SAINTE HONORINE",,"78700","176 Boulevard du général De Gaulle","2018-04-07 11:25:07","2018-04-07 11:25:07","https://lh3.googleusercontent.com/CJe9Cd7uHo1qHnoiefJD_D18HG1SONCjyepm-zlu9w58E5ayE_aYp1FvIeQ172489dCnPz_Of6BU5vu8CFxkOt0=s85",,49.007045,2.1134703,,"eglise","",17105,"78/conflans-sainte-honorine/saint-jean-marie-vianney"
15018,"Saint Maclou","FR","CONFLANS SAINTE HONORINE",,"78700","8, place de l'Eglise","2018-04-07 11:25:07","2018-04-07 11:25:07","https://lh3.googleusercontent.com/TO_hp0B_AKLtAhWNW1AyYuWI0HrMuCdjbkL6XpDmHHgbRTc7XFJbtHh8yFNfYE1fqningIehk8Fuoc6uO9V_QZ8=s85",,48.9921612,2.0944237,,"eglise","",17105,"78/conflans-sainte-honorine/saint-maclou"
15019,"Saint Léonard","FR","CROISSY SUR SEINE",,"78290","15 rue Maréchal Foch","2018-04-07 11:25:07","2018-04-07 11:25:07","https://lh3.googleusercontent.com/iHUMn60tDyD8VsXwFp0VarxssvWIa3018pqN5T7cHVpK7igwSDzfAQ0UZ48kaoob0hbQ7ELlaV76Fyo_rJggv0kE=s85",,48.8788992,2.1460716,,"eglise","",17106,"78/croissy-sur-seine/saint-leonard"
15020,"Notre Dame","FR","MAUREPAS",,"78310","4 place du Livradois","2018-04-07 11:25:07","2018-04-07 11:25:07","https://lh3.googleusercontent.com/WrHCYpYM2DP1IAH29tZVgdAmMRujj0QzWrcR1c_cfSXs94_ciAtRG7vkzCpBLSUdeWcsvUlnmEx79CCED8AHxxc=s85",,48.7614103,1.9420993,,"eglise","",17107,"78/maurepas/notre-dame"
15021,"Saint Germain d'Auxerre","FR","COIGNIERES",,"78310","3 place de la Mairie","2018-04-07 11:25:07","2018-04-07 11:25:07","https://lh3.googleusercontent.com/UANcul91lKU54lPbHOKQg7cUQ-C4VEU4ItkZmT_Hjq0--aanut7-TZx2wrt7QAgAMvqxkgYaz_9g40pQqKrQJz0=s85",,48.7473236,1.9180809,,"eglise","",17107,"78/coignieres/saint-germain-d-auxerre"
15022,"Saint Médard","FR","ELANCOURT",,"78990","Place de l'Eglise","2018-04-07 11:25:07","2018-04-07 11:25:07","https://lh3.googleusercontent.com/8cPaIpZePWQxQMHkjtJh1E3MrjGXgA-EIMWMAjyPTQgbNbdTyT_59nC0Re1vnK5ZcLlTJB92wT_siNwj9idJcJU=s85",,48.7832376,1.9591869,,"eglise","",17107,"78/elancourt/saint-medard"
15023,"Saint Pierre","FR","ELANCOURT",,"78990","2 rue de Prague","2018-04-07 11:25:07","2018-04-07 11:25:07","https://lh3.googleusercontent.com/dGuBlh7PMRnp2b3Jf2bK5K-aYfrkXshuuHWZ9Z6GzIwc0pWtAj7YEX-qcwt0EXFDC3_iBUg4Kj4uauamp63aVQ=s85",,48.794153,1.9683353,,"eglise","",17107,"78/elancourt/saint-pierre"
15024,"Saint Remy","FR","SAINT REMY L'HONORE",,"78690","","2018-04-07 11:25:07","2018-04-07 11:25:07","https://lh3.googleusercontent.com/UE0-vNhFanIRdChvzxnTMVREF8W6HZ6yOXi6TTXnEjTXo7aiZMuT2V0sgfhjfLvS_-24ulFZF13UrSocXOdAhg_z=s85",,48.7560741,1.8815538,,"eglise","",17107,"78/saint-remy-l-honore/saint-remy"
15025,"Saint Sauveur","FR","MAUREPAS",,"78310","rue de Villeneuve","2018-04-07 11:25:07","2018-04-07 11:25:07","https://lh3.googleusercontent.com/Si_7Kzk9RAPmM155VStpPPeQCuazSnxOOBuq0st4gPdJzlZPQ3j8LbMyx7xTWmceMQ_QR4iGMBdps4byPGIKGXU3=s85",,48.7741961,1.9184561,,"eglise","",17107,"78/maurepas/saint-sauveur"
15026,"Chapelle de l'Immaculée Conception","FR","VERSAILLES",,"78000","8 bis rue Monseigneur Gibier","2018-04-07 11:25:07","2018-04-07 11:25:07","https://lh3.googleusercontent.com/7TiLCKNybcJXuM0yUG2T36lzZF1ij8YVDBnUrN2w7Pip_F6qPaSVvT3I3-vRMOl2lZVNiVJ9wNX2dPU745G0KJey=s85",,48.7937147,2.122597,,"chapelle","",17108,"78/versailles/chapelle-de-l-immaculee-conception"
15027,"Saint Germain de Paris","FR","FONTENAY LE FLEURY",,"78330","5 rue Pierre Curie","2018-04-07 11:25:07","2018-04-07 11:25:07","https://upload.wikimedia.org/wikipedia/commons/thumb/1/19/Fontenay-le-Fleury_-_%C3%89glise_Saint-Germain-de-Paris_-_27.jpg/800px-Fontenay-le-Fleury_-_%C3%89glise_Saint-Germain-de-Paris_-_27.jpg",,48.8139614,2.04951427,,"eglise","",17109,"78/fontenay-le-fleury/saint-germain-de-paris"
15028,"EMANCE (Saint Remi et Sainte Radegonde)","FR","EMANCE",,"78125","rue de l'Eglise","2018-04-07 11:25:08","2018-04-07 11:25:08","https://lh3.googleusercontent.com/596sfFTUpZxJM5nNHM33eaQ0cvEVbyvtwhoW9Gp8TxPYPc8754X_qDF6fofrnnufFuofMjepiJC0EQfrTuHJQfk=s85",,48.5892167,1.731155,,"eglise","",17110,"78/emance/saint-remy"
15029,"GAZERAN (Saint Germain d'Auxerre)","FR","GAZERAN",,"78125","4, rue de l'Eglise","2018-04-07 11:25:08","2018-04-07 11:25:08","https://lh3.googleusercontent.com/yG_UZgq41FAV4fbIpC3XztRi0Vc2LkPagBFUF0Pkr3BCMwYacSZzS-_xTsvzZ5QFilatphgjftj-VSPoCjblVw=s85",,48.6342386,1.7741967,,"eglise","",17110,"78/gazeran/saint-germain-d-auxerre"
15030,"HERMERAY (Saint Germain d'Auxerre)","FR","HERMERAY",,"78125","rue de l'Eglise","2018-04-07 11:25:08","2018-04-07 11:25:08","https://lh3.googleusercontent.com/l-DzXREFQbcohc_V9IvnMTrvDEE12nS2M4tIzb5AQV6e-hXd5pAgQ3HwcCjBB6lPfnaEsukIrfwOka8Vtobuczne=s85",,48.6396279,1.6758546,,"eglise","",17110,"78/hermeray/saint-germain-d-auxerre"
15031,"LA BOISSIERE ECOLE (Saint Barthélemy)","FR","LA BOISSIERE ECOLE",,"78125","2 bis, Grande rue","2018-04-07 11:25:08","2018-04-07 11:25:08","https://lh3.googleusercontent.com/vC4AnEqMSbmiPIX-hvXjgK9w8HlKS-NxYYZiyB_t6-5s4JNbkq7LuvduUXp7JVjOtYAqAwCigUGvbK1bJpudaN0=s85",,48.7244127,1.6546001,,"eglise","",17110,"78/la-boissiere-ecole/saint-barthelemy"
15032,"MITTAINVILLE (Saint Rémy)","FR","MITTAINVILLE",,"78125","","2018-04-07 11:25:08","2018-04-07 11:25:08","https://lh3.googleusercontent.com/-ow1BJ9eJCptG_84uG3hW1LmFU68c-pXIQ_PlQCCcetFU-5Q7TvRuVhg-6JhCXvjuD46jMdcV3Uq3vHY6PvCxmfQ=s85",,48.6694752,1.6444053,,"eglise","",17110,"78/mittainville/saint-remy"
15033,"ORCEMONT (Saint Eutrope)","FR","ORCEMONT",,"78125","rue de l'Eglise","2018-04-07 11:25:08","2018-04-07 11:25:08","https://lh3.googleusercontent.com/aV4K4kNiomWsFfyUINm67PTQzAKzxBJlDiS6sGlRUIVxkFNNy9Dxl64bv8hcUd-u-w21mrApkoGhVOvXXxMuRQ=s85",,48.5878115,1.80875,,"eglise","",17110,"78/orcemont/saint-eutrope"
15034,"ORPHIN (Sainte Monégonde)","FR","ORPHIN",,"78125","","2018-04-07 11:25:08","2018-04-07 11:25:08","https://lh3.googleusercontent.com/HHZz6-StPDH9HdBp-PvKF8cZjqsB_LxuE-0QFCRmkGV1N1L2nKjPMqYpUdyy7AV1kHIf9lljfyN0KtWRRKXYOuvJ=s85",,48.5794252,1.7823477,,"eglise","",17110,"78/orphin/sainte-monegonde"
15035,"POIGNY LA FORET (Saint Pierre)","FR","POIGNY LA FORET",,"78125","route de Saint Léger","2018-04-07 11:25:08","2018-04-07 11:25:08","https://lh3.googleusercontent.com/i9sQshw51U9McVn3sLkvmKgZN3WMjUmXWaczqm79awto9EYWvJmDguguXo_qRnkbgoPBdyv6UQW4MhZ7M2Uuky0=s85",,48.6914447,1.7687786,,"eglise","",17110,"78/poigny-la-foret/saint-pierre"
15036,"RAIZEUX (Notre Dame de Bonne Nouvelle)","FR","RAIZEUX",,"78125","7, chemin de l'Eglise","2018-04-07 11:25:08","2018-04-07 11:25:08","https://lh3.googleusercontent.com/mJtxCfamac8DdkXoc_5BrYFblICdOXu9kOH5wpI8mo9dxzfu0DCr11D1y7zJjlRhdLYWN8e8wOQ2TWCWLjhnxNA=s85",,48.6252782,1.6844628,,"eglise","",17110,"78/raizeux/notre-dame-de-bonne-nouvelle"
15037,"SAINT HILARION (Saint Hilarion)","FR","SAINT HILARION",,"78125","5, rue de l'Eglise","2018-04-07 11:25:08","2018-04-07 11:25:08","https://lh3.googleusercontent.com/yK4FP4gZ5c8XvfFDwLmyQJPWcNPwuoiG3X_e2J8WEnrpYugFMIZBd3VxwlTnntKisEqI1YemcZhK4mFfy2ij5x4=s85",,48.6201124,1.7349252,,"eglise","",17110,"78/saint-hilarion/saint-hilarion"
15038,"Adainville (Saint Denis)","FR","ADAINVILLE",,"78113","","2018-04-07 11:25:08","2018-04-07 11:25:08","https://lh3.googleusercontent.com/6l3jViHxid6QkerRo6KyykvmoXDL61H1cMYjgArO668VmBoP6wyh3XE3TqEmofMBCD0gUg5JcqrJ8V7AifL9lBM=s85",,48.722747,1.652938,,"eglise","",17111,"78/adainville/saint-denis"
15039,"Bazainville (Saint Nicolas)","FR","BAZAINVILLE",,"78550","Place Saint Nicolas","2018-04-07 11:25:08","2018-04-07 11:25:08","https://lh3.googleusercontent.com/Ql2-tLy-NCqH9nV8jRsZo8GS5Q2hc8sKCA0HfFPnX7p_LviAFAZxJnNYBV-lD8hypxpLj4XJ-ZjGsk6cgFTVxdM=s85",,48.8035249,1.6685451,,"eglise","",17111,"78/bazainville/saint-nicolas"
15040,"Béhoust (Saint Hilaire)","FR","BÉHOUST",,"78910","Place du Village","2018-04-07 11:25:08","2018-04-07 11:25:08","https://lh3.googleusercontent.com/_2zqG0zzVPLdioj7go24Ujqna-OdeTlGjINhuFg30yP7IvL3-3l39pXsHuV406BPAEBqC8ghVbMnc5oxKe_5y9K8=s85",,48.8302943,1.7210414,,"eglise","",17111,"78/behoust/saint-hilaire"
15041,"Bourdonné (Saint Martin)","FR","BOURDONNE",,"78113","Place de l'église","2018-04-07 11:25:08","2018-04-07 11:25:08","https://lh3.googleusercontent.com/sc3LDu7sggDgfsxJTRUFXRrMnjpZbdu4aHZf2RNCUFrmMSS1v7ciOtn1hEmFnX85EMeGXL3yn8J6qRDdkv3WXRY=s85",,48.756444,1.6633754,,"eglise","",17111,"78/bourdonne/saint-martin"
15042,"Civry la Forêt (Saint Barthelemy)","FR","CIVRY LA FORET",,"78910","Chemin de l'église","2018-04-07 11:25:08","2018-04-07 11:25:08","https://lh3.googleusercontent.com/Eg0xg_UNEwFGjCCj2PwNz-uJN26DKNxtwEOxOQzo4arJrZLju3zJxtMail2ab5_zUEfGDQRI5cxPTn5Lsid2ugM=s85",,48.8652732,1.6093998,,"eglise","",17111,"78/civry-la-foret/saint-barthelemy"
15043,"Condé sur Vesgre (Saint Germain de Paris)","FR","CONDE SUR VESGRE",,"78113","Rue de la Vesgre","2018-04-07 11:25:08","2018-04-07 11:25:08","https://lh3.googleusercontent.com/k2amhABqxmG1L_yN4IghLdOdT9fROCCmHHU6R3j85fj2DWZ49m_z0hUL7pd_jGfJi5SgYccgkXC5oX3RZi5assQ=s85",,48.7367724,1.6595098,,"eglise","",17111,"78/conde-sur-vesgre/saint-germain-de-paris"
15044,"Dannemarie (Sainte Anne)","FR","DANNEMARIE",,"78550","","2018-04-07 11:25:08","2018-04-07 11:25:08","https://lh3.googleusercontent.com/bVqYvYfRGwV2_TDwZTbXfPC-CPVXc6DZgmK3Wfse-luC790hO5H5VsEOXkwW4qoqzGCo4p6R6aAHKzqaMpp5pw=s85",,48.762168,1.6034219,,"eglise","",17111,"78/dannemarie/sainte-anne"
15045,"Gambais (Saint Aignan)","FR","GAMBAIS",,"78950","Rue de Saint Aignan","2018-04-07 11:25:08","2018-04-07 11:25:08","https://lh3.googleusercontent.com/8V-XcRFllrbvPetiiTjd8ZypLfyYvYVeTWiHegsWUij3LVmUTQfrJ8ZJJocIvWQmeJXTjFzYho-KUAU1e5Q9j9ik=s85",,48.7779645,1.66359,,"eglise","",17111,"78/gambais/saint-aignan"
15046,"Gressey (Saint Pierre)","FR","GRESSEY",,"78550","","2018-04-07 11:25:08","2018-04-07 11:25:08","https://lh3.googleusercontent.com/W_tOTW-OKuunYM_7N841WDgLnFGUE9kaE6h_z8KZzTeFvP2llvjnfGeLzA2pVTytsPj8mE5oIf9kRDGu2VMyOQQ=s85",,48.831853,1.609202,,"eglise","",17111,"78/gressey/saint-pierre"
15047,"Houdan (Chapelle de l'hôpital)","FR","HOUDAN",,"78550","impasse Dumontier","2018-04-07 11:25:08","2018-04-07 11:25:08","https://lh3.googleusercontent.com/T5IVSlfbHRIeS-DEwhFK829b582jOAMLLtmwUbx6V1BTSxb5IvlMNoPLu-Fv2WLK6SmVIaa2t2y3IM_jUsG50OI=s85",,48.7924823,1.5999869,,"chapelle hôpital","",17111,"78/houdan/la-roseraie-maison-de-retraite"
15048,"Houdan (Oratoire du presbytère)","FR","Houdan",,"78550","75 Grande Rue","2018-04-07 11:25:08","2018-04-07 11:25:08","https://lh3.googleusercontent.com/eh5jaGqHgy7Ty635SbDOi5H41hXc0IeYdTceU6xpds98h9ip1AsxkCZAFBHJTcP3KmFQRdt_XQXOWL5FN7qYuw=s85",,48.7892256,1.6025133,,"maison paroissiale","",17111,"78/houdan/oratoire-du-presbytere"
15049,"Houdan (Saint Jacques le Majeur)","FR","HOUDAN",,"78550","75 grande rue","2018-04-07 11:25:08","2018-04-07 11:25:08","https://lh3.googleusercontent.com/nR_F2UtfTIk6l3unhdFke4KtBENCOdBcNFg1hzHXPzJo09xjMj8wpAFQHnnrw-M38SX6oYeXO8yaCd9SmBXdN0U=s85",,48.7892256,1.6025133,,"eglise","",17111,"78/houdan/saint-jacques-le-majeur"
15050,"La Hauteville (Sainte Madeleine)","FR","LA HAUTEVILLE",,"78113","","2018-04-07 11:25:08","2018-04-07 11:25:08","https://lh3.googleusercontent.com/qKp8kpkd46Asf1q2XfSfDom4iIaN-TpCHYMadUPsKJVGo7z8-PtdyvVyWCqL57bpnJQaJ12sKhdKsRiETpt3jf0=s85",,48.704875,1.625688,,"eglise","",17111,"78/la-hauteville/sainte-madeleine"
15051,"Maison de Retraite La Roseraie - Les 4 Saisons","FR","HOUDAN",,"78550","42 rue de Paris","2018-04-07 11:25:08","2018-04-07 11:25:08","https://lh3.googleusercontent.com/WQE6LjtX6Y5DN3PV97tSdiMJegmo2ri9tpbO3Sqs3khJ4FXu1J19QZ5QYZZgCq8OQpDhRB0dqwPqywLhfXsccJY=s85",,48.7929032,1.600148,,"Lieu de célébration exceptionnel","",17111,"78/houdan/maison-de-retraite-la-roseraie---les-4-saisons"
15052,"Maulette (Saint Pierre)","FR","MAULETTE",,"78550","Rue de l'église","2018-04-07 11:25:08","2018-04-07 11:25:08","https://lh3.googleusercontent.com/yhHuWK-FzyTqvEdsni32c6pDNKToOU0MjnwIeMDA89NjRvqkZmjtkmN93KsC79B90JWsVJ09GLjkYAINVMMz_qo=s85",,48.7923246,1.6196132,,"eglise","",17111,"78/maulette/saint-pierre"
15053,"Orgerus (Saint Pierre)","FR","ORGERUS",,"78910","1 rue de la gare (Le Moutier)","2018-04-07 11:25:08","2018-04-07 11:25:08","https://lh3.googleusercontent.com/9CMjxSLr5h_E7dQdAL7aYytce7gaZQGehmXkqwWmlu6HXlFHcezMbPMCNq5paYB7zRG0SODdM-tZ2a8A6eFEzL4=s85",,48.8283154,1.7038296,,"eglise","",17111,"78/orgerus/saint-pierre"
15054,"Orvilliers (Saint Martin)","FR","ORVILLIERS",,"78910","Rue du Pré Saint Martin","2018-04-07 11:25:08","2018-04-07 11:25:08","https://lh3.googleusercontent.com/Jfqmrxo5QXmm_MvuRcS10Om0hwkxgavsFPjZovZ8K8T8gHDpvxvIJIjv5o0fG5Q3JwjiEvLFfWad-L1ViaCnPA=s85",,48.8575936,1.6462475,,"eglise","",17111,"78/orvilliers/saint-martin"
15055,"Prunay le Temple (Saint Martin)","FR","PRUNAY LE TEMPLE",,"78910","Rue de l'église","2018-04-07 11:25:08","2018-04-07 11:25:08","https://lh3.googleusercontent.com/Kgne_6EB8ne-X5Njsz0XWx_bsyzOlnQ68KuSOUTmyn08Z0dj4Js_MX5WAcSRtxUbdn3qqJGYi8BcX4CFW3CiyqI=s85",,48.862697,1.671214,,"eglise","",17111,"78/prunay-le-temple/saint-martin"
15056,"Richebourg (Saint Georges)","FR","RICHEBOURG",,"78550","rue Saint Georges","2018-04-07 11:25:08","2018-04-07 11:25:08","https://lh3.googleusercontent.com/bQMXU9TpcXd7yEzGBPONXKIb31Sp45VDSL_IQ2X-F8z7n5C37TdB0-2cEpbJc0Y96VQwXWMGcYtigNayZ0j1gNk=s85",,48.8193181,1.6336715,,"eglise","",17111,"78/richebourg/saint-georges"
15057,"Tacoignières (Assomption de la Très Sainte Vierge)","FR","TACOIGNIERES",,"78910","Rue de l'église","2018-04-07 11:25:08","2018-04-07 11:25:08","https://lh3.googleusercontent.com/CVChq0e5oyLnEVolD8eEyaqMbSi4v_mK6wWV4_7ywR1j8qnMbKEuArOaGu43cVHZDoNVpBMWWed5r_jZ9y69HSA=s85",,48.8350734,1.6750502,,"eglise","",17111,"78/tacoignieres/assomption-de-la-tres-sainte-vierge"
15058,"Béthanie","FR","HOUILLES",,"78800","26 rue Blaise Pascal","2018-04-07 11:25:08","2018-04-07 11:25:08","https://lh3.googleusercontent.com/zoaYYLEY9ycWMJ5fU4AnAS2atPRo_h4wa7idjn1yp8H1t5SnCUBNU77vXpJQyxASmiEzjL842W2GSiu21OLCmiI=s85",,48.92711,2.19067,,"eglise","",17112,"78/houilles/bethanie"
15059,"Chapelle Sainte Maria Goretti","FR","CARRIERES SUR SEINE",,"78420","87 rue Paul Doumer","2018-04-07 11:25:08","2018-04-07 11:25:08","https://lh3.googleusercontent.com/jvlDOXAZkxulPbh9zT0lCncsc_Dj57n_H7v2XQxvFoNQvPqp7CU8_VbKp9ioJX5Vfbp5Nzkmj6sMM2gVD864avE=s85",,48.9151368,2.1936133,,"chapelle","",17112,"78/carrieres-sur-seine/chapelle-sainte-maria-goretti"
15060,"Notre Dame du Réveil Matin","FR","CARRIERES SUR SEINE",,"78420","1 bis rue de Buzenval","2018-04-07 11:25:08","2018-04-07 11:25:08","https://lh3.googleusercontent.com/k8bgCZuj5e_DUpMgKd37-8wbIiB_47Vaxtr1uKz7iwRbQzVYSVpXUHgLuuBA6rvIr8844OrScdCH27u2GGsKpAQ=s85",,48.9165544,2.1771615,,"eglise","",17112,"78/carrieres-sur-seine/notre-dame-du-reveil-matin"
15061,"Saint Jean Baptiste","FR","CARRIERES SUR SEINE",,"78420","32 rue Gabriel Péri","2018-04-07 11:25:08","2018-04-07 11:25:08","https://lh3.googleusercontent.com/GvM-dKk3G02bp8aRmkpCMU1LqLAqSF6W2th_u0lFUYBxXQOhgHi0nJ6OBqEsm54Ja9T8urYk-02ZwNCX6PRjBFeU=s85",,48.9058894,2.1774474,,"eglise","",17112,"78/carrieres-sur-seine/saint-jean-baptiste"
15062,"Saint Nicolas","FR","HOUILLES",,"78800","Place de l'église","2018-04-07 11:25:08","2018-04-07 11:25:08","https://lh3.googleusercontent.com/f26nc2dbBWkHsEvKyF5BtK45iY25vQrzeBjPZfnyxtUzzrP-Jyy9TZ44iGHQMhDaJu1RDQQqD5vmg4BxDv3BIQQ=s85",,48.9262299,2.187472,,"eglise","",17112,"78/houilles/saint-nicolas"
15063,"Notre Dame de Beauregard","FR","LA CELLE SAINT CLOUD",,"78170","2D avenue des Etangs, Domaine de Beauregard","2018-04-07 11:25:08","2018-04-07 11:25:08","https://lh3.googleusercontent.com/Lx2cgYiamlNnTek2kvQT-uagjf2PAG19viv4DYHz2277-oSc5ZCLxsEx-iC57swPaDj2FQk2-9MrF_eF9EG8lmI=s85",,48.8467533,2.1180802,,"eglise","",17113,"78/la-celle-saint-cloud/notre-dame-de-beauregard"
15064,"Saint Pierre Saint Paul","FR","LA CELLE SAINT CLOUD",,"78170","2 Place de l'église","2018-04-07 11:25:08","2018-04-07 11:25:08","https://lh3.googleusercontent.com/VLn8RspgbbMGHPMLqXqHzY0Wdz35Y_Fy9p7SMt-DESQJZohV8dFLjVxu3sWZ6xw2lkhsvG-vdUJmLIpfcDLkGg=s85",,48.8527215,2.1437143,,"eglise","",17113,"78/la-celle-saint-cloud/saint-pierre-saint-paul"
15065,"Sainte Marie de la Visitation","FR","LA CELLE SAINT CLOUD",,"78170","Elysée II","2018-04-07 11:25:08","2018-04-07 11:25:08","https://lh3.googleusercontent.com/etPONZrgRzGPALG7BrzmPH31A4Dc18aBQrHmRTjkMxCPfVHbB158Ychj8M_X8nXSPinqUMAs8zsAOHYpCkouQ20=s85",,48.8593913,2.1501222,,"chapelle","",17113,"78/la-celle-saint-cloud/chapelle-de-la-visitation"
15066,"Notre Dame de la Résurrection","FR","LE CHESNAY",,"78150","2 avenue Albert-Schweitzer","2018-04-07 11:25:08","2018-04-07 11:25:08","https://lh3.googleusercontent.com/3i1sdNC3u69Ev-ab6Zg9JEI7oEmwjAOc7q1HxpfDsxqRR64WOK-qS86F6x4z3HZLEgVl9MEO9l1dYmCmdzzifr0=s85",,48.82572506,2.12336805,,"eglise","",17114,"78/le-chesnay/notre-dame-de-la-resurrection"
15067,"Saint Antoine","FR","LE CHESNAY",,"78150","Place Saint-Antoine","2018-04-07 11:25:08","2018-04-07 11:25:08","https://lh3.googleusercontent.com/swbkiezPaNAQN_KOakBLfos0AKAXNdfLfonlTAzGIPj9ji3efoRjiU5yD6hs6d8Gn18JQTyn_dWa0Bc0T6Su1oo=s85",,48.8181118,2.1304054,,"eglise","",17114,"78/le-chesnay/saint-antoine"
15068,"Saint Germain","FR","LE CHESNAY",,"78150","rue Jean-Louis Forain","2018-04-07 11:25:08","2018-04-07 11:25:08","https://lh3.googleusercontent.com/KPJtRBJSNBXVsBV7w0rZEGg_LSjZ-1we33aMqmE59SseolZN93QPIYwcENUCLz1znm75WTGbzFYG82hTbn7RgQ=s85",,48.83239,2.1217463,,"eglise","",17114,"78/le-chesnay/saint-germain"
15069,"Chapelle Notre Dame de la Roche","FR","null",,"","","2018-04-07 11:25:09","2018-04-07 11:25:09","",,48.7222,1.9494,,"chapelle","",17115,"78/levis-saint-nom/chapelle-notre-dame-de-la-roche"
15070,"Chapelle Sainte Marie","FR","LA VERRIERE",,"78320","7 bis avenue Général-Leclerc","2018-04-07 11:25:09","2018-04-07 11:25:09","https://lh3.googleusercontent.com/TkOt67OBu1_fywDNW5KdL9PlTZAu1VfH7wQZm_fw4rNjUDMNYos8B9Uzt4-g2YGNY-jFbEH5xUivRK1vmvJhKQ=s85",,48.7571869,1.9571797,,"chapelle","",17115,"78/la-verriere/chapelle-sainte-marie"
15071,"Saint Denis","FR","LE MESNIL SAINT DENIS",,"78320","14 rue Berrurier","2018-04-07 11:25:09","2018-04-07 11:25:09","https://lh3.googleusercontent.com/4LsvNGOlCvxmfoPmsFuyfATan56feEoZJjh2UAU1YkH5JFtCUMxwzwunBk3ZvBfjymTA3sqPQW8cf8zncorTEQ=s85",,48.7430275,1.9628645,,"eglise","",17115,"78/le-mesnil-saint-denis/saint-denis"
15072,"Saint Nom","FR","LEVIS SAINT NOM",,"78320","Chemin des 6 croix","2018-04-07 11:25:09","2018-04-07 11:25:09","https://lh3.googleusercontent.com/A_CjAu6OCLrOnDAGhu85gqSdhaPVkatWjztMlOCMU6Gl-2bu49tVTgaJnbue-edsruKROgWbe4J6eYoSYPgtuQ=s85",,48.7239086,1.9579623,,"eglise","",17115,"78/levis-saint-nom/saint-nom"
15073,"Saint-Wandrille","FR","LE PECQ",,"78230","1 place Félicien David","2018-04-07 11:25:09","2018-04-07 11:25:09","https://lh3.googleusercontent.com/XTvMfT92NRXPs4_oZ3PNDiNRNtproGdnTo8oe4ZY5cUfMejgq9YN1W9PyIPc5XTCoBlUFoWEpiBV0cfFD6--5c4=s85",,48.89627,2.102566,,"eglise","",17116,"78/le-pecq/saint-wandrille"
15074,"Sainte Marguerite","FR","LE VESINET",,"78110","Place de l’église","2018-04-07 11:25:09","2018-04-07 11:25:09","https://lh3.googleusercontent.com/Br6fxkY0n7y6Anj-r_84WXrkU2r1w-HXXkcgWmLVpSGV1RoSK4qv2k0XGtYJhRZ8cO48ZmXPKTU7FOH8Z6Fhdg8=s85",,48.892535,2.134709,,"eglise","",17117,"78/le-vesinet/sainte-marguerite"
15075,"Sainte Pauline","FR","LE VESINET",,"78110","55 Boulevard d'Angleterre","2018-04-07 11:25:09","2018-04-07 11:25:09","https://lh3.googleusercontent.com/_IEn9mHTVivcdlcwGMIVgrl2hEmfZdEx-Ut-ldZuW8H4BuJDNt8xzF2pYpAQ31Ysh7_GKM2lihNoK_kHYkSJeBE=s85",,48.8975407,2.117854,,"eglise","",17118,"78/le-vesinet/sainte-pauline"
15076,"Saint André","FR","AUFFARGIS",,"78610","","2018-04-07 11:25:09","2018-04-07 11:25:09","https://lh3.googleusercontent.com/Aa3bgTc9YNrHHHDQhv78b8aXv0raC8UDYB2M6PCSq-HHGjlqwhzTlMgQbsIksY-FKbrWIroBly31HxqMq58GyWHq=s85",,48.702311,1.8849659,,"eglise","",17119,"78/auffargis/saint-andre"
15077,"Saint Antoine","FR","LES BREVIAIRES",,"78610","","2018-04-07 11:25:09","2018-04-07 11:25:09","https://lh3.googleusercontent.com/LnRrlIOeRXQoWQ94DixH4QgNWmmZvNxooDZq8CP4WwsdsH06kMk3NA2hYr-YtthpdnPkYq0RhxJFUGYT3fmsZLCR=s85",,48.7072657,1.8131878,,"eglise","",17119,"78/les-breviaires/saint-antoine"
15078,"Saint Corneille Saint Cyprien","FR","LES ESSARTS LE ROI",,"78690","Place de l'Eglise","2018-04-07 11:25:09","2018-04-07 11:25:09","https://lh3.googleusercontent.com/jqnjSn1HURNZMy8WVKXcQCmOfZnMO0DvzA3epBr74X68fskqRh_S34ZRaUtpESn_3t0yaGnO7FBq6xqIwsnzKdg=s85",,48.7132574,1.8920755,,"eglise","",17119,"78/les-essarts-le-roi/saint-corneille-saint-cyprien"
15079,"Saint Eloi","FR","LE PERRAY EN YVELINES",,"78610","1, rue de l'Eglise","2018-04-07 11:25:09","2018-04-07 11:25:09","https://lh3.googleusercontent.com/n9ksNNuA32tR0lZLVe2GpXZJeCTSyDftjSQiVJJg25sTlvINo8HWq8mYLMCI48klHoGA0FVrinwunssp3zTR0nw=s85",,48.6941765,1.8559654,,"eglise","",17119,"78/le-perray-en-yvelines/saint-eloi"
15080,"Saint Gilles","FR","VIEILLE EGLISE EN YVELINES",,"78125","","2018-04-07 11:25:09","2018-04-07 11:25:09","https://lh3.googleusercontent.com/a4TwbNQAoUIL8MR4G70KFobFIz3dCvpjowTOMKwgVDOL6upVpE9IMA96HU_MuUdnXnCrrlB70FZQFEylz3vvbg=s85",,48.6703784,1.8749077,,"eglise","",17119,"78/vieille-eglise-en-yvelines/saint-gilles"
15081,"Notre Dame des Neiges","FR","LES MUREAUX",,"78130","rue Corneille (quartier de la Vigne Blanche)","2018-04-07 11:25:09","2018-04-07 11:25:09","https://lh3.googleusercontent.com/bteXsXb8yTing5ELcSC34xuy-pP-awJdgH2RvUl2SbxnOqJ0u-XOYxJ0mNL1lYaJNBqFJqZtHEqEwm9ZjLseOg=s85",,48.98280821,1.91599846,,"eglise","",17120,"78/les-mureaux/notre-dame-des-neiges"
15082,"Saint Pierre Saint Paul","FR","LES MUREAUX",,"78130","2, rue de l'Abbé Duval","2018-04-07 11:25:09","2018-04-07 11:25:09","https://lh3.googleusercontent.com/x-fn3QSjRi0VJpKF_geh_zUkXaeZ3FWvuHTpMx58tyDj7G0RFcivBsgKSEaI_knsf_wbhg8C3oPRd14QOCA-nA=s85",,48.9927787,1.9072978,,"eglise","",17120,"78/les-mureaux/saint-pierre-saint-paul"
15083,"Brueil en Vexin  (Saint Denis)","FR","BRUEIL EN VEXIN",,"78440","","2018-04-07 11:25:10","2018-04-07 11:25:10","https://lh3.googleusercontent.com/BnSk9Lu42nUCUOKytXipN16Nu9Lu2ZcKimQX_bCl06AL0lETn4OPJqjiLgJ63fyN-LhqC93T3j93w9PJh6bNUA=s85",,49.031709,1.815091,,"eglise","",17121,"78/brueil-en-vexin/saint-denis"
15084,"Drocourt (Saint Denis)","FR","DROCOURT",,"78440","","2018-04-07 11:25:10","2018-04-07 11:25:10","https://lh3.googleusercontent.com/PML8cJyvFFsLKT5hNrC0agvkIvVYySyTdXE9ks4YdroT1iLg4APyrihSw_TMWqOzkS8RYFRO4pZyOs83xrtlng=s85",,49.05521441,1.76616357,,"eglise","",17121,"78/drocourt/saint-denis"
15085,"Follainville-Dennemont (Saint Martin)","FR","FOLLAINVILLE DENNEMONT",,"78520","Follainville","2018-04-07 11:25:10","2018-04-07 11:25:10","https://lh3.googleusercontent.com/zz5HY2RMfipxHSQpfm1mgMT6kju1s_Cfz3I0CzhBQIxVGgOoTPj8R3dzwMIStepnpPrrQ8V6I8h_ZSwPiSGq0A=s85",,49.02167282,1.71300798,,"eglise","",17121,"78/follainville-dennemont/visitation"
15086,"Follainville-Dennemont (Sainte Elisabeth)","FR","FOLLAINVILLE DENNEMONT",,"78520","Dennemont","2018-04-07 11:25:10","2018-04-07 11:25:10","https://lh3.googleusercontent.com/WJo-BYCUqS3eiObwmiEFMrg9ykxiKYutWQu8Owyff13w6wh9Ecj9LgqLRhHCENSo3bMaJ3EoOukgJ_VxfuFw4ab1=s85",,49.0212313,1.7030353,,"chapelle","",17121,"78/follainville-dennemont/chapelle-sainte-elisabeth"
15087,"Fontenay St Père (Saint Denis)","FR","FONTENAY SAINT PERE",,"78440","","2018-04-07 11:25:10","2018-04-07 11:25:10","https://lh3.googleusercontent.com/KLDy_hT2zb591sO_--BVaKYFZ1AOlaSQ8hiIhwtOwX-ACr5odQQgBJiKHUbSfEDjhdekoQAAn_gTmbwJr0_rCit_=s85",,49.0268302,1.7514419,,"eglise","",17121,"78/fontenay-saint-pere/saint-denis"
15088,"Gargenville (Saint Martin)","FR","GARGENVILLE",,"78440","rue Jules Ferry","2018-04-07 11:25:10","2018-04-07 11:25:10","https://lh3.googleusercontent.com/_cN0rDG3jgE8KFhAJOfTpq-sr_VbmLN30_7gG-Zvl3CY1lVaT78YIWgoixmMCWfHQaeWKu8WmO7Rv5UMRf3dyJk=s85",,48.9927513,1.809948,,"eglise","",17121,"78/gargenville/saint-martin"
15089,"Guernes (Assomption de la Très Sainte Vierge)","FR","GUERNES",,"78520","","2018-04-07 11:25:10","2018-04-07 11:25:10","https://lh3.googleusercontent.com/HZoX7jSDf95bkPRkIop7Mcb5AYN0-eS0NiBpX8c6lGE0KddNGgyBCmxNEksEZVSsANCmoUdSXOiHF4f3wtJhyBgu=s85",,49.0103347,1.6362715,,"eglise","",17121,"78/guernes/assomption-de-la-tres-sainte-vierge"
15090,"Guitrancourt (Saint Ouen)","FR","GUITRANCOURT",,"78440","","2018-04-07 11:25:10","2018-04-07 11:25:10","https://lh3.googleusercontent.com/oPKY_U4Yqrgi0LIXrJhbNARsSChdh2XsUxQ7GgCYI0p7FWgmPH2ZQ4FN8CFr6B6ejhLlbHlKHqg0cSeRj9YX_fwf=s85",,49.0085208,1.7792661,,"eglise","",17121,"78/guitrancourt/saint-ouen"
15091,"Issou (Saint Martin)","FR","ISSOU",,"78440","rue de l'Eglise","2018-04-07 11:25:10","2018-04-07 11:25:10","https://lh3.googleusercontent.com/oXmvLhDuCY8E4ziCtNdqSu0_ZipTKq91-tNgCZMODQRzQ3fzVGXsGR3ltDf5Zvgx69Dnr9v0f7zvdTOmZiWH3uOT=s85",,48.992074,1.794577,,"eglise","",17121,"78/issou/saint-martin"
15092,"Jambville (Assomption de la Très Sainte Vierge - Notre Dame de Jambville)","FR","JAMBVILLE",,"78440","","2018-04-07 11:25:10","2018-04-07 11:25:10","https://lh3.googleusercontent.com/BKMVDczuF0miaoUD5l3N5V5ylU7ISsaYSrCfCoIKcG_9HGTwCZJdzeEgHMBfzH4HuseYGFjdpZX2XVBKNEv_dk0=s85",,49.0452963,1.8529766,,"eglise","",17121,"78/jambville/assomption-de-la-tres-sainte-vierge"
15093,"Lainville en Vexin (Saint Martin)","FR","LAINVILLE EN VEXIN",,"78440","","2018-04-07 11:25:10","2018-04-07 11:25:10","https://lh3.googleusercontent.com/wJru63Zv9mNmESTWZJPP274Ekk1dNlYxa_gqagj4ybsAGVYt1QRIhjZjvnonmT4y5hCXZd559wL9NMXP4dN8bA=s85",,49.0594301,1.8159927,,"eglise","",17121,"78/lainville-en-vexin/saint-martin"
15094,"Limay (Saint Aubin)","FR","LIMAY",,"78520","rue de l'église","2018-04-07 11:25:10","2018-04-07 11:25:10","https://lh3.googleusercontent.com/1amM1EO0vAyDRrUEoS7HZUIXpiUPQ626ImhCCj_j0hkFOEsJGghh3NMMPbXUWqOl3VdnmTTTLWJQL1bGgcn05Q=s85",,48.994481,1.731627,,"eglise","",17121,"78/limay/saint-aubin"
15095,"Montalet le Bois (Nativité de la Très Sainte Vierge)","FR","MONTALET LE BOIS",,"78440","","2018-04-07 11:25:10","2018-04-07 11:25:10","https://lh3.googleusercontent.com/9vHPvEpkoriC7AOMvxMIWIsNCvCnLqW9r5d2gR1eLWczNXIk0ztyy4AHLeWBooQjqHEwFVywM2WSoR4lXNqnkek=s85",,49.046912,1.8266836,,"eglise","",17121,"78/montalet-le-bois/nativite-de-la-tres-sainte-vierge"
15096,"Oinville sur Montcient (Saint Séverin)","FR","OINVILLE SUR MONTCIENT",,"78250","","2018-04-07 11:25:10","2018-04-07 11:25:10","https://lh3.googleusercontent.com/avl6Hh2pdt93-jEYu98TMNdsR5NhyjRfGu0NlpTTufTrAuNUdSzWbfHpaaoI5QM-Wn7ERJDTXbKtml5-V3rnBPb2=s85",,49.0262482,1.8494094,,"eglise","",17121,"78/oinville-sur-montcient/saint-severin"
15097,"Porcheville (Saint Séverin)","FR","PORCHEVILLE",,"78440","Grande rue","2018-04-07 11:25:10","2018-04-07 11:25:10","https://lh3.googleusercontent.com/TQI0fw4OyBnxtOLR9WVwOX7-ZnlyJEhU1Fxl9C_sQ1HEEaxN4fe8csKq3AOa2teOzDaEEoyvhhqpV_4aW7mTLJo=s85",,48.97125389,1.7790449,,"eglise","",17121,"78/porcheville/saint-severin"
15098,"Sailly (Saint Sulpice)","FR","SAILLY",,"78440","","2018-04-07 11:25:10","2018-04-07 11:25:10","https://lh3.googleusercontent.com/C88QpjUMpKbdmaWsRqOWMZUOS7SFQQL5Zr0UMpzTryuAZBWzxEQdijF0FKgd8_FFBX5CgAZmyw63PEqZ4Htbvk49=s85",,49.0406665,1.8006423,,"eglise","",17121,"78/sailly/saint-sulpice"
15099,"Saint Martin la Garenne (Saint Martin)","FR","SAINT MARTIN LA GARENNE",,"78520","","2018-04-07 11:25:10","2018-04-07 11:25:10","https://lh3.googleusercontent.com/mdialeTdzdKolK1XW2id9c6DdLskaoZ-czPnSF2coWuexlehmRCG77xfsgdFu4203_3UqLvkYjI1tJ3bbqgc97g=s85",,49.04049054,1.68923894,,"eglise","",17121,"78/saint-martin-la-garenne/saint-martin"
15100,"Seraincourt (Saint Sulpice)","FR","SERAINCOURT",,"95450","","2018-04-07 11:25:10","2018-04-07 11:25:10","https://lh3.googleusercontent.com/UhFeWHCSiUcQRaXhK-DKXbpx81tovADb2DilgjOptIzaGSNyqQGVLJlKS0lc9IbV5n2wybYwwnx4yKLhrkouM-U=s85",,49.0354835,1.866291,,"eglise","",17121,"95/seraincourt/saint-sulpice"
15101,"St Martin la Garenne-Sandrancourt (Sainte Anne)","FR","SAINT MARTIN LA GARENNE",,"78520","","2018-04-07 11:25:10","2018-04-07 11:25:10","https://lh3.googleusercontent.com/aIu2Ggw4hvc_SDCC21n0o_vvF87Ie5yqZoBDYAzSc6sVn0E1FI0mOisj2CEMAOgr-PNnTBvCNTON-3ZJ8eYBoA=s85",,49.03555311,1.64806167,,"chapelle","",17121,"78/saint-martin-la-garenne/chapelle-sainte-anne-a-sandrancourt"
15102,"Chapelle Saint Joseph","FR","LOUVECIENNES",,"78430","45 rue du Général Leclerc","2018-04-07 11:25:10","2018-04-07 11:25:10","",,48.861431,2.1127582,,"chapelle","",17122,"78/louveciennes/chapelle-saint-joseph"
15103,"Saint Martin Saint Blaise","FR","LOUVECIENNES",,"78430","10 place de l'église","2018-04-07 11:25:10","2018-04-07 11:25:10","https://lh3.googleusercontent.com/NbvQmRve8eHLGpEwLAflORXnwdA2hq9X0ZSV0-3C4Dr9UCAQL68nhqpG1pDDfk3prJDvVg03tvgOmXeF2XUZW-s=s85",,48.8609114,2.1137942,,"eglise","",17122,"78/louveciennes/saint-martin-saint-blaise"
15104,"Maison Paroissiale (Centre Sainte Marie)","FR","MAGNY LES HAMEAUX",,"78114","21 bis rue des écoles Jean Baudin","2018-04-07 11:25:10","2018-04-07 11:25:10","http://upload.wikimedia.org/wikipedia/commons/thumb/f/f4/Bep_chaetodon_bennetti.jpg/320px-Bep_chaetodon_bennetti.jpg",,48.72417694,2.08714553,,"eglise","",17123,"78/magny-les-hameaux/maison-paroissiale"
15105,"Saint Christophe","FR","CHATEAUFORT",,"78117","Place Saint Christophe","2018-04-07 11:25:10","2018-04-07 11:25:10","https://lh3.googleusercontent.com/lnrVM_RBKMk75PYubUNpZLLvoh-DGMSbLCKW3f2B_0TAQbxH_GEWaMgWxVmvBv8mD395bSYhBbfAXFFSTbGn1lE=s85",,48.7370304,2.0921009,,"eglise","",17123,"78/chateaufort/saint-christophe"
15106,"Saint Germain de Paris","FR","MAGNY LES HAMEAUX",,"78114","Rue Ernest Chausson - Magny Village","2018-04-07 11:25:10","2018-04-07 11:25:10","https://lh3.googleusercontent.com/7EfowFH3vYMyQGV7NJQbIuyJ29yAnfgSduoaCTo7vm8L-tm8tAJ2Fut_DfSRNKYRwQ03dXv3sGx8ekybFvy8jWs=s85",,48.7429807,2.0595881,,"eglise","",17123,"78/magny-les-hameaux/saint-germain-de-paris"
15107,"Saint Lambert","FR","SAINT LAMBERT DES BOIS",,"78470","Chemin du Charme et du Carosse","2018-04-07 11:25:10","2018-04-07 11:25:10","https://lh3.googleusercontent.com/FlBLsEU-wkln037qXAb9RDr-rjMyeZ5jt_deLNJ3SkcO8jZ385jvC0YKcFBRbog-ZzFkxWAklp2OpJK1kmcurrs=s85",,48.7305626,2.0172179,,"eglise","",17123,"78/saint-lambert-des-bois/saint-lambert"
15108,"Sainte Marie","FR","MAGNY LES HAMEAUX",,"78114","21 bis rue des écoles Jean Baudin","2018-04-07 11:25:10","2018-04-07 11:25:10","https://lh3.googleusercontent.com/LAHpsNn2fFg29T-C0eothzHfKeVvgVJ2nB06gGQgJNX-cIj7FbDOvpGXeW8e_Ck0bP5pXuToiUyVZNYuSOgo5Ao=s85",,48.72418676,2.08716631,,"eglise","",17123,"78/magny-les-hameaux/sainte-marie"
15109,"Salle polyvalente Du Plessis (Salle polyvalente Du Plessis)","FR","Toussus-le-Noble ",,"78117","avenue de l'Europe","2018-04-07 11:25:10","2018-04-07 11:25:10","https://lh3.googleusercontent.com/fOFpDVC3L0wvbRCrySAPcFO42_x302cnJXa7PTE__LVRFfUEQb9RLlIaEesSSM3RS68ccBnEpoLWFJalJ6LKmw=s85",,48.7471762,2.1187543,,"Lieu d'accueil","",17123,"78/toussus-le-noble/salle-polyvalente-du-plessis"
15110,"Chapelle Sainte Thérèse","FR","Maisons-Laffitte",,"78600","10 rue Laffitte","2018-04-07 11:25:10","2018-04-07 11:25:10","https://lh3.googleusercontent.com/muZsgEauKm6MDeDTL4wr-CU_Ltbm0p9kxz3ii5qx9P-n4P1_xZh9wFUUCHqYzSztyPJNTWQmexnwXldKcfiGJg=s85",,48.9450475,2.1391194,,"chapelle","",17124,"78/maisons-laffitte/chapelle-sainte-therese"
15111,"Maison de Retraite de Champsfleur","FR","LE MESNIL LE ROI",,"78600","5 rue de la République","2018-04-07 11:25:10","2018-04-07 11:25:10","",,48.9403573,2.1397212,,"chapelle","",17124,"78/le-mesnil-le-roi/maison-de-retraite-de-champsfleur"
15112,"Notre Dame de la Croix","FR","MAISONS LAFFITTE",,"78600","1 avenue Massena","2018-04-07 11:25:10","2018-04-07 11:25:10","https://lh3.googleusercontent.com/enlIYkQPbCEHUxyUR4dFcVlQo8EPH4j73AdqyVQXCFjlYoqFcRdNGTJnqSVp1QQw-LcsSyMeCaNkXqFJrWR-OQ=s85",,48.9579332,2.1594381,,"eglise","",17124,"78/maisons-laffitte/notre-dame-de-la-croix"
15113,"Saint Nicolas","FR","MAISONS LAFFITTE",,"78600","43 rue du Fossé","2018-04-07 11:25:10","2018-04-07 11:25:10","https://lh3.googleusercontent.com/fD0YezR-Yya0cLgOKBqaE44MUoAUvF0K-1q9zofoKAP098p_BdRvd1jtbSWlhi83LDRlujOPHdBTzOmJcPhnWDs=s85",,48.9486898,2.1449869,,"eglise","",17124,"78/maisons-laffitte/saint-nicolas"
15114,"Saint Vincent","FR","LE MESNIL LE ROI",,"78600","6 rue de Romilly","2018-04-07 11:25:10","2018-04-07 11:25:10","https://lh3.googleusercontent.com/c55Zf3OnbNBBED7j-F4bkxfV7LDsSLtYslTvUIc0t7XK4BSirxtVWOM3VwMyx29IW0yB9l9DO7__QOgBrIhgYDAt=s85",,48.9372561,2.1254921,,"eglise","",17124,"78/le-mesnil-le-roi/saint-vincent"
15115,"Mantes la Jolie (Collégiale Notre Dame)","FR","MANTES LA JOLIE",,"78200","13 rue Stéphane Bonneau","2018-04-07 11:25:11","2018-04-07 11:25:11","https://lh3.googleusercontent.com/MP47AZyWrXVhQ42TTqB0fGhojxbUoCJQ0BuMaxMkQwdShK-wlJMqYTPX_X3m9NigkVJgtGii-s7go5ZkqcZZRPo=s85",,48.99042326,1.72007078,,"collégiale","",17125,"78/mantes-la-jolie/notre-dame"
15116,"Mantes la Jolie (Filles de la Croix)","FR","Mantes la Jolie",,"78200","1 rue Nungesser et Coli","2018-04-07 11:25:11","2018-04-07 11:25:11","https://lh3.googleusercontent.com/gp6DjzRJHXiFn5p0uyueiNdCFVUTCcmoVPEP-aOE2B9A0hWoHS6RGDvZ08WH-t9SATCDu4f38MQNfBb2uKsPLMI=s85",,49.0014736,1.6790599,,"maison religieuse","",17125,"78/mantes-la-jolie/filles-de-la-croix-communaute-du-val-fourre-"
15117,"Mantes la Jolie (Franciscaines Réparatrices de Jésus Hostie)","FR","Mantes la Jolie",,"78200","48 rue de la Sangle","2018-04-07 11:25:11","2018-04-07 11:25:11","https://lh3.googleusercontent.com/0DGL7D4FolxY9INzQ4dmRlElM6wvZYiTJxMRhYGdV7cE33zMvufm2zB3ssUevhsY-mI-bL_dDdQXebr0rO7oVIA=s85",,48.9889384,1.7197171,,"maison religieuse","",17125,"78/mantes-la-jolie/franciscaines-reparatrices-de-jesus-hostie"
15118,"Mantes la Jolie (Saint Jean Baptiste du Val Fourré)","FR","MANTES LA JOLIE",,"78200","2 rue de la Fontaine","2018-04-07 11:25:11","2018-04-07 11:25:11","https://lh3.googleusercontent.com/3frdsT1fKxmPdvt-TwzuOfkw-qVxhMwhqMq4V1-tfgYNGpcjLtcpOZYPkxrEUyUFbB9Ii9A7h5caK5QnyA-UQOo=s85",,48.99879449,1.68644981,,"eglise","",17125,"78/mantes-la-jolie/saint-jean-baptiste-du-val-fourre"
15119,"Mantes la Jolie (Sainte Anne de Gassicourt)","FR","MANTES LA JOLIE",,"78200","11 impasse sainte Anne","2018-04-07 11:25:11","2018-04-07 11:25:11","https://lh3.googleusercontent.com/tE1nw-RZb6i4E3aWXwXywJyBzaNkBgqxEkQTuoKlmSOVW1ZY_ggnpxR_9ghbf0xRrpFQV_0S_FNdNxzyka5wIzo=s85",,49.0022702,1.698162,,"eglise","",17125,"78/mantes-la-jolie/sainte-anne-de-gassicourt"
15120,"Chapelle Paroissiale","FR","LE PORT MARLY",,"78560","27 route de Versailles","2018-04-07 11:25:11","2018-04-07 11:25:11","",,48.8774888,2.1066881,,"chapelle","",17126,"78/le-port-marly/chapelle-paroissiale"
15121,"Chapelle Sainte Amélie","FR","LE PECQ",,"78230","1 avenue de Granchamp","2018-04-07 11:25:11","2018-04-07 11:25:11","https://lh3.googleusercontent.com/shUn0PaKcecSRlVOLBAHlW5mgKn8ZhoYQnhTVGYEctHJSFd1rPiHrDDKaFd_stPDCZXqPcy5iN_6U71lnMM-XLs=s85",,48.8858497,2.0953506,,"chapelle","",17126,"78/le-pecq/chapelle-sainte-amelie"
15122,"Saint Louis","FR","LE PORT MARLY",,"78560","42 Route de Versailles","2018-04-07 11:25:11","2018-04-07 11:25:11","https://lh3.googleusercontent.com/J1w0ZnZtSh9h83XB-PGP_G6xcPwgsURgau_PPHeCK7dhZQFLlv4o6HKvwO8B4fQlRv0nvTryVkOpLST3oOnThV1X=s85",,48.8777183,2.1066463,,"eglise","",17126,"78/le-port-marly/saint-louis"
15123,"St-Thibaut (Saint Thibaut)","FR","LE PECQ",,"78230","58 bis avenue du Président Kennedy","2018-04-07 11:25:11","2018-04-07 11:25:11","https://lh3.googleusercontent.com/7MWyn2fAegONb7PZkKsb9IA7mdvGFn4ArwNO7cZQiCY8IBBSePj08exa-BvQI7HCOiz7MzZoCuyV1jS8tcCbRQ=s85",,48.8781587,2.0969179,,"eglise","",17126,"78/le-pecq/saint-thibaut"
15124,"St-Vigor ","FR","MARLY LE ROI",,"78160","17 bis rue de Saint Cyr","2018-04-07 11:25:11","2018-04-07 11:25:11","https://lh3.googleusercontent.com/dpn1YunlrWHVRJndJUC8lW2BcGBfSX-D5eihrxQ188_VUYCJNWK3XxE9GUbVtVY4mL0SCRnV7ElaTk2JrOZocCE=s85",,48.8652316,2.094577,,"eglise","",17126,"78/marly-le-roi/saint-vigor"
15125,"Ste-Anne (Sainte Anne)","FR","L'ETANG LA VILLE",,"78620","2 rue Jean Mermoz","2018-04-07 11:25:11","2018-04-07 11:25:11","https://lh3.googleusercontent.com/YnziDR7WbGFvYmo7J9b8SuUodg529fLpHeYE0Wku3OIirdA8eexWOT2Fu6VQP2V0vyECu0veTgGrn7j3qbq74Q=s85",,48.8702172,2.0737953,,"eglise","",17126,"78/l-etang-la-ville/sainte-anne"
15126,"Assomption de la Très Sainte Vierge (Montainville)","FR","MONTAINVILLE",,"78124","Rue du Pressoir, croisement Ruelle de l’église ","2018-04-07 11:25:11","2018-04-07 11:25:11","https://lh6.ggpht.com/DdemrDhsKWrpJu7wCPYtj0LcWCjiaEFiykCh93W9fONdrsrvoTW18plFIFh-VF8c_ShLhLc632hHYUvKBvlG-8PrBksdnOYilpmhnTNW=s85",,48.8823758,1.8612909,,"eglise","",17127,"78/montainville/assomption-de-la-tres-sainte-vierge"
15127,"Saint Clair (Herbeville)","FR","HERBEVILLE",,"78580","6  Rue Saint-Clair","2018-04-07 11:25:11","2018-04-07 11:25:11","",,48.9060538,1.8871983,,"eglise","",17127,"78/herbeville/saint-clair"
15128,"Saint Etienne (Aulnay sur Mauldre)","FR","AULNAY SUR MAULDRE",,"78126","4 place de l’église","2018-04-07 11:25:11","2018-04-07 11:25:11","",,48.9296567,1.8418146,,"eglise","",17127,"78/aulnay-sur-mauldre/saint-etienne"
15129,"Saint Illiers (Bazemont)","FR","BAZEMONT",,"78580","Rue des écoles croisement Rue d’Aulnay","2018-04-07 11:25:11","2018-04-07 11:25:11","",,48.9299934,1.8599798,,"eglise","",17127,"78/bazemont/saint-illiers"
15130,"Saint Martin (Beynes)","FR","BEYNES",,"78650","église - 4 Place St Martin ","2018-04-07 11:25:11","2018-04-07 11:25:11","https://lh5.ggpht.com/KxozvhBIkFAoNsWSHaHXpF5cSR19itQZWtnQPbQOGihPbe-kS_kguE2PNLmM6YZ8jmrouQcry0YVHczS_4lwqj3JxRMmoK1CzhS_-ie4=s85",,48.852845,1.874855,,"eglise","",17127,"78/beynes/saint-martin"
15131,"Saint Martin (Mareil sur Mauldre)","FR","MAREIL SUR MAULDRE",,"78124","Place de l'église","2018-04-07 11:25:11","2018-04-07 11:25:11","",,48.8823758,1.8612909,,"eglise","",17127,"78/mareil-sur-mauldre/saint-martin"
15132,"Saint Martin (Thiverval-Grignon)","FR","THIVERVAL GRIGNON",,"78850","Grande Rue et croisement Rue de Crespières","2018-04-07 11:25:11","2018-04-07 11:25:11","https://lh5.ggpht.com/2Ym5qMx4DgIDAFaxGG953C26vVFNIbIXg1KkyOjTGZc2BqdmrOdhMHwoHlE1gdlF-ZkxcA6ryJpMaFBWzvgi0pNArI0BxxnPBEViV__4=s85",,48.8525833,1.9110034,,"eglise","",17127,"78/thiverval-grignon/saint-martin"
15133,"Saint Nicolas (Les Alluets le Roi)","FR","LES ALLUETS LE ROI",,"78580","église - 2 rue St Nicolas","2018-04-07 11:25:11","2018-04-07 11:25:11","https://lh3.ggpht.com/pOBkJPWS4j-z-zfHxxDgseWU7k4XRgWMEtZ0NzJFW5QhCESRCMd4dY_lSUM5kd8cS5rh5KpBAjxLiSHlkgilZhJ9lXkFylG61TcJOEp9Xw=s85",,48.91366,1.918995,,"eglise","",17127,"78/les-alluets-le-roi/saint-nicolas"
15134,"Saint Nicolas (Maule)","FR","MAULE",,"78580","église : Place de la Mairie","2018-04-07 11:25:11","2018-04-07 11:25:11","https://lh5.ggpht.com/00r7aoIcSVb-BPSZmv88JolyDQMsG5K6F52DK7P9_0_X3JqmJ9lWFmHThdMGHjKWzFVilN4Fu_pFg7UXHFohV6Y4pA2B3gzA-HePAIrj=s85",,48.909119,1.8491831,,"eglise","",17127,"78/maule/saint-nicolas"
15135,"Assomption de la Très Sainte Vierge","FR","EVECQUEMONT",,"78740","","2018-04-07 11:25:11","2018-04-07 11:25:11","https://lh3.googleusercontent.com/JU7YR_SbKF3IDq0B5CuCBOgyaEh7X-aaVIcGP1cG2XkYhnuuZvKpk2ayYQ5a0fy-6ueLP6x0QBd02P9nbywbhw=s85",,49.0159409,1.9447783,,"eglise","",17128,"78/evecquemont/assomption-de-la-tres-sainte-vierge"
15136,"Assomption de la Très Sainte Vierge","FR","GAILLON SUR MONTCIENT",,"78250","8 rue de Montcient","2018-04-07 11:25:11","2018-04-07 11:25:11","https://lh3.googleusercontent.com/wThW_S_QmPonMKt6zJvjJli2NAWhz7IScAC5LwpnptAFGPRQh2ecLYGjyM9zGnM-y1Cgd-eqJG8AxcJIhfGYixM=s85",,49.0242812,1.892427,,"eglise","",17128,"78/gaillon-sur-montcient/assomption-de-la-tres-sainte-vierge"
15137,"Chapelle Sainte Jeanne d'Arc","FR","TRIEL SUR SEINE",,"78510","L'Hautil","2018-04-07 11:25:11","2018-04-07 11:25:11","https://lh3.googleusercontent.com/qb-BdS1t_kRKh5KMmoOZTuDmclxYwmfGG7gzyvzWPmSguDkhSNcRq3W8vWt4J2y8UNHy7-Lvy0UpwA6PJDbpS7U=s85",,49.00253017,2.01164603,,"chapelle","",17128,"78/triel-sur-seine/chapelle-sainte-jeanne-d-arc"
15138,"Chapelle Sainte Rita","FR","VAUX SUR SEINE",,"78740","85 rue du Général De Gaulle","2018-04-07 11:25:11","2018-04-07 11:25:11","",,49.0033537,1.9703347,,"chapelle","",17128,"78/vaux-sur-seine/chapelle-sainte-rita"
15139,"Saint Germain de Paris","FR","HARDRICOURT",,"78250","","2018-04-07 11:25:11","2018-04-07 11:25:11","https://lh3.googleusercontent.com/-6hk11Oyo7jZ_w_00jRxwG7LxlvdxXjqLfVCNkFe9NtVfhbIqGU0m5k-rlSE9TD5yfqcyC45aTNXZiZsKsUMWsA=s85",,49.0080089,1.8940237,,"eglise","",17128,"78/hardricourt/saint-germain-de-paris"
15140,"Saint Germain de Paris","FR","MEZY SUR SEINE",,"78250","17 rue du Chaud Soleil","2018-04-07 11:25:11","2018-04-07 11:25:11","https://lh3.googleusercontent.com/5uTejjkakWny34wc7tsZlTeQ-cxfnVvROIn_6aDJ9DjzoSemQbAtBBMy8fBgk2lb43Th6DGm2H6obtf1_AxbvA=s85",,48.999796,1.8842612,,"eglise","",17128,"78/mezy-sur-seine/saint-germain-de-paris"
15141,"Saint Martin","FR","TRIEL SUR SEINE",,"78510","1 place de l'église","2018-04-07 11:25:11","2018-04-07 11:25:11","https://lh3.googleusercontent.com/Zy3VN076o9COr_5lXR4m08sczJwpuH8tuedxvAzh74sCAtUerg9VhVtWkeshzSaj5aTRWKH-JZZi3DbraQzLXUQ=s85",,48.98260401,2.00237632,,"eglise","",17128,"78/triel-sur-seine/saint-martin"
15142,"Saint Michel","FR","JUZIERS",,"78820","18 rue de l'église","2018-04-07 11:25:11","2018-04-07 11:25:11","https://lh3.googleusercontent.com/i9sJE_niHAGoR14fSzaXx7v9e8ZHtQDqejXp-AMn4m2qO_5tkn5n1J_kKi5envDwIb-UoDzSE2EyNRa7XFaLXGR7=s85",,48.9918459,1.8586459,,"eglise","",17128,"78/juziers/saint-michel"
15143,"Saint Nicolas","FR","MEULAN",,"78250","23 Côte Saint Nicolas","2018-04-07 11:25:11","2018-04-07 11:25:11","https://lh3.googleusercontent.com/VYgZIk5rA1DpbxCXe0C39tKDnHB08xNWSCoZvD8nS5CrSEwAGrrU5KTmm6T0Oq7VpHZyyq53c2oGBrXtPWwxYQ=s85",,49.0060295,1.907898,,"eglise","",17128,"78/meulan/saint-nicolas"
15144,"Saint Nicolas","FR","TESSANCOURT SUR AUBETTE",,"78250","","2018-04-07 11:25:11","2018-04-07 11:25:11","https://lh3.googleusercontent.com/a9MzVnUdxE2qTXcrLrt9HLCcEbd1U_tNa3k37kjXAPOXlwNxrVhvbhOJ7KB1H7HyVc7HWuNZDOqhf9OYSwgZCA=s85",,49.024261,1.9202934,,"eglise","",17128,"78/tessancourt-sur-aubette/saint-nicolas"
15145,"Saint Pierre Es Liens","FR","VAUX SUR SEINE",,"78740","rue de l'Eglise","2018-04-07 11:25:11","2018-04-07 11:25:11","https://lh3.googleusercontent.com/gIMfiRAP_qRIsNB3YDbVLabiDHi277fo2JHaWh1bjr8rXSXLEp5-b6lMqSXE5nJNL_rmfClXmgZr9cQGEbmXzyGS=s85",,49.0092266,1.9556726,,"eglise","",17128,"78/vaux-sur-seine/saint-pierre-es-liens"
15146,"Assomption de la Très Sainte Vierge","FR","MONTESSON",,"78360","2 rue du Général Leclerc","2018-04-07 11:25:11","2018-04-07 11:25:11","https://lh3.googleusercontent.com/KC1F2PLpK4DkjpNLWPxHj4aNxUIZe2cuqClOZhYDuTxfsuctUnSo_T6XX5rs3H1aatonTf3Pno4vIceCRNXK19U=s85",,48.9078552,2.149713,,"eglise","",17129,"78/montesson/assomption-de-la-tres-sainte-vierge"
15147,"CAP St Jacques","FR","GUYANCOURT",,"78280","67 route de Troux","2018-04-07 11:25:11","2018-04-07 11:25:11","",,48.7770388,2.0489951,,"","",17130,"ve/78/montigny-voisins/1177755829"
15148,"Nativité de la Très Sainte Vierge","FR","VOISINS LE BRETONNEUX",,"78960","2 rue Héléne Boucher","2018-04-07 11:25:11","2018-04-07 11:25:11","https://lh3.googleusercontent.com/jm85eewc9UDeI74JH7NPwKgsQQ8zmkluBcI0g8K0lymwM4kwoCYdyKaDL-nRC7ZXUR-i8fGi4ASn2M3j68cNJoo=s85",,48.7581663,2.0507945,,"eglise","",17130,"78/voisins-le-bretonneux/nativite-de-la-tres-sainte-vierge"
15149,"Saint Martin","FR","MONTIGNY LE BRETONNEUX",,"78180","5 rue Saint-Martin","2018-04-07 11:25:11","2018-04-07 11:25:11","https://lh3.googleusercontent.com/461yRU6SH-tILRF1Np9xQW7F-Ek-Wxw6CsQFj0_WHg-EeokkCbnZLE0GwgXlwhDbb6VnSW9keiJ9OO64ZgUa4Ds=s85",,48.7709579,2.0282724,,"eglise","",17130,"78/montigny-le-bretonneux/saint-martin"
15150,"Saint Pierre du Lac","FR","MONTIGNY LE BRETONNEUX",,"78180","56 avenue Joseph Kessel","2018-04-07 11:25:11","2018-04-07 11:25:11","https://lh3.googleusercontent.com/EDVmTHdWlZKuHHjKZtOeFFHhOBfOOgeH4R4RlVBIkbeURgn_bLVKaS_Qw7fZl4AZcBf_E-_oScrhGHL3upXgyAo=s85",,48.7704734,2.0467607,,"eglise","",17130,"78/montigny-le-bretonneux/saint-pierre-du-lac"
15151,"Saint Frédéric","FR","VILLIERS SAINT FREDERIC",,"78640","","2018-04-07 11:25:12","2018-04-07 11:25:12","https://lh3.googleusercontent.com/E8kiRznzFfmW1Txfwk41HKqhN-uausam5gaUcZ7Tv6NslpTqmvPkrrL-CO8LKSqd9_19d2-naGeId8xIcj3n0w=s85",,48.8214735,1.8881846,,"eglise","",17131,"78/villiers-saint-frederic/saint-frederic"
15152,"Saint Lin","FR","JOUARS PONTCHARTRAIN",,"78760","12, rue de Neauphle","2018-04-07 11:25:12","2018-04-07 11:25:12","https://lh3.googleusercontent.com/Y_qrIvtX3rFWte28t3M8OsYI-_zwW4I8HMAO-AI8M6VwjM1D8qht_DNH7aDIimcech3QxKp0ux7qpLaPHcIBWCc=s85",,48.8025574,1.9024187,,"eglise","",17131,"78/jouars-pontchartrain/saint-lin"
15153,"Saint Martin","FR","JOUARS PONTCHARTRAIN",,"78760","","2018-04-07 11:25:12","2018-04-07 11:25:12","https://lh3.googleusercontent.com/T_OKxM_TCLX68zC0rgoqI7Ef24YvypvscQg-fZH8zT9zvzkB-3Adhek1keVJQqqhh361ZE2Q09Rodo37S0Y5JNfG=s85",,48.7889548,1.8980512,,"eglise","",17131,"78/jouars-pontchartrain/saint-martin"
15154,"Saint Nicolas","FR","NEAUPHLE LE VIEUX",,"78640","","2018-04-07 11:25:12","2018-04-07 11:25:12","https://lh3.googleusercontent.com/xdTeM3IxlP3xQV-PTyryVjhFxJ_c1VkkR_kRDO8lRKyLfMOQ5eQ9viq1BLXToFlpX2UABguEV76BJtDszbuXs84=s85",,48.8149779,1.8631481,,"eglise","",17131,"78/neauphle-le-vieux/saint-nicolas"
15155,"Saint Nicolas","FR","NEAUPHLE LE CHATEAU",,"78640","2 place des herbes","2018-04-07 11:25:12","2018-04-07 11:25:12","https://lh3.googleusercontent.com/GBk7K1yS_bx08V_wCSnXFqVFKf_Hv0ONLrzuavviUHgUIO0hKip6ilznkaw9ogqPiUzEWEkBqLfjMmJt1FJuFJg=s85",,48.8131766,1.8997073,,"eglise","",17131,"78/neauphle-le-chateau/saint-nicolas"
15156,"Chapelle Notre Dame des Armées","FR","VERSAILLES",,"78000","4 impasse des Gendarmes","2018-04-07 11:25:12","2018-04-07 11:25:12","https://lh3.googleusercontent.com/VgcuicGXGGbEW6xfHd25cwBGhyjzLonTePq5iA9RL2mB1NkrTvaHj6tcgqNmsm76XboIKugX1AvUryFOfxVHMhc=s85",,48.80053219,2.131002,,"chapelle","",17132,"78/versailles/chapelle-notre-dame-des-armees"
15157,"Saint Léger","FR","MORAINVILLIERS",,"78630","","2018-04-07 11:25:12","2018-04-07 11:25:12","https://lh3.googleusercontent.com/eihkKNGH4U0bSnv5G-8QVgeRPpD0v6VrPV8TSAk1-WBCPsDbkyXx9QUr8ma4OdGXocl0q0eVxcvuGYK_tHFXo4c=s85",,48.92830083,1.93516016,,"eglise","",17133,"78/morainvilliers/saint-leger"
15158,"Saint Pierre Saint Paul","FR","ORGEVAL",,"78630","rue de la Chapelle","2018-04-07 11:25:12","2018-04-07 11:25:12","https://lh3.googleusercontent.com/pAqTVOTVraxKEFEBoE2I604-omGlCGL4YDkUitsMIX81WV7EXJie_0ZxzPKeoBOEqIPFWmqvG-LonP88Ch3k6GU=s85",,48.91957355,1.97610676,,"eglise","",17133,"78/orgeval/saint-pierre-saint-paul"
15159,"Chapelle de l'Hôpital Plaisir Grignon (Hôpital dit ""des Petits-Prés"")","FR","PLAISIR",,"78370","Bat. des Lilas - 220 rue Mansard","2018-04-07 11:25:12","2018-04-07 11:25:12","https://lh3.googleusercontent.com/4wjXEbzfWuEkATnIfg3Q0Pphlmu2Bu10w8vYfoMEK17RzN5losHY_ymEqOoLIHd3x7pxphaBNEUL8d_0dFS5K5o=s85",,48.8266969,1.9385514,,"chapelle","",17134,"78/plaisir/chapelle-de-l-hopital-gms-de-plaisir-grignon"
15160,"Saint Pierre","FR","PLAISIR",,"78370","place St-Pierre","2018-04-07 11:25:12","2018-04-07 11:25:12","https://lh3.googleusercontent.com/hHB2EbovXVIjmOpMUfV3_d8dtYy2LX0_DfyynkraKcsTUio0u60wV1p8UXmJAd3-Q906LhVCDdwSL_uUwYH-eQ=s85",,48.81638606,1.94919513,,"eglise","",17134,"78/plaisir/saint-pierre"
15161,"La Part Dieu","FR","POISSY",,"78300","108,rue de Villiers","2018-04-07 11:25:12","2018-04-07 11:25:12","https://lh3.googleusercontent.com/o18q-XV524x1Dj666VmerBgJc8yrW2UBxikd0mTFFB57IoQc1wGSSm2mfQru4eF4Cs40CShfvAfvfiCFG2tX_yZj=s85",,48.9229913,2.0258686,,"eglise","",17135,"78/poissy/la-part-dieu"
15162,"Notre Dame","FR","POISSY",,"78300","place de l'Eglise","2018-04-07 11:25:12","2018-04-07 11:25:12","https://lh3.googleusercontent.com/epi912sZnn7atm2xDm2EP_mAdG3FPcQYAmPhb5RQ0bXvCiwlC8g8B5PqKba95dZ5AXfpWBE-vdu5AvH20U9cF3E=s85",,48.9296938,2.0384602,,"eglise","",17135,"78/poissy/notre-dame"
15163,"Saint Germain de Paris","FR","MEDAN",,"78670","rue Buquet","2018-04-07 11:25:12","2018-04-07 11:25:12","https://lh3.googleusercontent.com/qg6LXyQAE1HH_Na6bxxTbDQ6rfThRrSDlaCdVZEGlEF4IRTw2XXsb25N_OY-iBtP56w2ALIifYBzPn6jcKhXp7s=s85",,48.9549056,1.9957079,,"eglise","",17135,"78/medan/saint-germain-de-paris"
15164,"Saint Louis de Beauregard","FR","POISSY",,"78300","avenue du Maréchal Lyautey","2018-04-07 11:25:12","2018-04-07 11:25:12","https://lh3.googleusercontent.com/NXYIXx4CUwmtQ3rhlHgILOO1fUZRXTInUtQTDyA4uT4jue7eqF2khxJBrjiNGmKKcZWbZFfapA3fHtlIg8hnVw=s85",,48.92138892,2.02656984,,"eglise","",17135,"78/poissy/saint-louis-de-beauregard"
15165,"Saint Nicolas","FR","VILLENNES SUR SEINE",,"78670","place de l'Église","2018-04-07 11:25:12","2018-04-07 11:25:12","https://lh3.googleusercontent.com/kzKWw6GIR4_ykOWw1EY1cq3_cVSxWe1DpToiPSmri5CLTjVCjXctuUeoCNx6w_LxkBrwPrh7c4m2tswxR8uYzRM=s85",,48.9389252,1.9986996,,"eglise","",17135,"78/villennes-sur-seine/saint-nicolas"
15166,"Sainte Anne","FR","POISSY",,"78300","130,avenue du Maréchal Foch","2018-04-07 11:25:12","2018-04-07 11:25:12","https://lh3.googleusercontent.com/rlYwYyEDcyMO6L1OpgVrRm3z4NkDkauyKR36g4Zxhqm9aIFwLIWedUfcxVErb1RCVcAgFJihms8rj18dV7aSyQ=s85",,48.93220223,2.05574691,,"eglise","",17135,"78/poissy/sainte-anne"
15167,"Chapelle de l'Hôpital","FR","RAMBOUILLET",,"78120","","2018-04-07 11:25:12","2018-04-07 11:25:12","https://lh3.googleusercontent.com/p_EcZQGzkKc0nBeRFG5MAiJj7dT61VewqRj-R6LpAijGzM6yg4uTYM7sxy9fF2RWnOsLAmWzXkwYUzPQ0S1W30M6=s85",,48.6429629,1.8257979,,"chapelle","",17136,"78/rambouillet/chapelle-de-l-hopital"
15168,"Saint Lubin Saint Jean Baptiste","FR","Rambouillet",,"78120","place Jeanne d'Arc","2018-04-07 11:25:12","2018-04-07 11:25:12","https://lh3.googleusercontent.com/4IoFQHbN6UdmhbPUDVV4AcD5iq52OopFqTnHMxfvQ682qiKNB8c0fn8kmoNLEydgLrQ4EngfAEAiYUbWLlVok1o=s85",,48.6466663,1.8237134,,"eglise","",17136,"78/rambouillet/saint-lubin-saint-jean-baptiste"
15169,"Sainte Bernadette de la Louvière","FR","Rambouillet",,"78120","2, rue de la paix","2018-04-07 11:25:12","2018-04-07 11:25:12","https://lh3.googleusercontent.com/nDY8ytS0ILp0oAKvA2CSyN7mxA3CGC107rsJYNSnfg0QMDCeTxYd9MdAyv8Fg6VKzm7t8t-MKvPiYFAr5vjoNw=s85",,48.6437152,1.8372495,,"eglise","",17136,"78/rambouillet/sainte-bernadette-de-la-louviere"
15170,"Assomption de la Très Sainte Vierge","FR","ROCHEFORT EN YVELINES",,"78730","","2018-04-07 11:25:13","2018-04-07 11:25:13","https://lh3.googleusercontent.com/VP85tkOzyZZY66x6THOidS1S44QDIC8lpnFpTjLPKhbZVF3qcXZyn_dAMOpNrBPYnNWBLKEaJRl3-dQLjV57Ew=s85",,48.5854109,1.9882104,,"eglise","",17137,"78/rochefort-en-yvelines/assomption-de-la-tres-sainte-vierge"
15171,"Saint Germain de Paris","FR","PONTHEVRARD",,"78730","","2018-04-07 11:25:13","2018-04-07 11:25:13","https://lh3.googleusercontent.com/g1ul3Z_WS0kp_jZyofFNWRijLr3kj0prSivSbUGp0R-1dD7EsaB5xqsyYHbBgHIdaJ21HFxqp_cYEjh4TDLez9HN=s85",,48.5514194,1.9099214,,"eglise","",17137,"78/ponthevrard/saint-germain-de-paris"
15172,"Saint Germain de Paris","FR","LA CELLE LES BORDES",,"78720","","2018-04-07 11:25:13","2018-04-07 11:25:13","https://lh3.googleusercontent.com/s33wRyvwVyc6EGclM-zKyfYsR_Vi8Wr1uN8e2PfzZsB4CLnZExI6wyTLgsYtmzEGXUuKHf03WgaMpoWI1QoKQm-T=s85",,48.6375589,1.9537565,,"eglise","",17137,"78/la-celle-les-bordes/saint-germain-de-paris"
15173,"Saint Nicolas","FR","SAINT ARNOULT EN YVELINES",,"78730","81  rue du Général de Gaulle","2018-04-07 11:25:13","2018-04-07 11:25:13","https://lh3.googleusercontent.com/fjUvy7X5ySaWsaqT2U-vxGO2NOA_GHm0tJEyp_CO51QJkNjoxZd844ltUc27cPrioM_NZcHIAWu7twAE3wKeETgQ=s85",,48.5714791,1.9389945,,"eglise","",17137,"78/saint-arnoult-en-yvelines/saint-nicolas"
15174,"Saint Nicolas","FR","CLAIREFONTAINE EN YVELINES",,"78120","1, Esplanade de l'Eglise","2018-04-07 11:25:13","2018-04-07 11:25:13","https://lh3.googleusercontent.com/BMV8Vay31XSj6rN5HsFpXv3eLWnU0G-IxD70TQ1ZoD_Z4thB5K_Wl2McexqwlioL9A3EnfGjTFRRC8pIZVWUDg=s85",,48.6380857,1.9521605,,"eglise","",17137,"78/clairefontaine-en-yvelines/saint-nicolas"
15175,"Saint Pierre","FR","LONGVILLIERS",,"78730","","2018-04-07 11:25:13","2018-04-07 11:25:13","https://lh3.googleusercontent.com/MM-Fbnl6RHoxzGoX6BALqIL9535TBEPlyn7liaI3xcUfp3-5jTPDidpuJVoP6Fi4llu6HUoN-JasTXF3Al4CMBw=s85",,48.5785283,1.9915583,,"eglise","",17137,"78/longvilliers/saint-pierre"
15176,"Saint Vincent","FR","BULLION",,"78830","","2018-04-07 11:25:13","2018-04-07 11:25:13","https://lh3.googleusercontent.com/nXKwWQjaz3z19SaZJcDw9xEys5Hm0Mz4qSm4BBslDRaFyRVN4rdObd_4d6TvQ2HVYE5iYujBE0jviPQaDp_YKfRd=s85",,48.6220876,1.9957041,,"eglise","",17137,"78/bullion/saint-vincent"
15177,"Chapelle Sainte Thérèse de l'Enfant Jésus","FR","SAINT CYR L'ECOLE",,"78210","rue de l'Union, quartier de l'Epi-d'Or","2018-04-07 11:25:13","2018-04-07 11:25:13","https://lh3.googleusercontent.com/7QwqUhL5jav7urGb0HBJzM-FoQMk_pkwuStAWGrOYdZdJx3bkUAkaXDdN8pqVqZl3H1hSy_BSqHmXIo_sFKYgOk=s85",,48.806184,2.0662261,,"chapelle","",17138,"78/saint-cyr-l-ecole/chapelle-sainte-therese-de-l-enfant-jesus"
15178,"Relais Saint Martin","FR","SAINT CYR L'ECOLE",,"78210","4 rue du Colonel Fabien","2018-04-07 11:25:13","2018-04-07 11:25:13","https://lh3.googleusercontent.com/9_Jsm-o73pM53SsqKijD0J03PsSyQwM-AMWDGo2M71VQQ2VP2vGIASMCP8K9QwSVnAKeVH9nl1kdqeNuWOWrgq4=s85",,48.8074786,2.0588163,,"eglise","",17138,"78/saint-cyr-l-ecole/relais-saint-martin"
15179,"Saint Cyr (Eglise Saint-Cyr et Sainte-Julitte)","FR","SAINT CYR L'ECOLE",,"78210","2 rue de la République","2018-04-07 11:25:13","2018-04-07 11:25:13","https://lh3.googleusercontent.com/dP9deJ_WEPMDkK0CsuHZEUHCrJwKd1JkwBIXKgfAOHfFhCctlZbkLB4meCD53UVzn0B9nHzKwQ-lRc0go5D7IQc=s85",,48.7993565,2.0649052,,"eglise","",17138,"78/saint-cyr-l-ecole/saint-cyr"
15180,"Chapelle des Augustines","FR","SAINT GERMAIN EN LAYE",,"78100","1 Place Lamant","2018-04-07 11:25:13","2018-04-07 11:25:13","https://lh3.googleusercontent.com/LwmAnP1qjbxNSNA4dF12V3vkAbRyxFqGSLc1EUZAjG3dc5cocp3djBc0HpNddsTqDV6vzK_WbA2sbv4S3z92TA=s85",,48.8969071,2.0848961,,"chapelle","",17139,"78/saint-germain-en-laye/chapelle-des-augustines"
15181,"Chapelle des Franciscaines (Saint Louis)","FR","SAINT GERMAIN EN LAYE",,"78100","89 Avenue Foch","2018-04-07 11:25:13","2018-04-07 11:25:13","https://lh3.googleusercontent.com/ASDnM8TTQPGUYEJoPM4QqEPk6XGCQGQzNqHhuRxkxmLotd807CNpbS2bg7waVN76Fmk_eR76JGxi_vM-BDNPpRVE=s85",,48.9020268,2.0860751,,"chapelle","",17139,"78/saint-germain-en-laye/chapelle-saint-louis"
15182,"Chapelle Hôpital","FR","SAINT GERMAIN EN LAYE",,"78100","20 rue Armagis","2018-04-07 11:25:13","2018-04-07 11:25:13","https://lh3.googleusercontent.com/GBkSnR-ol65HGAmj_3a5NyoW_JmgvUUpBVgbZZ-o3ohnB2deXRKNNXppNDZ-xvYVvDsxGaI4mFCeel8TxDuR=s85",,48.8976059,2.0856454,,"chapelle","",17139,"78/saint-germain-en-laye/chapelle-hopital"
15183,"Saint Germain","FR","SAINT GERMAIN EN LAYE",,"78100","4 Place Charles de Gaulle","2018-04-07 11:25:13","2018-04-07 11:25:13","https://lh3.googleusercontent.com/kmvZ6I447uNFXbm-DX2uKVbL847TfGMMAqFm5Ctr9caIeswyaNNXBbspyGQnK_pOwIdhrBe5RffMJAZpXcl2Mhl6=s85",,48.8970786,2.0956106,,"eglise","",17139,"78/saint-germain-en-laye/saint-germain"
15184,"Chapelle du Carmel","FR","SAINT GERMAIN EN LAYE",,"78100","15 rue de Bouflers","2018-04-07 11:25:13","2018-04-07 11:25:13","https://lh3.googleusercontent.com/82aQC1PJ74jGyfXRzXMtz9SJROcYjdHe5IGE_S6u0cue3a06eV_GJpb0FNdzbTng_n6uBcbPjsIi2_JuiHJLlfQ=s85",,48.8987609,2.0743535,,"chapelle","",17140,"78/saint-germain-en-laye/chapelle-du-carmel"
15185,"Saint Léger","FR","SAINT GERMAIN EN LAYE",,"78100","20 rue de la Maison Verte","2018-04-07 11:25:13","2018-04-07 11:25:13","https://lh3.googleusercontent.com/Gwl0RYly8xt6Z_P7S2Cm-grZAqzwcec-9RvODKMb4YhzeUOWeRKwRiwZjkB4UVoQGiIbh0c5tTpGoVNtl84rbA0=s85",,48.8933032,2.0802942,,"eglise","",17140,"78/saint-germain-en-laye/saint-leger"
15186,"Sainte Cécile","FR","SAINT GERMAIN EN LAYE",,"78100","Boulevard Hector Berlioz","2018-04-07 11:25:13","2018-04-07 11:25:13","https://lh3.googleusercontent.com/M1ov0wGpTCHixvzBX_DLEbeFTkOtsXLAcQaupMASBC2yZcCKrkgvOyNL9oSu5aHyAfdu4u7aH64dPqCjg2DgRg=s85",,48.8936966,2.0671156,,"eglise","",17140,"78/saint-germain-en-laye/sainte-cecile"
15187,"Cap Saint Jacques","FR","GUYANCOURT",,"78280","67 route de Troux - Les Garennes","2018-04-07 11:25:13","2018-04-07 11:25:13","https://lh4.ggpht.com/bW5vOP62XoaZoHxRRKv6_F1chHK_TF-CWj9wTByNLcA64pjyd5vXMrtx7a7sBKQULJcwnsK-taVAdF37gsmFnLo=s85",,48.762895,2.075323,,"eglise","",17141,"78/guyancourt/cap-saint-jacques"
15188,"Saint Quentin les Sources","FR","MONTIGNY LE BRETONNEUX",,"78180","4 Parvis des Sources","2018-04-07 11:25:13","2018-04-07 11:25:13","https://lh3.googleusercontent.com/3lRHL_E5EsVLXSK2-eiXgZYr3myqE0Qv-qwlugU-Y8IdLXs_C2CAlRoMPIrdlsE_LKMCBjvJ5d_8A16WrjhUQ3w=s85",,48.7819775,2.044711,,"eglise","",17141,"78/montigny-le-bretonneux/saint-quentin-les-sources"
15189,"Saint Victor","FR","GUYANCOURT",,"78280","3 place de l'Eglise","2018-04-07 11:25:13","2018-04-07 11:25:13","https://lh3.ggpht.com/kRJUGh8_LNOKAREpQCBI3QJ7tBLPZhZcfaJIbN9QC73meG64h74Se1fty5cDzWuKQICRNydjrc6WRKjLg56PHw=s85",,48.771591,2.0698655,,"eglise","",17141,"78/guyancourt/saint-victor"
15190,"Saint Martin (Crespières)","FR","CRESPIERES",,"78121","Place de l'église","2018-04-07 11:25:13","2018-04-07 11:25:13","https://lh3.googleusercontent.com/oQl3FiYfkxgUL1R4A5TqNkvchSbq7uwUwc7VG9A-9rYlAJEaWHnew0l4WhCfOMuj-39ITnPigjDlG_InFuY4wA=s85",,48.8817475,1.9241064,,"eglise","",17142,"78/crespieres/saint-martin"
15191,"Saint Nom","FR","SAINT NOM LA BRETECHE",,"78860","2bis, rue Charles de Gaulle","2018-04-07 11:25:13","2018-04-07 11:25:13","https://lh3.googleusercontent.com/n8Bd-M00FC-z1iQs3NnqdyMOn_Vcl_E3h7MUnODm9SCq8J8VLqr7LILfPouj-ZHjbADNXIUg9f2lRPiGET7hVfI=s85",,48.8565065,2.0171855,,"eglise","",17142,"78/saint-nom-la-breteche/saint-nom"
15192,"Saint Pierre","FR","CHAVENAY",,"78450","Rue de la Mairie","2018-04-07 11:25:13","2018-04-07 11:25:13","https://lh3.googleusercontent.com/aYivww4Ggyu909NsPy2QoV8p3XGV3-Gclp3s1XU8vFHkVJ8XzoF79K4Ooi828jNXgvixHirky2Fey29cloykoys=s85",,48.852962,1.9871559,,"eglise","",17142,"78/chavenay/saint-pierre"
15193,"Sainte Geneviève (Feucherolles)","FR","FEUCHEROLLES",,"78810","église - Grande Rue croisement Rue de l'étang","2018-04-07 11:25:13","2018-04-07 11:25:13","https://lh3.googleusercontent.com/DfKGLqSzJSyO2USnyCX55Zg9UaXn5-yG6hWbX4sJeJ1MKvaN-gBLLWmy8Vw2A4MEAfORCbl3Fttd-Vh0Gleoe5c6=s85",,48.8740009,1.9674887,,"eglise","",17142,"78/feucherolles/sainte-genevieve"
15194,"Sainte Madeleine (Davron)","FR","DAVRON",,"78810","Place de l'église","2018-04-07 11:25:13","2018-04-07 11:25:13","https://lh3.googleusercontent.com/p9Vy_BvvFjPEHMhgyj9t2OFykkLJAXuosaQL6-RLhIPk1OgT65zyXfQe7NDnpdZ0AX2qqEP2vOGnhgQE3snTjg=s85",,48.8660977,1.9405294,,"eglise","",17142,"78/davron/sainte-madeleine"
15195,"Saint Joseph","FR","SARTROUVILLE",,"78500","50-52 rue Jules Ferry","2018-04-07 11:25:14","2018-04-07 11:25:14","https://lh3.googleusercontent.com/BTVc4wIcGfYLs6gwEn_KFAnlmPOwzXigekHvK_qRE17zIzaX82t1yGFcdJ6zOm2CxX1QU0n5zuBVgSCTt_RVFQ=s85",,48.9339568,2.1546675,,"eglise","",17143,"78/sartrouville/saint-joseph"
15196,"Jean XXIII","FR","SARTROUVILLE",,"78500","59 rue Clemenceau","2018-04-07 11:25:14","2018-04-07 11:25:14","https://lh3.googleusercontent.com/-Y2Cmvc0dGXCkumcfFv2_Z6MQpTAyL3eUne4v_oKwCkkSGwPiP3QRrZAx3u_kz5oi2zF8J1weRul4Oq3AeriDz7p=s85",,48.9421408,2.1980027,,"eglise","",17144,"78/sartrouville/jean-xxiii"
15197,"Notre Dame du Val","FR","SARTROUVILLE",,"78500","50 rue Pierre Brossolette","2018-04-07 11:25:14","2018-04-07 11:25:14","https://lh3.googleusercontent.com/ysSOGivQdGkb4dcs45RGFo4MjV4EMNonxaylKz2tutQ7BeXlB_MV5r9cLP6Phpda_tIwsI_ONTAYo0zjBbbQKhQ=s85",,48.9391526,2.1978907,,"eglise","",17144,"78/sartrouville/notre-dame-du-val"
15198,"Saint Martin","FR","SARTROUVILLE",,"78500","1 place du Champ de Mars","2018-04-07 11:25:14","2018-04-07 11:25:14","https://lh3.googleusercontent.com/Li9a-LZkE-AizRQ6f9ZNyHLAxTJUM-VOpnxDuLXhYnZW5luhT10UfgqDXiCmiFuTBG-XF6xKOndhPZZunFEivck=s85",,48.9449422,2.1726658,,"eglise","",17144,"78/sartrouville/saint-martin"
15199,"Saint Aignan (Arnouvilles lès Mantes)","FR","ARNOUVILLE LES MANTES",,"78790","Arnourville Les Mantes","2018-04-07 11:25:14","2018-04-07 11:25:14","https://lh3.googleusercontent.com/uR8ZxGmZm0uvQnEcaQN70NHxhW-AqRCueYPQZe6vNA9SNUQk-fMtG51_JTYtxjp4kMFHB4LuOcwUNvvNuas-zAU=s85",,48.9106796,1.7314984,,"eglise","",17145,"78/arnouville-les-mantes/saint-aignan"
15200,"Saint André (Hargeville)","FR","HARGEVILLE",,"78790","Hargeville Place de l'Eglise","2018-04-07 11:25:14","2018-04-07 11:25:14","https://lh3.googleusercontent.com/j0Q8d2udTUCAn8BSMdL9POTokJNBRe2VOEnMAvCWBkTdRhaiz7Ozoby8o-8HfVtMaPJueffLgz9Oh0RX7vfUYA=s85",,48.8906792,1.7408762,,"eglise","",17145,"78/hargeville/saint-andre"
15201,"Saint Cloud (Courgent)","FR","COURGENT",,"78790","Courgent","2018-04-07 11:25:14","2018-04-07 11:25:14","https://lh3.googleusercontent.com/hl6WcPMp1idtWnLBp0JIMxjmcxp40s7-aFMedCurUPrtjOXgZPINWNYZ1EBFQQ7pCikbe3MjSWERgTX-D9dsRaA=s85",,48.8935204,1.6591748,,"eglise","",17145,"78/courgent/saint-cloud"
15202,"Saint Cloud (Osmoy)","FR","OSMOY",,"78910","","2018-04-07 11:25:14","2018-04-07 11:25:14","https://lh3.googleusercontent.com/Ggiz7lQcy2PR0CVc6zlO7zzvVQElQERqQo1I7BPhm4DSYnuVQH_7POPXiceInw2qRH9JfrYzqeoWGIICgHbtrsI=s85",,48.862447,1.715326,,"eglise","",17145,"78/osmoy/saint-cloud"
15203,"Saint Denis (Goussonville)","FR","GOUSSONVILLE",,"78930","Goussonville","2018-04-07 11:25:14","2018-04-07 11:25:14","https://lh3.googleusercontent.com/dQy1YD0gTt5XIYG09whIrKup7ywtUbAkKxhdPknNnvVx8rg0hOJdIkLgjcXggHfgAYX9wyHQzkjoWtE5tc67Fw=s85",,48.9187952,1.7659521,,"eglise","",17145,"78/goussonville/saint-denis"
15204,"Saint Etienne (Mulcent)","FR","MULCENT",,"78790","Mulcent","2018-04-07 11:25:14","2018-04-07 11:25:14","https://lh3.googleusercontent.com/Hn2G5UksXsqlF-FvvHZE_YfJo4KmHKdXIfsaQmmZbaCb5TOOiWOWcS3vckUHnDxkxSgSSlBrNUAMCrD_ILSb6xY=s85",,48.878866,1.652045,,"eglise","",17145,"78/mulcent/saint-etienne"
15205,"Saint Germain (Vert)","FR","VERT",,"78930","Vert","2018-04-07 11:25:14","2018-04-07 11:25:14","https://lh3.googleusercontent.com/lJulBmvKZlHnBsP4QkTRlDuxSRID3qROk-CjM-6HQ_V9I0453aoOcnRhhzaE2U_iOzg6ziJW7UmALQ6KZju-Gg=s85",,48.9409905,1.6892627,,"eglise","",17145,"78/vert/saint-germain"
15206,"Saint Martin (Boinville en Mantois)","FR","BOINVILLE EN MANTOIS",,"78930","Boinville en Mantois","2018-04-07 11:25:14","2018-04-07 11:25:14","https://lh3.googleusercontent.com/JnxggUzwufTJCXuBTc2URzy52eGrQ7NZjpGHF9fKEckwU9ocnPu2FJBe09bmJNLUNhSNEu6DCKswKHk5gW63z5F_=s85",,48.9297943,1.7567088,,"eglise","",17145,"78/boinville-en-mantois/saint-martin"
15207,"Saint Martin (St Martin des Champs)","FR","SAINT MARTIN DES CHAMPS",,"78790","St Martin des Champs","2018-04-07 11:25:14","2018-04-07 11:25:14","https://lh3.googleusercontent.com/rWn2egquavnWeVlby8xFbU7pnwTGfq-ZlrHE-pm3bqk-WUl_IG_n3Uw35WnHhK4q4fh9pP1pw7eWP--SCV6M9Q=s85",,48.8815874,1.7176082,,"eglise","",17145,"78/saint-martin-des-champs/saint-martin"
15208,"Saint Martin (Villette)","FR","VILLETTE",,"78930","Villette","2018-04-07 11:25:14","2018-04-07 11:25:14","https://lh3.googleusercontent.com/HozSxNuwqF2fEi8Lh4omWgboTSjjmI4VT9-gz5YsNwriDYaBe3iBz85AV_1cS6J2IiLq8jzVttA3fXBm_fMnOXA=s85",,48.9300626,1.6901971,,"eglise","",17145,"78/villette/saint-martin"
15209,"Saint Nicolas (Septeuil)","FR","SEPTEUIL",,"78790","12, Place de l'Eglise","2018-04-07 11:25:14","2018-04-07 11:25:14","https://lh3.googleusercontent.com/ie-eX_eWN0Oc47RlYX2k11Kpz0b8Q2CS2pgFNwXlUGessFq8-Jj3q9WQt5J-zs7zn_lA0VAVDM1j_COiMVq8MQ=s85",,48.8931805,1.6806888,,"eglise","",17145,"78/septeuil/saint-nicolas"
15210,"Saint Pierre Es Liens (Jumeauville)","FR","JUMEAUVILLE",,"78580","Jumeauville","2018-04-07 11:25:14","2018-04-07 11:25:14","https://lh3.googleusercontent.com/aFcRfpvtxDeS1Mh8nPXiPuStrZ-hYd--8ZekaN0smqRnl77HimQpeJ5ChnJcuhU0uq25Mtc_k7Uan6mj97EtYAI=s85",,48.9105399,1.7874944,,"eglise","",17145,"78/jumeauville/saint-pierre-es-liens"
15211,"Sainte Anne (Rosay)","FR","ROSAY",,"78790","","2018-04-07 11:25:14","2018-04-07 11:25:14","https://lh3.googleusercontent.com/59sAf1kBlrE2YYi7zM4t-djQDkOveN4zzKCLqdu6wTn4ai9WaYeVPG_BwL6Z3cEwig65SICiKhtUR5bG80Jwzg=s85",,48.915291,1.679647,,"eglise","",17145,"78/rosay/sainte-anne"
15212,"Saint Georges","FR","TRAPPES",,"78190","25 rue de Montfort","2018-04-07 11:25:14","2018-04-07 11:25:14","https://lh3.googleusercontent.com/oIH7G0eOt6BSdwYpCbriwX06XOz1spb4JpBbj0RqNedwEtq-x97KEj6-SG70_-B4lHxFvRIl6mTBuy4fv2OrpDUP=s85",,48.7800272,1.9958497,,"eglise","",17146,"78/trappes/saint-georges"
15213,"Assomption de la Très Sainte Vierge","FR","MILON LA CHAPELLE",,"78470","","2018-04-07 11:25:14","2018-04-07 11:25:14","https://lh3.googleusercontent.com/YmyQbwY6X-DYbuqFDK6bKHlR4edY0zFSu6DK5RVW4JDthSDzqyYUMh4-ocRii8ionQPB5HHDE9ghApfyYvGDBFld=s85",,48.7265215,2.048881,,"eglise","",17147,"78/milon-la-chapelle/assomption-de-la-tres-sainte-vierge"
15214,"Saint Brice","FR","CERNAY LA VILLE",,"78720","Place de l'Eglise","2018-04-07 11:25:14","2018-04-07 11:25:14","https://lh3.googleusercontent.com/WTbFd71BZ9VM-nI1w4trp3t6vZoMXI0ksjzlfwq8yz3WR_XGH2HwQYNn-fSrmdeWfOkNPRNIVLBhTDXbTEdiQS8=s85",,48.6729438,1.9716176,,"eglise","",17147,"78/cernay-la-ville/saint-brice"
15215,"Saint Denis","FR","SENLISSE",,"78720","","2018-04-07 11:25:14","2018-04-07 11:25:14","https://lh3.googleusercontent.com/IeAyj_YDgsx5l8ZCe6BcmkABpOjcOBN06PtmN5nTy0d-F9AXwPJrPPbU_U4ZvrmHQ-NhOAczFF-yHYcBedM9ijb3=s85",,48.6875811,1.980987,,"eglise","",17147,"78/senlisse/saint-denis"
15216,"Saint Féréol","FR","SAINT FORGET",,"78720","11 route de Dampierre","2018-04-07 11:25:14","2018-04-07 11:25:14","https://lh3.googleusercontent.com/vgua-NJDDdIpLaIWw9UIUP2Pdpf7i8qdts3IJtdoFDPn67xGMizmb8XskV0x3Kr1dKoKiVE3Ic5euOSvlw7mw_A=s85",,48.7039592,2.010763,,"eglise","",17147,"78/saint-forget/saint-fereol"
15217,"Saint Jean Baptiste","FR","CHOISEL",,"78460","Place de l'église","2018-04-07 11:25:14","2018-04-07 11:25:14","https://lh3.googleusercontent.com/BKmgxV_dOJOvzP9d3utSHlc0TWefTKHDNC6wxFjo4CnK55rQ5rdZdgiUYX9WhTC6_vySY-Te8wLMIn08xXUiABI=s85",,48.6872133,2.0185954,,"eglise","",17147,"78/choisel/saint-jean-baptiste"
15218,"Saint Martin","FR","CHEVREUSE",,"78460","Place du Général de Gaulle","2018-04-07 11:25:14","2018-04-07 11:25:14","https://lh3.googleusercontent.com/0HZKAvK48LeW1sxxR778QKO9DBQtxDJ6f_ctya-UQWVUbPDfCRsS9mBAcJujvHPoOeRzCzJgse-mgmXU_NwOGuLb=s85",,48.70827876,2.03977808,,"eglise","",17147,"78/chevreuse/saint-martin"
15219,"Saint Pierre Saint Germain","FR","DAMPIERRE EN YVELINES",,"78720","Place de l'église","2018-04-07 11:25:14","2018-04-07 11:25:14","https://lh3.googleusercontent.com/SjDCPo4t13lJXITi4kmZZSZFMwiwB1sqnQHBXfsWMxLKDjPka44U8JpdI-wEd5gKE1jd-qLdXA3L1d22RRj2GSc=s85",,48.7048971,1.985474,,"eglise","",17147,"78/dampierre-en-yvelines/saint-pierre-saint-germain"
15220,"Saint Remy","FR","SAINT REMY LES CHEVREUSE",,"78470","16 rue de la République","2018-04-07 11:25:14","2018-04-07 11:25:14","https://lh3.googleusercontent.com/ezv0mDBeI8dIMNxXxFsdgltKRoBwJUSFtbItiW2XUTuxK2ufpUqOF3VOMDVx0ANckW4LLP-Xg-TFyZvBC9Er4IBU=s85",,48.7047892,2.0698431,,"eglise","",17147,"78/saint-remy-les-chevreuse/saint-remy"
15221,"Chapelle Notre Dame","FR","VERNEUIL SUR SEINE",,"78480","rue du Chemin Vert","2018-04-07 11:25:14","2018-04-07 11:25:14","https://lh4.ggpht.com/_L66tAqZ6BeEcvdPqKlP5jNvQ29oBvpgiNSOIOfIvMEmM9wW79Zqctq8Qu3D4W_VAAJSjo1EAj4Kg7KnwHIGoTNf3akZ4GRmkffr_BWH=s85",,48.9845308,1.9746616,,"chapelle","",17148,"78/verneuil-sur-seine/chapelle-notre-dame"
15222,"Saint Etienne","FR","VERNOUILLET",,"78540","Place Concha","2018-04-07 11:25:14","2018-04-07 11:25:14","https://lh3.ggpht.com/jWa9wIepZuxOqZ0_dkKAjEfAOd7CdxXVxjsbSGERWwDQ1eHQ3oGj9wL4e5v39c8A8Worq5l1HAr5KNtNa1rSEL4k5dQcv4Vv8ua5LYJMMg=s85",,48.9590265,1.9653692,,"eglise","",17148,"78/vernouillet/saint-etienne"
15223,"Saint Martin","FR","VERNEUIL SUR SEINE",,"78480","Grande Rue","2018-04-07 11:25:14","2018-04-07 11:25:14","https://lh6.ggpht.com/S862x--p4VihkUXB7xQazYVu1T13kK5Rm33zNAEqoEzD0ET1R2gT6JEPmb2oNCcKAJ3mGacrP3rBwRtHtHwZNT5xCLCph9oXAmVRGG04=s85",,48.9808882,1.9754164,,"eglise","",17148,"78/verneuil-sur-seine/saint-martin"
15224,"Cathédrale Saint Louis","FR","VERSAILLES",,"78000","4 place Saint-Louis","2018-04-07 11:25:15","2018-04-07 11:25:15","https://lh3.googleusercontent.com/pje5bX95Ly89G4rR228IujaakZcNCuQCW9iSATIUcIqZxnp3VCVRvD1rwGN9WnfYwCSKf2G61-w0w7xtcT5naska=s85",,48.7986043,2.124889,,"cathedrale","",17149,"78/versailles/cathedrale-saint-louis"
15225,"Chapelle de l'Ermitage","FR","VERSAILLES",,"78000","29 rue de l'Ermitage","2018-04-07 11:25:15","2018-04-07 11:25:15","https://lh3.googleusercontent.com/s3c24sM1H6t5t3KQXhtpLEfKoRcY087kMW1sPk2EmCY_DYgtJY3r9lTLnuJxOGXEHO2m87pBKfNiYtZvK6geIg=s85",,48.8152978,2.1227064,,"chapelle","",17150,"78/versailles/chapelle-de-l-ermitage"
15226,"Chapelle du Château","FR","VERSAILLES",,"78000","Château de Versailles","2018-04-07 11:25:15","2018-04-07 11:25:15","https://lh3.googleusercontent.com/Dh8g7c4LeRnZzWIgkrqX7rgKDSPeXev4BqpYqXxPnZkUcCWW6CKYiKV5jMjEtkbiBwYGeo9_UhywzCu3PBZWWks=s85",,48.804546,2.120962,,"chapelle","",17150,"78/versailles/chapelle-du-chateau"
15227,"Notre Dame","FR","VERSAILLES",,"78000","35 rue de la Paroisse","2018-04-07 11:25:15","2018-04-07 11:25:15","https://lh3.googleusercontent.com/IMMah9EUJEsttcvjMleU_hK8arbOYPHBYWGn1YcVtQec6OJI4LOzb6nWcK6lt1_I69WsDIBa6JolwK2-jD6upks=s85",,48.8074566,2.1288682,,"eglise","",17150,"78/versailles/notre-dame"
15228,"Saint Michel","FR","VERSAILLES",,"78000","rue Yves-Le-Coz","2018-04-07 11:25:15","2018-04-07 11:25:15","https://lh3.googleusercontent.com/2JtABjA28VghQdALaFXkb0j88NEXJCSdAXiw28hZQzRE-RNOfEua83tvaTUSRnTyTOFdFNXdiVU_hMIUFVJjg-A=s85",,48.7943846,2.1549418,,"eglise","",17151,"78/versailles/saint-michel-de-porchefontaine"
15229,"Chapelle du Lycée Sainte Geneviève","FR","VERSAILLES",,"78000","2 rue de l'Ecole-des-Postes","2018-04-07 11:25:15","2018-04-07 11:25:15","https://lh3.googleusercontent.com/oMpjNVnJEQ-wn-QK3sk24TKL1IhB63VLFy4-O0HeKdQYWOYUZcGOf4WXdhnEHqjSddzDsriWja4gRu928Fhrhw8=s85",,48.8036784,2.1553483,,"chapelle","",17152,"78/versailles/chapelle-du-lycee-sainte-genevieve"
15230,"Chapelle du Sacré Coeur","FR","VERSAILLES",,"78000","109 avenue de Paris","2018-04-07 11:25:15","2018-04-07 11:25:15","https://lh3.googleusercontent.com/jev-GZbw_FYx8an7e8lDOEaa5h_fvt06Ev3QiZC2dfrDiSHAUfrpQsox9F3lqJ-7xEnJc3NBnNZzXtEU4l5psA=s85",,48.7988392,2.156356,,"chapelle","",17152,"78/versailles/chapelle-du-sacre-coeur"
15231,"Chapelle Saint François de Sales","FR","VERSAILLES",,"78000","9 rue de l'Ecole-des-Postes","2018-04-07 11:25:15","2018-04-07 11:25:15","https://lh3.googleusercontent.com/PLMycQl7ah4Ets-YX-nbmDeUZRaKvQO7fcRQZ8jWkqEhaIAYhg4Yp4mviG1-ZCLSn8fD5cuZ5NI-qc8j21B_=s85",,48.8032847,2.1567334,,"chapelle","",17152,"78/versailles/chapelle-saint-francois-de-sales"
15232,"Saint Symphorien","FR","VERSAILLES",,"78000","2 place Saint-Symphorien","2018-04-07 11:25:15","2018-04-07 11:25:15","https://lh3.googleusercontent.com/_RsbB_s7s2vBD_JPD51XpgReoDStyW4oSf3dW6fYWmJS8o4pQp1oQZxf-VkEWeOgwUeYvFZagccybAjmnG_OfzE=s85",,48.8045306,2.1464302,,"eglise","",17152,"78/versailles/saint-symphorien"
15233,"Sainte Bernadette","FR","VERSAILLES",,"78000","7 rue Saint-Nicolas","2018-04-07 11:25:15","2018-04-07 11:25:15","https://lh3.googleusercontent.com/bcq7QhP4CE-fr6d6s3eAlhfSkkC9PYvbaXYv7s4iHhf4lrE4ASKUShfpygEyXi_qqqfcEJLjoBm1LeR8xqrsuKZL=s85",,48.8076625,2.1557941,,"eglise","",17153,"78/versailles/sainte-bernadette"
15234,"Sainte Elisabeth de Hongrie (Sainte Elisabeth)","FR","VERSAILLES",,"78000","25 rue des Chantiers","2018-04-07 11:25:15","2018-04-07 11:25:15","https://lh3.googleusercontent.com/3M5uQvPYvkGyklrE0iyX0KW-Uh9iiIYrVj2coatC1aVaj7oTGzyShx9HrBOZORsra0i9moVcthOeP9u17dM2Ewqt=s85",,48.7962427,2.1379576,,"eglise","",17154,"78/versailles/sainte-elisabeth"
15235,"Chapelle Saint Joseph de Glatigny","FR","VERSAILLES",,"78000","29 boulevard de Glatigny","2018-04-07 11:25:16","2018-04-07 11:25:16","https://lh3.googleusercontent.com/22RtlTLAtX9161hXnsF017fY-csEB_wbhKach9RbH3c_yRqIiEwJ2iL96eoeujJl9jIJSOtdGKjBX5lCKsdVZpk=s85",,48.8215988,2.1422705,,"chapelle","",17155,"78/versailles/chapelle-saint-joseph-de-glatigny"
15236,"Eglise Sainte-Jeanne-d'Arc","FR","Versailles",,"78000","place Elisabeth Brasseur","2018-04-07 11:25:16","2018-04-07 11:25:16","https://lh3.googleusercontent.com/J9suCnHZf5K3JHW9n9sxeTLXhMv-Zg0ogSGLy8xUu5NlAxJd8uzIB89_xsfietBJ6z8SpSPpOmCi4mmsH2uzFg=s85",,48.8110402,2.1369261,,"eglise","",17155,"78/versailles/sainte-jeanne-d-arc"
15237,"Saint Germain d'Auxerre","FR","VILLEPREUX",,"78450","Rue de l'Eglise","2018-04-07 11:25:16","2018-04-07 11:25:16","https://lh3.googleusercontent.com/KEKqO_hNGmSV6wQnPP0daa2SpayvaZoLC7dnSrOAPQS7ZylHSb8P4YEDGNVq7aNyVoi52w02wkrLrCbUQcO9iA=s85",,48.83348107,2.01209429,,"eglise","",17156,"78/villepreux/saint-germain-d-auxerre"
15238,"Saint Martin","FR","LES CLAYES SOUS BOIS",,"78340","25 rue Henri-Prou","2018-04-07 11:25:16","2018-04-07 11:25:16","https://lh3.googleusercontent.com/tBmsqtPqY7cXzBdCzcrl_K_TjwFpcwGd0u67NvABPAJTp0jQBw1d6A5NZjXT1VuF3W1vPCiVKfDMqT-VddynC-8=s85",,48.820909,1.983869,,"eglise","",17156,"78/les-clayes-sous-bois/saint-martin"
15239,"Saint Vincent de Paul","FR","VILLEPREUX",,"78450","Place Saint Vincent de Paul","2018-04-07 11:25:16","2018-04-07 11:25:16","https://lh3.googleusercontent.com/xPV9I1m_SWlNS971U8mKqErvcGy45DHPF-BCw3Bq8qqDAla0tDOuiuCzJ1v4gWuwJHGa8F8ibLz6dxTAwf3eSA=s85",,48.8301019,2.005269,,"eglise","",17156,"78/villepreux/saint-vincent-de-paul"
15240,"Notre Dame du Chêne","FR","VIROFLAY",,"78220","28 rue Rieussec","2018-04-07 11:25:16","2018-04-07 11:25:16","https://lh3.googleusercontent.com/L9YebK3lYkgswclJd-w1-armWmiKBSFnow31beRSnbc-3-RST-EtKgaRvESjO21J95yuSO0tT-iy-4P6qLQaPvY=s85",,48.801768,2.1709042,,"eglise","",17157,"78/viroflay/notre-dame-du-chene"
15241,"Oratoire","FR","Viroflay",,"78220","97 avenue Gaston Boissier","2018-04-07 11:25:16","2018-04-07 11:25:16","",,48.7994576,2.1760336,,"","",17157,"ve/78/viroflay/-610240351"
15242,"Saint Eustache","FR","VIROFLAY",,"78220","7 rue Jean Rey","2018-04-07 11:25:16","2018-04-07 11:25:16","https://lh3.googleusercontent.com/UouBciUHv-pQ4tc9-rqMiHYd1-hwLJwFfZFIl6MfnlL6tS3_a3CdxZrvyjSMMuzZYMlC4AYQPA1zevT7vppIyHpA=s85",,48.79911137,2.17145425,,"eglise","",17157,"78/viroflay/saint-eustache"
15243,"Bon Pasteur","FR","Paris",,"75011","177 rue de Charonne","2018-04-07 11:32:08","2018-04-07 11:32:08","",,48.856037,2.392122,,"église paroissiale","",17158,"75/paris/bon-pasteur"
15244,"Cœur-Eucharistique de Jésus","FR","Paris",,"75020","22 rue du Lieutenant-Chauré","2018-04-07 11:32:11","2018-04-07 11:32:11","https://lh3.googleusercontent.com/vpzk7cMf1p0ZjjceAhSrfHhpoHzeQl8RvQbn8qAPXtUkuQohuS9CCkqKT5aRB-4ZS32_LNXwXMOAWwGxGvZTnnpU=s85",,48.8678505,2.4066546,,"église paroissiale","",17159,"75/paris-20/coeur-eucharistique-de-jesus"
15245,"Chapelle des Petites Sœurs des Pauvres","FR","Paris",,"75012","9 bis boulevard de Picpus","2018-04-07 11:32:12","2018-04-07 11:32:12","",,48.8408091,2.4001921,,"chapelle","",17160,"75/paris-12/chapelle-des-petites-soeurs-des-pauvres"
15246,"Immaculée Conception","FR","Paris",,"75012","34 rue du Rendez-vous","2018-04-07 11:32:12","2018-04-07 11:32:12","https://lh3.googleusercontent.com/xFatVrRv758q7KfxJx77CiQOPgNCm4Vppo_or6X9bNRN6O5wK3bpyGGwC_QAqmIvqLvmOMkO5WY4dDmegJFXdwIu=s85",,48.8459405,2.4034749,,"église paroissiale","",17160,"75/paris-12/immaculee-conception"
15247,"Sainte Bernadette","FR","PARIS",,"75012","12 avenue de la Porte de Vincennes","2018-04-07 11:32:12","2018-04-07 11:32:12","",,48.846505,2.4128192,,"eglise","",17160,"75/paris-12/sainte-bernadette"
15248,"Notre-Dame d'Auteuil","FR","Paris",,"75016","Place de l'église-d'Auteuil","2018-04-07 11:32:12","2018-04-07 11:32:12","https://lh3.googleusercontent.com/fwg-9csq8j3_02El4dSx8aPRYUVNV6Fgc0xDKWpQjDzTy7EdACLVIE469BrHQctQksY_vGrCxCWfKr20Qr1FXg=s85",,48.847244,2.268825,,"église paroissiale","",17161,"75/paris-16/notre-dame-d-auteuil"
15249,"Sainte Bernadette","FR","Paris",,"75016","4 rue d'Auteuil","2018-04-07 11:32:12","2018-04-07 11:32:12","",,48.847716,2.2658299,,"eglise","",17161,"75/paris-16/sainte-bernadette"
15250,"Notre-Dame d'Espérance","FR","Paris",,"75011","47 rue de la Roquette","2018-04-07 11:32:12","2018-04-07 11:32:12","",,48.8557086,2.3747333,,"église paroissiale","",17162,"75/paris-11/notre-dame-d-esperance"
15251,"Notre-Dame de Bonne Nouvelle","FR","Paris",,"75002","25 rue de la Lune","2018-04-07 11:32:12","2018-04-07 11:32:12","https://lh3.googleusercontent.com/RDSvSdrXg-PvhmglK66Fmop-aCUSHXAUyfbhDgdd4bb4gKEE1cwZtfa6vUcXgdHs_fZTS99rsZTXZpkS84cf-lE=s85",,48.8697494,2.3496384,,"église paroissiale","",17163,"75/paris-02/notre-dame-de-bonne-nouvelle"
15252,"Notre-Dame de Clignancourt","FR","Paris",,"75018","2 place Jules-Joffrin","2018-04-07 11:32:12","2018-04-07 11:32:12","https://lh3.googleusercontent.com/FN21KpgMeuIMxa_43MSLhEFlJlkUYIBk-E7rz0kUQ1JeJgEcXxuBMCr__k6zwcWoy9yrc9Hzr91R6AKE15cuzA=s85",,48.8926386,2.3451148,,"église paroissiale","",17164,"75/paris-18/notre-dame-de-clignancourt"
15253,"Notre-Dame de Compassion","FR","Paris",,"75017","Place du Général-Koenig","2018-04-07 11:32:12","2018-04-07 11:32:12","https://lh3.googleusercontent.com/HmLEpbq018PGu0GnodI48y33N5glQA_PX8odlQqYoS6AdzVMCJXa8q02yuvDEhkHgPdDk7faVytymAkJK2hJ3vE=s85",,48.8808211,2.2846239,,"église paroissiale","",17165,"75/paris-17/notre-dame-de-compassion"
15254,"Notre-Dame de Grâce de Passy","FR","Paris",,"75016","8-10 rue de l'Annonciation","2018-04-07 11:32:13","2018-04-07 11:32:13","https://lh3.googleusercontent.com/JsFBURd2DfOaHDdXS4DkcM_nCk1vG8eintWce5oiWDs0kLTPGVd5n0efk6FfPJsX80UniMzfRxjo1KyInFn5rw=s85",,48.8562328,2.2800386,,"église paroissiale","",17166,"75/paris-16/notre-dame-de-grace-de-passy"
15255,"Notre-Dame de La Salette","FR","Paris",,"75015","38 rue Cronstadt","2018-04-07 11:32:13","2018-04-07 11:32:13","https://lh3.googleusercontent.com/PPqLSL3UXHHq_QNp1itkOJpaW0LHVm-qLcfEIfSSX8LxlSdubmoiwmvDJA9kMrmTmQf6VsvcJdE81b9umZzdcAU=s85",,48.8337319,2.2999999,,"église paroissiale","",17167,"75/paris-15/notre-dame-de-la-salette"
15256,"Notre-Dame de Lorette","FR","Paris",,"75009","18 bis rue de Châteaudun","2018-04-07 11:32:13","2018-04-07 11:32:13","https://lh3.googleusercontent.com/8W3z_fqnofziXKUC9-irVGyIBs4umRD9M9n_aJ2NHRIwMMJzBc_5NFnoSIrMVqtaVbtspM30z1DlcztuXMcwrdCe=s85",,48.8759634,2.3390661,,"église paroissiale","",17168,"75/paris-09/notre-dame-de-lorette"
15257,"Notre-Dame de Lourdes","FR","Paris",,"75020","130 rue Pelleport","2018-04-07 11:32:13","2018-04-07 11:32:13","",,48.8706119,2.3997641,,"église paroissiale","",17169,"75/paris-20/notre-dame-de-lourdes"
15258,"Notre-Dame de Nazareth","FR","Paris",,"75015","351 rue Lecourbe","2018-04-07 11:32:13","2018-04-07 11:32:13","https://lh3.googleusercontent.com/5gTG7IkB9qvdTit8XlN9Frnd9J-EmJNRZGXTfBsH3NOXKzqAwlotWU7ZSqcmhwASxeld2IQJC-ZfW_0V7VhQ24o=s85",,48.8366118,2.2832283,,"église paroissiale","",17170,"75/paris-15/notre-dame-de-nazareth"
15259,"Notre-Dame de l'Arche d'Alliance","FR","Paris",,"75015","81 rue d'Alleray","2018-04-07 11:32:14","2018-04-07 11:32:14","https://lh3.googleusercontent.com/NX-sgRqt9NIdFmCg-wYXx5F_QQTRpbQ2k4A52axjp61iwuNmw78K-ypPyu6CXn67QGTnSVGjpw21jXCmPccTfA=s85",,48.8364515,2.3084412,,"église paroissiale","",17171,"75/paris-15/notre-dame-de-l-arche-d-alliance"
15260,"Chapiteau Alexis Grüss (Cirque Alexis Grüss)","FR","Paris",,"75016","Carrefour des Cascades","2018-04-07 11:32:14","2018-04-07 11:32:14","",,48.8584677,2.2579187,,"Salle","",17172,"75/paris/chapiteau-alexis-gruss"
15261,"Notre-Dame de l'Assomption de Passy","FR","Paris",,"75016","90 rue de l'Assomption","2018-04-07 11:32:14","2018-04-07 11:32:14","https://lh3.googleusercontent.com/ipUqAMf0m4a2j0CCQk2Z8FTVrTRbH1QVg3Qy4Tw3QiYL4Tir35FkpUiJm1b2cMwPek8hTYjDX1dpnIg0WpYdQ98l=s85",,48.8557612,2.2665158,,"église paroissiale","",17172,"75/paris-16/notre-dame-de-l-assomption-de-passy"
15262,"Notre-Dame de l'Assomption des Buttes-Chaumont","FR","Paris",,"75019","80 rue de Meaux","2018-04-07 11:32:14","2018-04-07 11:32:14","https://lh3.googleusercontent.com/KtbgqHePhtBy8XMrk3hOu3KUVxOrh8ybGc7LZ5766uM3KwCSNW4UDsX9PPP7GOP9AnabfT3S66n4Mr8gIafEw_w=s85",,48.8841809,2.3783007,,"église paroissiale","",17173,"75/paris-19/notre-dame-de-l-assomption-des-buttes-chaumont"
15263,"Notre-Dame de la Croix","FR","Paris",,"75020","3 place de Ménilmontant","2018-04-07 11:32:14","2018-04-07 11:32:14","https://lh3.googleusercontent.com/RShVETx2QwZCzpbLqesIstXdDa1lyPeIhkd3cVbb4T1OeD_TtlmikqwEktNRe2BXFQUoR_wg_DnxZ8ujS8Xdlw=s85",,48.8685183,2.3880513,,"église paroissiale","",17174,"75/paris-20/notre-dame-de-la-croix"
15264,"Notre-Dame de la Gare (Jeanne d'Arc)","FR","Paris",,"75013","2 place jeanne d'Arc","2018-04-07 11:32:15","2018-04-07 11:32:15","https://lh3.googleusercontent.com/5hEOWhbS1mHexW6Dg9MNbdWED2NbBGeum0Ap7JG63_-NTmSG5qABpbNu-X2Z45zBFo-TxrwSrNj5vbEedq9gwA=s85",,48.82997,2.368066,,"église paroissiale","",17175,"75/paris-13/notre-dame-de-la-gare"
15265,"Notre-Dame de la Nativité de Bercy (Notre-Dame de Bercy)","FR","Paris",,"75012","Place Lachambeaudie","2018-04-07 11:32:15","2018-04-07 11:32:15","https://lh3.googleusercontent.com/TSXIU06SLH9PgTGYXs2_YiQoqHGvNI1TLQkarj5XniVTBbzY1-BKrEVzuIE6EVeZSNWE170v95GCZiLLSEgeEWRC=s85",,48.836177,2.3867519,,"église paroissiale","",17176,"75/paris-12/notre-dame-de-bercy"
15266,"Notre-Dame des Blancs-Manteaux","FR","Paris",,"75004","12 rue des Blancs-Manteaux","2018-04-07 11:32:15","2018-04-07 11:32:15","https://lh3.googleusercontent.com/fbeHX0SiVSSJBV6Nrg3gCQHOfYfL57jYdIPxJ73T8_-t7hVlnWA1SYaWTW-qcxgEtsgv_qdD3EpI_o9fhYnve_8=s85",,48.8587806,2.3575396,,"église paroissiale","",17177,"75/paris-04/notre-dame-des-blancs-manteaux"
15267,"Notre-Dame des Champs","FR","Paris",,"75006","91 boulevard du Montparnasse","2018-04-07 11:32:16","2018-04-07 11:32:16","https://lh3.googleusercontent.com/vcsd7l6d9-c_xF0Xl3ju-oBCBjulfId9GpYS85kg1VK75Ock7L5Eze3UJL79rv8TKBFnlKXR_VPpMS0zhQmqNpMT=s85",,48.8431029,2.3265309,,"église paroissiale","",17178,"75/paris-06/notre-dame-des-champs"
15268,"Notre-Dame des Foyers","FR","Paris",,"75019","18 rue de Tanger","2018-04-07 11:32:16","2018-04-07 11:32:16","https://lh3.googleusercontent.com/T5fNt21r2O_RtC3g4N0h3ofPPKQyB3kFDMlsDQ4D-oW6qi_ma8BP5mKRwHPj1OUe1PjcB-QvtoTmKGm8KvP3Mn0=s85",,48.8869043,2.3697244,,"église paroissiale","",17179,"75/paris-19/notre-dame-des-foyers"
15269,"Notre-Dame des Otages","FR","Paris",,"75020","81 rue Haxo","2018-04-07 11:32:16","2018-04-07 11:32:16","https://lh3.googleusercontent.com/OvTj9v64IBKR0WDilM-gD7v1F1xt7ZGeqvwnvQMe7WOhUXslxRNjwbjSBsqfyEDmqMhXDhBYg13_HxfwctIs4Trq=s85",,48.874199,2.4032866,,"église paroissiale","",17180,"75/paris-20/notre-dame-des-otages"
15270,"Basilique Notre Dame des Victoires","FR","Paris",,"75002","Place des Petits-Pères","2018-04-07 11:32:16","2018-04-07 11:32:16","https://lh3.googleusercontent.com/mNAYQO-Ub77sWDgzUsOyUoz0hnC0n1VaFWmxKc9KqTZWIpNGaounikNH975i6me_qkGw1pjtfnmcTktzVzaouW0=s85",,48.8664691,2.3410395,,"église paroissiale","",17181,"75/paris-02/basilique-notre-dame-des-victoires"
15271,"Notre-Dame du Bon Conseil","FR","Paris",,"75018","140 rue de Clignancourt","2018-04-07 11:32:17","2018-04-07 11:32:17","https://lh3.googleusercontent.com/pfzjudruX9pr6lDNmLJ2UbBMhJ7n_YjFOSp1v9zZy386RBQQCKEentE7IBbz_zFG9ujgYCnlZnE8m4WyEK_CAnZr=s85",,48.8950695,2.3495325,,"église paroissiale","",17182,"75/paris-18/notre-dame-du-bon-conseil"
15272,"Notre-Dame du Perpétuel-Secours","FR","Paris",,"75011","55 boulevard de Ménilmontant","2018-04-07 11:32:17","2018-04-07 11:32:17","",,48.8619466,2.3876546,,"église paroissiale","",17183,"75/paris-11/notre-dame-du-perpetuel-secours"
15273,"Notre-Dame du Rosaire","FR","Paris",,"75014","194 rue Raymond-Losserand","2018-04-07 11:32:17","2018-04-07 11:32:17","https://images.weserv.nl/?url=upload.wikimedia.org/wikipedia/commons/e/ed/%C3%89glise_Notre-Dame-du-Rosaire_%28Paris%29_2.jpg&t=fitup&w=85&h=85",,48.8291278,2.3080752,,"église paroissiale","",17184,"75/paris-14/notre-dame-du-rosaire"
15274,"Notre-Dame du Travail","FR","Paris",,"75014","59 rue Vercingétorix","2018-04-07 11:32:17","2018-04-07 11:32:17","https://lh3.googleusercontent.com/7IIzKMo7qcq2FLz4Z8_0k6ZDAhnF7SwzwbnLlUBmo9Ip3V_02VzE1rI9hEshnJngOWEWtWMXy9q8DhC6fp0rn8w=s85",,48.8359705,2.3162436,,"église paroissiale","",17185,"75/paris-14/notre-dame-du-travail"
15275,"Saint-Albert le Grand","FR","Paris",,"75013","122 rue de la Glacière","2018-04-07 11:32:17","2018-04-07 11:32:17","https://lh3.googleusercontent.com/zuPEBRnUlWxva0NK3AifXPLwx-dPNXBqrE-7MaBrN0aKaBbhUnmngEw-QhqH4C4CCs_1mcuWF3-hznpiQT00yA=s85",,48.8280255,2.3424846,,"église paroissiale","",17186,"75/paris-13/saint-albert-le-grand"
15276,"Saint-Ambroise","FR","Paris",,"75011","71 bis boulevard Voltaire","2018-04-07 11:32:18","2018-04-07 11:32:18","https://lh3.googleusercontent.com/V5fDrvlOYRB-LAm0w3BEkzHuLQSVRJQNB9YujjP1HDk9zglImD5oST53HwCV-7uw_C00-hbFc0n5zByVxeBN1gE=s85",,48.8613714,2.3746104,,"église paroissiale","",17187,"75/paris-11/saint-ambroise"
15277,"Saint-André de l'Europe","FR","Paris",,"75008","24 bis rue de Saint-Pétersbourg","2018-04-07 11:32:18","2018-04-07 11:32:18","https://lh3.googleusercontent.com/Waaw0deTsRKwHnXg_KdLMA7y8U-q894sHoxiYo1vyNRR9UmRNsKKrzANaM7aggCGo6rakkIK7Wr-tQgWeb90Db0=s85",,48.8815394,2.3255462,,"église paroissiale","",17188,"75/paris-08/saint-andre-de-l-europe"
15278,"Saint-Antoine de Padoue","FR","Paris",,"75015","52 boulevard Lefebvre","2018-04-07 11:32:18","2018-04-07 11:32:18","https://lh3.googleusercontent.com/2v7E49p6s4yFij45qFJCrefscKp9w0MzuQnoLilLCo8xmHZe7RNF1UsfibP8Bv13Vyc4Jg-3Urk1u2QFNY7mKEu_=s85",,48.8299545,2.2946965,,"église paroissiale","",17189,"75/paris-15/saint-antoine-de-padoue"
15279,"Saint-Antoine des Quinze-Vingts","FR","Paris",,"75012","66 avenue Ledru-Rollin","2018-04-07 11:32:18","2018-04-07 11:32:18","https://lh3.googleusercontent.com/TyOyMpQI678qK6CnrAyHtHEuB2XgdiZAfdkh15W98jl7ttgLLyLtZ5kINqvX9LPjNdU3nM6B-dA5GFeOb4FRA7k=s85",,48.8490055,2.3735494,,"église paroissiale","",17190,"75/paris-12/saint-antoine-des-quinze-vingts"
15280,"Saint-Augustin","FR","Paris",,"75008","Place Saint-Augustin","2018-04-07 11:32:18","2018-04-07 11:32:18","https://lh3.googleusercontent.com/nSUAwzQzM8TMNVJW7AS5g-ZVdpp_NGEVjCt608oMQTwPVVGcnQLWYNkO9n5LRYAAFZFZOS5BoOZ01QhTFegyzQA=s85",,48.8751309,2.3198332,,"église paroissiale","",17191,"75/paris-08/saint-augustin"
15281,"Saint-Bernard de la Chapelle","FR","Paris",,"75018","11 rue Affre","2018-04-07 11:32:18","2018-04-07 11:32:18","https://lh3.googleusercontent.com/lHZI6i-LYIL5gK2UDsrV4scz4bdqQqthrtPzda1x7zHYPD_j11ov20SDdEMX2mDg4Le77oRvQH5iw1hP4P_hQPXU=s85",,48.8859048,2.3556498,,"église paroissiale","",17192,"75/paris-18/saint-bernard-de-la-chapelle"
15282,"Saint-Charles de Monceau","FR","Paris",,"75017","22 bis rue Legendre","2018-04-07 11:32:19","2018-04-07 11:32:19","https://lh3.googleusercontent.com/nfK3ykrR0OewGcsQZ7pboHTdPNPD7m59J7MFcs-2UY5ZEDzySedItE0RGofB2TuOI4kethIJcbJPFGtifFsEIZc=s85",,48.8832606,2.3127678,,"église paroissiale","",17193,"75/paris-17/saint-charles-de-monceau"
15283,"Saint-Christophe de Javel","FR","Paris",,"75015","4 rue Saint-Christophe","2018-04-07 11:32:19","2018-04-07 11:32:19","https://lh3.googleusercontent.com/Ue-aF4fwIzhaRBeKsI4r-cMmeyA0Wna1LLGA_RQ3z4RF7lYdx6jJd6_7I8uWNNodYYL9DpdVjPoLfpUMa9YI7A=s85",,48.8446272,2.2797131,,"église paroissiale","",17194,"75/paris-15/saint-christophe-de-javel"
15284,"Saint Pierre Saint Paul","FR","PARIS 18",,"75018","44 rue Charles Hermite","2018-04-07 11:32:19","2018-04-07 11:32:19","",,48.8995462,2.3660999,,"eglise","",17195,"75/paris-18/saint-pierre-saint-paul"
15285,"Saint-Denys de la Chapelle","FR","Paris",,"75018","16-18 rue de la Chapelle","2018-04-07 11:32:19","2018-04-07 11:32:19","https://lh3.googleusercontent.com/UIR4JiVMr4pP8CUDyQUgDWjxJ8T_A8739944tpjaZqHaD31toP8n5m_P4zbo_JuD6xGvCEx-V_vkErovths1_2A=s85",,48.891449,2.3600942,,"église paroissiale","",17195,"75/paris-18/saint-denys-de-la-chapelle"
15286,"Sainte Jeanne d'Arc","FR","Paris",,"75018","18 rue de la Chapelle","2018-04-07 11:32:19","2018-04-07 11:32:19","https://lh3.googleusercontent.com/qjDe5jDync7FBn_OSfW4sil_YfFCCZTESQHwCpdZPCh5Dt8mux6y3lVBYekPcRo-djrPOtpsPml48avpLM5Mjg=s85",,48.891449,2.3600942,,"basilique","",17195,"75/paris-18/sainte-jeanne-d-arc"
15287,"Saint-Denys du Saint-Sacrement","FR","Paris",,"75003","68 bis rue de Turenne","2018-04-07 11:32:19","2018-04-07 11:32:19","https://lh3.googleusercontent.com/I43QX1FdDJPljHoS7EatyaDxwlR0qh1BIFvR7IJ0r7-aDNtAVnKiuPdaOKY32oiDkLQZNkTcqgASxoTyJEUpzYg=s85",,48.859992,2.3645584,,"église paroissiale","",17196,"75/paris-03/saint-denys-du-saint-sacrement"
15288,"Saint Yves","FR","PARIS 14",,"75014","11 rue Saint-Yves","2018-04-07 11:32:19","2018-04-07 11:32:19","",,48.8257497,2.3332311,,"eglise","",17197,"75/paris-14/saint-yves"
15289,"Saint-Dominique","FR","Paris",,"75014","20 rue de la Tombe Issoire","2018-04-07 11:32:19","2018-04-07 11:32:19","https://lh3.googleusercontent.com/7nJfgySCy0DZuIX_Rd2a25FpPh__EVkvpLdrLPm8860R5ByU2myarudpVLdjMKz9vN0hrdynSyV8P3ukJkM9ghw=s85",,48.8317935,2.3351594,,"église paroissiale","",17197,"75/paris-14/saint-dominique"
15290,"Saint-Esprit","FR","Paris",,"75012","186 avenue Daumesnil","2018-04-07 11:32:20","2018-04-07 11:32:20","https://lh3.googleusercontent.com/wKu63rghaHBEpFj2eePuk8n8XbULA-6uUjmQlWh8MttdgUxdL1mDZ5_eiNKWz3jjpu35GNCyXVtRZetYKelWSH4=s85",,48.8386,2.3982881,,"église paroissiale","",17198,"75/paris-12/saint-esprit"
15291,"Saint-Eugène - Sainte-Cécile","FR","Paris",,"75009","4 bis rue Sainte-Cécile","2018-04-07 11:32:20","2018-04-07 11:32:20","https://lh3.googleusercontent.com/GAPh54E-sXsCme_g9rHY8cJwIOLpsrum-7T0fTk4BKuFT8sqNO-gjkIBDIHK1vAOLuqTxGtnfD_daAC60uTsD8Q=s85",,48.8730908,2.3468723,,"église paroissiale","",17199,"75/paris-09/saint-eugene"
15292,"Saint-Eustache","FR","Paris",,"75001","146 rue Rambuteau","2018-04-07 11:32:20","2018-04-07 11:32:20","https://lh3.googleusercontent.com/Y_nFtpIjan_nN9u88TBsNXMaAKpgOPvAcOU8OyC5lUVEPhJUQpiSdZltcv1UL8re-Bs7OSLpTXOoikgyHyOV=s85",,48.8628062,2.3465029,,"église paroissiale","",17200,"75/paris-01/saint-eustache"
15346,"Saint-Paul","FR","Paris",,"75014","171, boulevard Brune","2018-04-07 11:32:28","2018-04-07 11:32:28","https://lh3.googleusercontent.com/ktAki9yYI8IFvVj_FNL-877XDRiM4j0NCm0SZbCKzu76LqaLoILBaOFp76eIS2tnAw9C1eqeZ9gNXYgUvSJTDVs=s85",,48.8242661,2.3225051,,"eglise","",17241,"75/paris-14/saint-paul"
15293,"Saint-Ferdinand des Ternes","FR","Paris",,"75017","27 rue d'Armaillé","2018-04-07 11:32:20","2018-04-07 11:32:20","https://lh3.googleusercontent.com/2yqS9tnmyNTbUurG3nypiS7Ynv6GUlCJwp9gN-2cYs_eNMggG2vL0pVMRY9WppIQbX5R0r4bbVZwj0XXobsQvI8=s85",,48.8787966,2.2909867,,"église paroissiale","",17201,"75/paris-17/saint-ferdinand-des-ternes"
15294,"Saint-François d'Assise","FR","Paris",,"75019","9 rue de Mouzaïa","2018-04-07 11:32:20","2018-04-07 11:32:20","https://lh3.googleusercontent.com/arvl3PwOKH5UhW1VQ5BmrPn4K33gLXZXuh7--Wr5o3Hxs04r5Ql_0Vy9YygIcJCys7SJL6cLudb0bEnuvBxXa2o=s85",,48.8802376,2.3917188,,"église paroissiale","",17202,"75/paris-19/saint-francois-d-assise"
15295,"Marie Réparatrice","FR","PARIS 16",,"75016","29 rue Michel Ange","2018-04-07 11:32:21","2018-04-07 11:32:21","",,48.8457848,2.2623544,,"eglise","",17203,"75/paris-16/marie-reparatrice"
15296,"Saint-François de Molitor","FR","Paris",,"75016","44 rue Molitor","2018-04-07 11:32:21","2018-04-07 11:32:21","https://lh3.googleusercontent.com/vFmp_ymEq5X5xcjwosJzh6WhAeGP5NMaElYWv4izbu52-YRaVS_wsYaXsaGrOQQeMf6XrXgVlrow5n6WA-vzH8s=s85",,48.8453705,2.259942,,"église paroissiale","",17203,"75/paris-16/saint-francois-de-molitor"
15297,"Saint-François de Sales (ancienne église)","FR","Paris",,"75017","6 rue Brémontier","2018-04-07 11:32:21","2018-04-07 11:32:21","https://lh3.googleusercontent.com/eSTdXgiZeSlcHQ0sPqqodrq0eWu7G01c_AOyh_9yjN9z_n3QL_pZXPiT5QAvOVX3yeRQYLXU57C5U-Z484S3f0n8=s85",,48.8843106,2.3044883,,"église paroissiale","",17204,"75/paris-17/saint-francois-de-sales-ancienne-eglise"
15298,"Saint-François de Sales (nouvelle église)","FR","Paris",,"75017","17 rue Ampère","2018-04-07 11:32:21","2018-04-07 11:32:21","",,48.8851281,2.3048028,,"église paroissiale","",17204,"75/paris-17/saint-francois-de-sales-nouvelle-eglise"
15299,"Missions Etrangères","FR","PARIS 07",,"75007","128 rue du Bac","2018-04-07 11:32:21","2018-04-07 11:32:21","",,48.8517787,2.3235252,,"eglise","",17205,"75/paris-07/missions-etrangeres"
15300,"Saint-François-Xavier (SFX)","FR","Paris",,"75007","12 place du Président-Mithouard","2018-04-07 11:32:21","2018-04-07 11:32:21","https://lh3.googleusercontent.com/uEOX6nsTwhXDla-7pXKvn5zo1iAKTjU0IPlFfHZTdWiFPCJjVZE2ebNHjkLIaXveRpCMH6NUHXj4XtoSHWy6wGg=s85",,48.8502383,2.3140535,,"église paroissiale","",17205,"75/paris-07/saint-francois-xavier"
15301,"Saint-Gabriel","FR","Paris",,"75020","5 rue des Pyrénées","2018-04-07 11:32:21","2018-04-07 11:32:21","https://lh3.googleusercontent.com/80gcu7axbr4IxHm_OPPwDocPJwsJInpL5U_n7A9CimdK_TnBNxQ6ZhqerLCFghjaj-l32sN-F5n71Yr9YWAc8A=s85",,48.848629,2.4064821,,"église paroissiale","",17206,"75/paris-20/saint-gabriel"
15302,"Saint-Georges","FR","Paris",,"75019","114 avenue Simon-Bolivar","2018-04-07 11:32:21","2018-04-07 11:32:21","https://lh3.googleusercontent.com/Rss-ARDRH7YvXwaFsIEjIiBSB-eJ7inQORk-wZlLuN3InadBts-67PKBws72kb8cGCaxVLtyPHo_mcr93Sk7AKI=s85",,48.8796668,2.3743596,,"église paroissiale","",17207,"75/paris-19/saint-georges"
15303,"Saint Cyrille - Saint Méthode","FR","Paris",,"75020","124 bis rue de Bagnolet","2018-04-07 11:32:22","2018-04-07 11:32:22","",,48.860345,2.4043422,,"eglise","",17208,"75/paris-20/saints-cyrille-et-methode-mission-croate"
15304,"Saint-Germain de Charonne","FR","Paris",,"75020","4 place Saint-Blaise","2018-04-07 11:32:22","2018-04-07 11:32:22","https://lh3.googleusercontent.com/liGeUYCHxHmS6u6n65GYpPYtFkny2jd1M5OsnkUR8hRIzn1OMsZn_-oLpYqKbgSGoRwdjCp_e7o0VLb-Ro4CLA=s85",,48.8610261,2.4048518,,"église paroissiale","",17208,"75/paris-20/saint-germain-de-charonne"
15305,"Saint-Germain des Prés","FR","Paris",,"75006","1 place Saint-Germain-des-Prés","2018-04-07 11:32:22","2018-04-07 11:32:22","https://lh3.googleusercontent.com/cPP8QCF3tcq8KcmX-wV1CxGnJEUJGnUYQJG2z9h5PNvCV_yEpVoq5KsiWIX6IysygjdrTxO7lsvxjgZTKhAxQg=s85",,48.8539415,2.3334287,,"église paroissiale","",17209,"75/paris-06/saint-germain-des-pres"
15306,"Saint-Germain l'Auxerrois","FR","Paris",,"75001","2 place du Louvre","2018-04-07 11:32:22","2018-04-07 11:32:22","https://lh3.googleusercontent.com/I3ccJnbVWSAVqgfkEOt56ZyYe5WUYF8dc78hW15ZSJzn4UritoUQM39Y0CUWnOp7t6LOt_JbkJ6Qe2a6dqdLP7M=s85",,48.8593872,2.3406943,,"église paroissiale","",17210,"75/paris-01/saint-germain-l-auxerrois"
15307,"Saint-Hippolyte","FR","Paris",,"75013","27 avenue de Choisy","2018-04-07 11:32:22","2018-04-07 11:32:22","https://lh3.googleusercontent.com/S_U_6vXfbO24K1bO_ovOgCleimlNAAaiVb24F62PA_Ui4l_0HqxatcwFSBNwWNZC8ZuaeRSVdTYjp5RLa8iIG5jv=s85",,48.8215677,2.3633403,,"église paroissiale","",17211,"75/paris-13/saint-hippolyte"
15308,"Chapelle du lycée Janson-de-Sailly","FR","Paris",,"75016","20 rue Decamps","2018-04-07 11:32:22","2018-04-07 11:32:22","",,48.8642629,2.2802903,,"chapelle d'établissement scolaire","",17212,"75/paris/chapelle-du-lycee-janson-de-sailly"
15309,"Chapelle Sainte-Thérèse (Saint-Honoré d'Eylau)","FR","Paris",,"75016","71 bis rue Boissière","2018-04-07 11:32:22","2018-04-07 11:32:22","",,48.8686499,2.2867777,,"chapelle","",17212,"75/paris-16/sainte-therese"
15310,"Saint-Honoré d'Eylau","FR","Paris",,"75016","66 bis avenue Raymond Poincaré","2018-04-07 11:32:22","2018-04-07 11:32:22","https://lh3.googleusercontent.com/t8q-lxt2ccr-SvBd-VLajt3cdeaX99OZJQIei1uHyJPWMCj5G4bFs9ofma-7mNaQgKrM_jpbKs7GbTe3t40N1pE3=s85",,48.8680884,2.2859187,,"église paroissiale","",17212,"75/paris-16/saint-honore-d-eylau-nouvelle-eglise"
15311,"Saint-Jacques - Saint-Christophe","FR","Paris",,"75019","6 place de Bitche","2018-04-07 11:32:22","2018-04-07 11:32:22","https://lh3.googleusercontent.com/d1z9oq1hifowprDs7jHRTyyHskojn3tV63f3-1MEXO22AWMYIOja60IXb99vNXfhYmLQXhUaJTfCPqKlrfzdmR9b=s85",,48.8890754,2.3793957,,"église paroissiale","",17213,"75/paris-19/saint-jacques-saint-christophe-de-la-vilette"
15312,"Institut national des Jeunes sourds (INJS)","FR","Paris",,"75005","252bis rue Saint-Jacques","2018-04-07 11:32:23","2018-04-07 11:32:23","",,48.8437009,2.3411019,,"chapelle","",17214,"75/paris/institut-national-des-jeunes-sourds"
15313,"Monastère de l'Adoration Réparatrice","FR","PARIS 05",,"75005","39 rue Gay-Lussac","2018-04-07 11:32:23","2018-04-07 11:32:23","",,48.8429471,2.3428699,,"monastere","",17214,"75/paris-05/monastere-de-l-adoration-reparatrice"
15314,"Saint-Jacques du Haut-Pas","FR","Paris",,"75005","252 rue Saint-Jacques","2018-04-07 11:32:23","2018-04-07 11:32:23","https://lh3.googleusercontent.com/qb5Oay0iaUB1qz7MRXZvZqoQAeFkeT-nnkE5jaQDcqxXgI5D_hmc4rmTk_i9yV1sGLw7kYsDFMerN0gFWIf5Tleo=s85",,48.8436465,2.3415893,,"église paroissiale","",17214,"75/paris-05/saint-jacques-du-haut-pas"
15315,"Saint Vincent","FR","PARIS 18",,"75018","22 rue Danrémont","2018-04-07 11:32:23","2018-04-07 11:32:23","",,48.891305,2.3529867,,"eglise","",17215,"75/paris-18/saint-vincent"
15316,"Saint-Jean de Montmartre","FR","Paris",,"75018","19 rue des Abbesses","2018-04-07 11:32:23","2018-04-07 11:32:23","https://lh3.googleusercontent.com/pglrihjJJvnZg18bT8cH0vTWowNcZMsNvBCTFTqj-dtIKClmOkY3vmzbeO903uOOWkRyOd_Q3M_prJ9eBZeLJDU=s85",,48.8845081,2.3380712,,"église paroissiale","",17215,"75/paris-18/saint-jean-de-montmartre"
15317,"Saint-Jean des Deux-Moulins","FR","Paris",,"75013","185 rue du Château-des-Rentiers","2018-04-07 11:32:23","2018-04-07 11:32:23","https://lh3.googleusercontent.com/pnklwLRfX9aDw9qZxRy2kzucIENwzZ-vgF6Fq2EMnUB2NRNzt2TZKCRRucgfmftENvX95AndqC_461IrF_bCSag=s85",,48.830585,2.360837,,"église paroissiale","",17216,"75/paris-13/saint-jean-des-deux-moulins"
15318,"Notre Dame de Belleville Reine des Familles","FR","PARIS 19",,"75019","5 allée Gabrielle d'Estrées, 3 rue Rampal","2018-04-07 11:32:23","2018-04-07 11:32:23","",,48.8731405,2.3797743,,"eglise","",17217,"75/paris-19/notre-dame-de-belleville-reine-des-familles"
15319,"Saint-Jean-Baptiste de Belleville","FR","Paris",,"75019","139 rue de Belleville","2018-04-07 11:32:23","2018-04-07 11:32:23","https://lh3.googleusercontent.com/I-rPnAu0GtLQklogtw3RTxFmJX0OG-h_9d7z9mrHII41GbJD0uiAGfpqToun2TfXZNNCXM34T4zk0GHM47AFu5Ko=s85",,48.8753768,2.3894585,,"église paroissiale","",17217,"75/paris-19/saint-jean-baptiste-de-belleville"
15320,"Saint-Jean-Baptiste de Grenelle","FR","Paris",,"75015","23 place Étienne-Pernet","2018-04-07 11:32:23","2018-04-07 11:32:23","https://lh3.googleusercontent.com/HVwiYeGKEfsV-t62tNAZCT7OzekJGPmy9IMCjjEt_o8ZYsaZ3uYGHtnKK9bezX6Adr9v90SBWOnipYrUL-iZgw=s85",,48.8432611,2.292626,,"église paroissiale","",17218,"75/paris-15/saint-jean-baptiste-de-grenelle"
15321,"Saint-Jean-Baptiste de La Salle (SJBS)","FR","Paris",,"75015","9 rue du Docteur-Roux","2018-04-07 11:32:24","2018-04-07 11:32:24","https://lh3.googleusercontent.com/urbJ9UzxYkUBZK0xoECf8l1ynKLFLMuS9Z9RIEDbEvdCsPPN9QfHqYQYIBVjLZ9FrnLIQHCulRsr9ZASZzcpVLNt=s85",,48.841529,2.312329,,"église paroissiale","",17219,"75/paris-15/saint-jean-baptiste-de-la-salle"
15322,"Saint-Jean-Bosco","FR","Paris",,"75020","79 rue Alexandre-Dumas","2018-04-07 11:32:24","2018-04-07 11:32:24","https://lh3.googleusercontent.com/FzNFmpanPX8FYCu9OHDkvc2ZOzmArJt4BJKUXPpXNl58V9WHp7N9BY380RQyF0o1m6w3idjZNQIwUrFeeS-9nFcz=s85",,48.8551875,2.3979203,,"église paroissiale","",17220,"75/paris-20/saint-jean-bosco"
15323,"Notre Dame Réconciliatrice","FR","PARIS 11",,"75011","57 boulevard de Belleville","2018-04-07 11:32:24","2018-04-07 11:32:24","",,48.8699515,2.3791245,,"eglise","",17221,"75/paris-11/notre-dame-reconciliatrice"
15324,"Saint-Joseph des Nations","FR","Paris",,"75011","161 bis rue Saint-Maur","2018-04-07 11:32:24","2018-04-07 11:32:24","https://lh3.googleusercontent.com/6zDhzCWnf1OC9Pv7xviS0VPFLWDGE5KQv1NHJ0EuUHEMr6fk_6doqMA965pNprk_W4mUlBEt8q0NGHMLx1uxpg=s85",,48.8690835,2.3742633,,"église paroissiale","",17221,"75/paris-11/saint-joseph-des-nations"
15325,"Saint-Joseph des Épinettes","FR","Paris",,"75017","40 rue Pouchet","2018-04-07 11:32:24","2018-04-07 11:32:24","https://lh3.googleusercontent.com/E_DeUtL1LoEU0QgJEwbNMFyMpNAiM9LyMhwKQY96fGvp65lOehfUKi5vuZ5n4znyr04l0KwValCg8_gc83WLr_2X=s85",,48.8936519,2.3202759,,"église paroissiale","",17222,"75/paris-17/saint-joseph-des-epinettes"
15326,"Notre-Dame des Malades","FR","Paris",,"75010","15 rue Philippe-de-Girard","2018-04-07 11:32:25","2018-04-07 11:32:25","",,48.8822635,2.3613563,,"eglise","",17223,"75/paris-10/notre-dame-des-malades"
15327,"Saint-Joseph-Artisan","FR","Paris",,"75010","214 rue Lafayette","2018-04-07 11:32:25","2018-04-07 11:32:25","https://lh3.googleusercontent.com/-komAPmiNt_ZGV1NbCIC1g73A9uYNwMG2QJEeZqDBT5QC2nSHpsIBvDA4qxykRXO7m9KpYVgCZOtbHfkiFhSiWyM=s85",,48.8818236,2.3671262,,"église paroissiale","",17223,"75/paris-10/saint-joseph-artisan"
15328,"Saint-Lambert de Vaugirard","FR","Paris",,"75015","Place Gerbert","2018-04-07 11:32:25","2018-04-07 11:32:25","https://lh3.googleusercontent.com/1vnYY8djMicA6jYygYbD36aFnmeRDu4n6e2-oI5KCI5g4kU-J4JU8j4GT-xxho_QCAMLif5LcxtviQ69NBcRfzS2=s85",,48.8392747,2.298406,,"église paroissiale","",17224,"75/paris-15/saint-lambert-de-vaugirard"
15329,"Saint-Laurent","FR","Paris",,"75010","68 boulevard Magenta","2018-04-07 11:32:25","2018-04-07 11:32:25","https://lh3.googleusercontent.com/QDGW01j2LhRhsqkoGyknO7JmimovnqOrtWHP9KwI6Q_TLMPQd5SefIvAYTv9gL8zJB_B4sDVZWlE8DBDLO76hA=s85",,48.8748368,2.3574288,,"église paroissiale","",17225,"75/paris-10/saint-laurent"
15330,"Saint-Leu - Saint-Gilles","FR","Paris",,"75001","92 rue Saint-Denis","2018-04-07 11:32:25","2018-04-07 11:32:25","https://lh3.googleusercontent.com/grT5FySCxk8SIf8n3VocyH0ukBL_75lS2aGbW4qMkxQCVbkcZa9cL6rom50bI2Mc1vEpRFoe4zbueNe7qfOy3-g=s85",,48.8626664,2.3496166,,"église paroissiale","",17226,"75/paris-01/saint-leu-saint-gilles"
15331,"Saint-Louis d'Antin","FR","Paris",,"75009","63 rue de Caumartin","2018-04-07 11:32:25","2018-04-07 11:32:25","",,48.8744736,2.3284151,,"église paroissiale","",17227,"75/paris-09/saint-louis-d-antin"
15332,"Saint-Louis en l'Île","FR","Paris",,"75004","19 bis rue Saint-Louis-en-l'Île","2018-04-07 11:32:26","2018-04-07 11:32:26","https://lh3.googleusercontent.com/g10WJDhx9jv1oYQ2ouo7L4HATFYg9yt4ahp6_SYVqcFGFJFH4PX4IaArNlfXhHoIYNUM3Q21x7rPEdIgLT1qX04=s85",,48.8512642,2.3580733,,"église paroissiale","",17228,"75/paris-04/saint-louis-en-l-ile"
15333,"Saint-Luc","FR","Paris",,"75019","80 rue de l'Ourcq","2018-04-07 11:32:26","2018-04-07 11:32:26","https://lh3.googleusercontent.com/fQBu0xPrwk0SVGGsQvata7QSfWtAm-BYhIUo1E1cxo9yv4K0rtvmWqwogW7G5QT2jrk3UPdFKrliae-02KtgC6k=s85",,48.893632,2.3759191,,"église paroissiale","",17229,"75/paris-19/saint-luc"
15334,"Saint-Léon","FR","Paris",,"75015","29 rue Dupleix","2018-04-07 11:32:26","2018-04-07 11:32:26","https://lh3.googleusercontent.com/eM4FFgM_nUe9vCr3L-Fb40e1T6LaISPROhgOE2W0V0RaTz-cOrgZccWz38aLfeSOqoVgtTfqWoZy-CO2R-ZsThbM=s85",,48.8512543,2.2964327,,"église paroissiale","",17230,"75/paris-15/saint-leon"
15335,"Saint-Marcel","FR","Paris",,"75013","82 boulevard de l'Hôpital","2018-04-07 11:32:26","2018-04-07 11:32:26","https://lh3.googleusercontent.com/e8vls87QlDgDKaz0_673Mgf3auEeA7GLDJ3bIwguoWb2pEYjsoUlpyd245ly38zCfFQDczuMhMouVDA0tjUzlNo=s85",,48.8371533,2.359703,,"église paroissiale","",17231,"75/paris-13/saint-marcel"
15336,"Saint-Martin des Champs","FR","Paris",,"75010","36 rue Albert-Thomas","2018-04-07 11:32:26","2018-04-07 11:32:26","https://lh3.googleusercontent.com/ShOLcjfDUXUg1P8TfLR7NNKxuTIds7jVQFQBNk0xLtPmQJtPGSdZpjLLJmuy_03UFDQqiRwE1RIB5CmVzv4TbE3b=s85",,48.8700431,2.362915,,"église paroissiale","",17232,"75/paris-10/saint-martin-des-champs"
15337,"Saint-Merry","FR","Paris",,"75004","78 rue Saint-Martin","2018-04-07 11:32:27","2018-04-07 11:32:27","https://lh3.googleusercontent.com/QiAx9DBm-jayMkPhpf_Pc3DgKSd85TmIYbEA4i6dEyKQ07pXdlTga4fkCkpzEgp8TGQ3ZmQwmy1cQ2fr0U1LZVph=s85",,48.8593561,2.3504838,,"église paroissiale","",17233,"75/paris-04/saint-merry"
15338,"Saint-Michel","FR","Paris",,"75017","1 place Saint-Jean","2018-04-07 11:32:27","2018-04-07 11:32:27","https://lh3.googleusercontent.com/y38RWg3GaWkJ2hmeA_xctmgsLspKk4za877z_JGQfN-GeICrtivQmCviTA2CXO8r7j-7coJZE-MTWDX_s7XNPg=s85",,48.8882984,2.3241399,,"église paroissiale","",17234,"75/paris-17/saint-michel-des-batignolles"
15339,"Saint-Médard","FR","Paris",,"75005","141 rue Mouffetard","2018-04-07 11:32:27","2018-04-07 11:32:27","https://lh3.googleusercontent.com/28gkPyrozgvGRL4RM5_chys6tQ5SDJr-LDXUusEoBAnEuGxNa6XtFhPx9eW2yIDIwlwyQujdcfqxo8V1SoWY8w=s85",,48.8399395,2.3505301,,"église paroissiale","",17235,"75/paris-05/saint-medard"
15340,"Saint-Nicolas des Champs","FR","Paris",,"75003","254 rue Saint-Martin","2018-04-07 11:32:27","2018-04-07 11:32:27","https://lh3.googleusercontent.com/BCsnzzHMN9iZyciC7gVzvIx85_lqHnwBXqFVphulsQdskFPYTOtOerEqUtCMmyJqzigqqYIeFitDiFOjFvb8Vw=s85",,48.8652403,2.3535811,,"église paroissiale","",17236,"75/paris-03/saint-nicolas-des-champs"
15341,"Saint-Paul - Saint-Louis","FR","Paris",,"75004","99 rue Saint-Antoine","2018-04-07 11:32:28","2018-04-07 11:32:28","https://lh3.googleusercontent.com/sTVI0Xn45gAI3UKKkCPWibkTXLFT_octen5suZ01EJTB6sKPqy_n6INBWRi0BTSOn0wozlbmP-xQOB2z5xkjfw=s85",,48.8550745,2.3616734,,"église paroissiale","",17237,"75/paris-04/saint-paul-saint-louis"
15342,"Saint-Philippe du Roule","FR","Paris",,"75008","154 rue du Faubourg-Saint-Honoré","2018-04-07 11:32:28","2018-04-07 11:32:28","https://lh3.googleusercontent.com/mY4yopu41v2jBxIDMzf3gi9Bjesnyzjf-fGS0VnPeJfrS7VnRuu3Grs1j2OdzU9vIENCeIFGGyvnlaymeAdCBA=s85",,48.8725912,2.3103605,,"église paroissiale","",17238,"75/paris-08/saint-philippe-du-roule"
15343,"Saint-Pierre de Chaillot","FR","Paris",,"75016","31 avenue Marceau","2018-04-07 11:32:28","2018-04-07 11:32:28","https://lh3.googleusercontent.com/S79Tkme-LjjYyE5-ekzQPu55Wz34gyihDVgWsPKwVz2EZ0qAgOvdtNnvMuEjVAOdrhCBsxzmv0GyhrRBh_9Yo9s=s85",,48.8678141,2.2991061,,"église paroissiale","",17239,"75/paris-16/saint-pierre-de-chaillot"
15344,"Carmel de Montmartre (carmélites)","FR","PARIS 18",,"75018","34 rue du Chevalier de la Barre","2018-04-07 11:32:28","2018-04-07 11:32:28","",,48.8872941,2.3432235,,"carmel","",17240,"75/paris-18/carmel-de-montmartre-carmelites"
15345,"Saint-Pierre de Montmartre","FR","Paris",,"75018","2 rue du Mont-Cenis","2018-04-07 11:32:28","2018-04-07 11:32:28","https://lh3.googleusercontent.com/zsgpu2RrBQ3bOIl_GRQpzRhmMzYlXF0Uf54aMDYY7QlFRAKhuohi7j7PqM3WfMOqbIuHGcXJt21ILnNGLa2M5Pk=s85",,48.8866836,2.3414996,,"église paroissiale","",17240,"75/paris-18/saint-pierre-de-montmartre"
15347,"Saint-Pierre de Montrouge","FR","Paris",,"75014","82 avenue du Général-Leclerc","2018-04-07 11:32:28","2018-04-07 11:32:28","https://lh3.googleusercontent.com/6iivhW4teD20Sbo3QRCn024n6tHtaWnh_GT1NKXQZ567m1Hsp1grusD9P8gT9mW7U9fIgpL6L_P72lsJKS3Riw=s85",,48.8283598,2.3273021,,"église paroissiale","",17241,"75/paris-14/saint-pierre-de-montrouge"
15348,"Saint-Pierre du Gros-Caillou","FR","Paris",,"75007","92 rue Saint-Dominique","2018-04-07 11:32:29","2018-04-07 11:32:29","https://lh3.googleusercontent.com/6qywZvKR9X1jLLdrxdvlzgQgBjHo3aCYDUYk_l5xSnSTieGwdOgVQsXQEA71R5YzL5hEKILq4FbsLvt73h5H2WAM=s85",,48.8593208,2.3052195,,"église paroissiale","",17242,"75/paris-07/saint-pierre-du-gros-caillou"
15349,"Saint-Roch","FR","Paris",,"75001","296 rue Saint-Honoré","2018-04-07 11:32:29","2018-04-07 11:32:29","https://lh3.googleusercontent.com/U_VPEl6Hx9BtdiYZf82M0lbWMgZfdJwyK0YKkowYFzf7Tx0P08lJ-4xkVbD8pJOFwLF434Piy3yNJXAu8dq6wZc=s85",,48.8653668,2.3326108,,"église paroissiale","",17243,"75/paris-01/saint-roch"
15350,"Saint-Sulpice","FR","Paris",,"75006","2 rue Palatine","2018-04-07 11:32:29","2018-04-07 11:32:29","https://lh3.googleusercontent.com/An6w1b-QsCL5oSQ_umXx9ZrkmVhtyqjLpkQlq7A-4uS5PX6hJ1ZODnVrSuCZ-2fYeLYeeqPLrYpUGiO4AZq53w=s85",,48.8506881,2.3348545,,"église paroissiale","",17244,"75/paris-06/saint-sulpice"
15351,"Saint-Séverin","FR","Paris",,"75005","1 rue des Prêtres-Saint-Séverin","2018-04-07 11:32:30","2018-04-07 11:32:30","https://lh3.googleusercontent.com/mw1nF5joHaLQecBQSxCE3d3A1dS5xmO5n_fJmQnHCkIrx2jRBjxi-0exIrTW2X2QB2bK4imlXUPAkD2QowLtSw=s85",,48.8520012,2.3451533,,"église paroissiale","",17245,"75/paris-05/saint-severin"
15352,"Saint-Thomas d'Aquin","FR","Paris",,"75007","Place Saint-Thomas d'Aquin","2018-04-07 11:32:30","2018-04-07 11:32:30","https://lh3.googleusercontent.com/Ge8iUiBljaCZ0p2MJU1iOdmsdhuIuirxT1uPu0EV9DFWjqltj70-TMJA87bTtILyXAmoDu8X1oUpLiCR0nwLQJYS=s85",,48.8560457,2.3274708,,"église paroissiale","",17246,"75/paris-07/saint-thomas-d-aquin"
15353,"Saint-Vincent de Paul","FR","Paris",,"75010","Place Franz-Liszt","2018-04-07 11:32:30","2018-04-07 11:32:30","https://lh3.googleusercontent.com/9zX_oyoNNeuoefuqUhmzDwfzF-VsbbX4qI0Ohd9tWAGNxwLWPXETYV6wNEQ7-xdn7xI3mF6Ag81NhRTckUhqpY8=s85",,48.8777197,2.3519198,,"église paroissiale","",17247,"75/paris-10/saint-vincent-de-paul"
15354,"Saint-Éloi","FR","Paris",,"75012","3 place Maurice-de-Fontenay","2018-04-07 11:32:30","2018-04-07 11:32:30","https://lh3.googleusercontent.com/Ta8A2UDtzCZQ88k_chXyx-TL6SFiNNY5xxP-Pti8tWstWxA8-3CYVaW8TVgfZDq4fBWrXMIS-feAcwkHxJs7gg=s85",,48.8450408,2.3890212,,"église paroissiale","",17248,"75/paris-12/saint-eloi"
15355,"Chapelle Saint Patrick (Irlandais)","FR","Paris",,"75005","5 rue des Irlandais","2018-04-07 11:32:30","2018-04-07 11:32:30","",,48.844266,2.346041,,"chapelle","",17249,"75/paris/chapelle-saint-patrick-aumonerie-des-irlandais-"
15356,"Saint-Étienne du Mont","FR","Paris",,"75005","Place Sainte-Geneviève","2018-04-07 11:32:30","2018-04-07 11:32:30","https://lh3.googleusercontent.com/T8H2x6ObNuGxbJNIrQ6eOQ6mJBPhYlAc9nXTFuyRgbfc_AgDl9HXX63_Zq9bQwFW101aBXob3-FsnjPJbXlbMg=s85",,48.8465392,2.3480897,,"église paroissiale","",17249,"75/paris-05/saint-etienne-du-mont"
15357,"Sainte-Anne de la Butte-aux-Cailles","FR","Paris",,"75013","188 rue de Tolbiac","2018-04-07 11:32:31","2018-04-07 11:32:31","https://lh3.googleusercontent.com/OVLoPFgB0PkpOyXkbEWvztht90Rv71GSlTs2tWKeaevbR4DvwpY11uWm6dpXftaHOgafbjfNeNBJcnv757IVPnA=s85",,48.8261102,2.3499764,,"église paroissiale","",17250,"75/paris-13/sainte-anne-de-la-butte-aux-cailles"
15358,"Sainte-Claire (Sainte-Claire d'Assise)","FR","Paris",,"75019","Place de la Porte-de-Pantin","2018-04-07 11:32:31","2018-04-07 11:32:31","https://lh4.ggpht.com/2D6hRzlG--q9H269n8JwjAXiorjRKE2qQp4NhgZ8371M1Bfai6K0zDhvOTxkZxylyaR9Es8BuM0TZBHnBzuBFitY=s85",,48.8888773,2.3959753,,"église paroissiale","",17251,"75/paris-19/sainte-claire"
15359,"Chapelle de Jésus Enfant","FR","Paris",,"75007","29 rue Las-Cases","2018-04-07 11:32:31","2018-04-07 11:32:31","",,48.8590373,2.3183973,,"chapelle","",17252,"75/paris-07/chapelle-de-jesus-enfant"
15360,"Sainte-Clotilde","FR","Paris",,"75007","23 bis rue Las Cases","2018-04-07 11:32:31","2018-04-07 11:32:31","https://lh3.googleusercontent.com/yMuuzWyvZaTKY3WsU3gzE8mJspKI-pFZwJeqOQ9f4AZCqeAcGO5_uiki0YO2uAeinN-HLg6OKQOMVoj8r4nblw=s85",,48.8587216,2.3194479,,"église paroissiale","",17252,"75/paris-07/sainte-clotilde"
15361,"Sainte-Colette des Buttes-Chaumont","FR","Paris",,"75019","14 allée Darius-Milhaud","2018-04-07 11:32:31","2018-04-07 11:32:31","https://lh3.googleusercontent.com/mzqfTpi8pF1UBWlFVT6hv-PjATxCX2XACEudcUL34XcMz8O9_oDoBXjPXbQqjB9GIjmpvO2yQfEjuHP9QCGxQ2g=s85",,48.8839467,2.3863683,,"église paroissiale","",17253,"75/paris-19/sainte-colette-des-buttes-chaumont"
15362,"Sainte-Geneviève des Grandes-Carrières (Sainte-Geneviève)","FR","Paris",,"75018","174 rue Championnet","2018-04-07 11:32:31","2018-04-07 11:32:31","https://lh3.googleusercontent.com/_LYqvfUEbEZA0uq72JoEJHJPrmC9Vqb7pD8GPAfWbrt_cI_IxkriDcaRP6TPHQNbt98aHNzJHSceHmxZUoqRmA=s85",,48.8946216,2.3339844,,"église paroissiale","",17254,"75/paris-18/sainte-genevieve-des-grandes-carrieres"
15363,"Sainte-Hélène","FR","Paris",,"75018","102 rue du Ruisseau","2018-04-07 11:32:32","2018-04-07 11:32:32","",,48.8966315,2.3420842,,"église paroissiale","",17255,"75/paris-18/sainte-helene"
15364,"Sainte-Jeanne de Chantal","FR","Paris",,"75016","Place de la Porte de Saint-Cloud","2018-04-07 11:32:32","2018-04-07 11:32:32","https://lh3.googleusercontent.com/fAEJhKPn5Bw7bJgqL4r7AhfJ1aTnEuMC6fnDPePkO_AYEXArB31C5hIR5-Z1roZRj0_hGeyzJzUJ27duPU4p7_VE=s85",,48.8381176,2.2575072,,"église paroissiale","",17256,"75/paris-16/sainte-jeanne-de-chantal"
15365,"Sainte-Marguerite","FR","Paris",,"75011","36 rue Saint-Bernard","2018-04-07 11:32:32","2018-04-07 11:32:32","https://lh3.googleusercontent.com/imkIhua-v5HTqwyVbMzg_TYIWgxyu_hY-M1IXveJ1L9UTL8kISTe0phgqzx9rg_NSaCO1H4w6V6yfo2Rvcj09067=s85",,48.8524623,2.3811093,,"église paroissiale","",17257,"75/paris-11/sainte-marguerite"
15366,"Maison Ozanam","FR","Paris",,"75017","15 rue René Blum","2018-04-07 11:32:32","2018-04-07 11:32:32","https://lh3.googleusercontent.com/mGOpYCDSas3McLxlhk94G8fw3-ccExC_5zQssP9ZymZtgUNh_YIIj1IWZT4XX6_JPvlTRNIvbyK8GABJBKKfNpc=s85",,48.89115,2.3178792,,"chapelle","",17258,"75/paris/maison-ozanam"
15367,"Sainte-Marie des Batignolles","FR","Paris",,"75017","77 place du Docteur-Félix-Lobligeois","2018-04-07 11:32:32","2018-04-07 11:32:32","https://lh3.googleusercontent.com/GnXGctYIyrNeqrj7gotk_m2GhhLfpBxBa5N-kk4HgUlSFOSfcCOLtagPdFb1_YD826r3QOB5K_717CHwRHqyd52q=s85",,48.8864053,2.3180679,,"église paroissiale","",17258,"75/paris-17/sainte-marie-des-batignolles"
15368,"Sainte-Marie-Madeleine (La Madeleine)","FR","Paris",,"75008","Place de la Madeleine","2018-04-07 11:32:32","2018-04-07 11:32:32","https://lh3.googleusercontent.com/InGcHlVb_9UMRFPd1xk2Mpg3Rad-JIuv2wwdarD7ImCsIAeU3OL0RUJc4TvlJjjvk72oD9oZ6a9j1tpd1Sznwmqb=s85",,48.8700777,2.324007,,"église paroissiale","",17259,"75/paris-08/la-madeleine"
15369,"Saint Martin de Porrès","FR","Paris",,"75017","41 rue Jacques-Ibert","2018-04-07 11:32:32","2018-04-07 11:32:32","",,48.887042,2.2870634,,"eglise","",17260,"75/paris-17/saint-martin-de-porres"
15370,"Sainte-Odile","FR","Paris",,"75017","2 avenue Stéphane-Mallarmé","2018-04-07 11:32:32","2018-04-07 11:32:32","https://lh3.googleusercontent.com/79FY-SHn5kAN5atUFwkITOGWfwziNd5ZvEjs9KRe3lB0Lz_KqhsFSJSVN-Nb8MKDvg233JcctKexxc1E0DbrCmTk=s85",,48.8867737,2.293194,,"église paroissiale","",17260,"75/paris-17/sainte-odile"
15371,"Saint Jacques","FR","PARIS 13",,"75013","20 rue des Tanneries","2018-04-07 11:32:33","2018-04-07 11:32:33","",,48.83322,2.3460191,,"eglise","",17261,"75/paris-13/saint-jacques"
15372,"Sainte-Rosalie","FR","Paris",,"75013","50 boulevard Auguste-Blanqui","2018-04-07 11:32:33","2018-04-07 11:32:33","https://lh3.googleusercontent.com/AA42k9ilr-uVsB4RlovzBzsLT3QIKu6ZrEynMzoBiEa5JHLSo2XIawF65o3_BECmIrvcZkhmHRRIyi8kQBaOC3U=s85",,48.8299444,2.3499159,,"église paroissiale","",17261,"75/paris-13/sainte-rosalie"
15373,"Sainte-Rita","FR","Paris",,"75009","65 boulevard de Clichy","2018-04-07 11:32:33","2018-04-07 11:32:33","https://lh3.googleusercontent.com/UV91kMfZjxfTIq4PE_emkR3wUIedMlc3N8XXsRHN8msUaYMj58JV4GHeLzp3OQ3fdQeSuFuO8wddLlymrirDmlY=s85",,48.8838082,2.3318646,,"chapelle","",17262,"75/paris-09/sainte-rita"
15374,"Sainte-Trinité (La Trinité)","FR","Paris",,"75009","3 rue de la Trinité","2018-04-07 11:32:33","2018-04-07 11:32:33","https://lh3.googleusercontent.com/rT1tKwMbB0UGN7i5f0Igg6vMW5jSwPQUcN17b07qpEWuklWU7c2p8zW_dBKRNquAog9fMJ6gYWm15b5Pi7N70vk=s85",,48.8764545,2.3317819,,"église paroissiale","",17262,"75/paris-09/la-trinite"
15375,"Sainte-Élisabeth","FR","Paris",,"75003","195 rue du Temple","2018-04-07 11:32:33","2018-04-07 11:32:33","https://lh3.googleusercontent.com/qZOGO-u92ox4TrUntlCf3N-cmCpy5_OqLVQZwsznYk9hWDECRBOTR_ROTRe6YGVeJ5uQAw1MxpgEpYFOiu98PA0=s85",,48.8660964,2.3610818,,"église paroissiale","",17263,"75/paris-03/sainte-elisabeth"
14964,"Saint-Gilles","FR","BOIS D'ARCY",,"78390","3 Place de l'Eglise","2018-04-07 11:25:05","2018-04-07 11:25:05","https://lh3.googleusercontent.com/t4sd_9tz3oK4Ne6u57-QExPJhbO-UEbA2yVsBqYI1aPhgYGsb1i0awk0KQ3XWAMDf7wFrf7c2UCf6-Vv5K_a4GD4=s85",,48.8018556,2.0179239,,"eglise","",17097,"78/bois-d-arcy/saint-leu-saint-gilles"
